<?xml version="1.0" encoding="UTF-8" standalone="no" ?>
<gpx xmlns="http://www.topografix.com/GPX/1/1" xmlns:xsi="http://www.w3.org/2001/XMLSchema-instance" xsi:schemaLocation="http://www.topografix.com/GPX/1/1 http://www.topografix.com/GPX/1/1/gpx.xsd" version="1.1" creator="VisuGPX - https://www.visugpx.com">
  <metadata>
    <name>Annecy – Monts Veyrier et Baron </name>
    <desc><![CDATA[Randonnée facile principalement en sous-bois donnant accès à la corniche qui surplombe le lac d'Annecy. Le stationnement est difficile les jours de forte affluence.]]></desc>
  </metadata>
  <trk>
    <name><![CDATA[D074 Monts Veyrier Baron 09/08/2023 09:56:15]]></name>
    <trkseg>
      <trkpt lat="45.9089" lon="6.1746">
        <ele>1015.799987793</ele>
        <time>2023-08-09T09:18:23Z</time>
      </trkpt>
      <trkpt lat="45.90887" lon="6.17433">
        <ele>1014</ele>
        <time>2023-08-09T09:18:43Z</time>
      </trkpt>
      <trkpt lat="45.90874" lon="6.174">
        <ele>1013</ele>
        <time>2023-08-09T09:19:04Z</time>
      </trkpt>
      <trkpt lat="45.90865" lon="6.17373">
        <ele>1011.799987793</ele>
        <time>2023-08-09T09:19:23Z</time>
      </trkpt>
      <trkpt lat="45.90863" lon="6.17368">
        <ele>1011.5999755859</ele>
        <time>2023-08-09T09:19:28Z</time>
      </trkpt>
      <trkpt lat="45.90854" lon="6.17333">
        <ele>1010.4000244141</ele>
        <time>2023-08-09T09:19:47Z</time>
      </trkpt>
      <trkpt lat="45.90849" lon="6.17311">
        <ele>1009</ele>
        <time>2023-08-09T09:20:02Z</time>
      </trkpt>
      <trkpt lat="45.90844" lon="6.17294">
        <ele>1007</ele>
        <time>2023-08-09T09:20:20Z</time>
      </trkpt>
      <trkpt lat="45.90837" lon="6.17277">
        <ele>1006.4000244141</ele>
        <time>2023-08-09T09:20:40Z</time>
      </trkpt>
      <trkpt lat="45.90816" lon="6.17261">
        <ele>1007.200012207</ele>
        <time>2023-08-09T09:20:59Z</time>
      </trkpt>
      <trkpt lat="45.90801" lon="6.17251">
        <ele>1008.5999755859</ele>
        <time>2023-08-09T09:21:19Z</time>
      </trkpt>
      <trkpt lat="45.90794" lon="6.17243">
        <ele>1009.4000244141</ele>
        <time>2023-08-09T09:21:32Z</time>
      </trkpt>
      <trkpt lat="45.90787" lon="6.17236">
        <ele>1011</ele>
        <time>2023-08-09T09:21:51Z</time>
      </trkpt>
      <trkpt lat="45.90773" lon="6.1722">
        <ele>1012.200012207</ele>
        <time>2023-08-09T09:22:11Z</time>
      </trkpt>
      <trkpt lat="45.90763" lon="6.17213">
        <ele>1013.4000244141</ele>
        <time>2023-08-09T09:22:25Z</time>
      </trkpt>
      <trkpt lat="45.9076" lon="6.17211">
        <ele>1013.799987793</ele>
        <time>2023-08-09T09:22:36Z</time>
      </trkpt>
      <trkpt lat="45.9077" lon="6.17225">
        <ele>1015.5999755859</ele>
        <time>2023-08-09T09:22:58Z</time>
      </trkpt>
      <trkpt lat="45.90772" lon="6.17246">
        <ele>1017.4000244141</ele>
        <time>2023-08-09T09:23:19Z</time>
      </trkpt>
      <trkpt lat="45.90776" lon="6.17261">
        <ele>1017.799987793</ele>
        <time>2023-08-09T09:23:34Z</time>
      </trkpt>
      <trkpt lat="45.90778" lon="6.17282">
        <ele>1019.200012207</ele>
        <time>2023-08-09T09:23:54Z</time>
      </trkpt>
      <trkpt lat="45.90786" lon="6.17301">
        <ele>1020.5999755859</ele>
        <time>2023-08-09T09:24:13Z</time>
      </trkpt>
      <trkpt lat="45.90792" lon="6.1732">
        <ele>1021.799987793</ele>
        <time>2023-08-09T09:24:31Z</time>
      </trkpt>
      <trkpt lat="45.90789" lon="6.1733">
        <ele>1023</ele>
        <time>2023-08-09T09:24:50Z</time>
      </trkpt>
      <trkpt lat="45.90777" lon="6.17323">
        <ele>1024.4000244141</ele>
        <time>2023-08-09T09:25:11Z</time>
      </trkpt>
      <trkpt lat="45.90773" lon="6.17325">
        <ele>1025.4000244141</ele>
        <time>2023-08-09T09:25:31Z</time>
      </trkpt>
      <trkpt lat="45.90777" lon="6.17347">
        <ele>1026.1999511719</ele>
        <time>2023-08-09T09:25:49Z</time>
      </trkpt>
      <trkpt lat="45.90782" lon="6.17371">
        <ele>1027.1999511719</ele>
        <time>2023-08-09T09:26:09Z</time>
      </trkpt>
      <trkpt lat="45.90779" lon="6.1737">
        <ele>1028.5999755859</ele>
        <time>2023-08-09T09:26:27Z</time>
      </trkpt>
      <trkpt lat="45.90777" lon="6.17373">
        <ele>1030.4000244141</ele>
        <time>2023-08-09T09:26:46Z</time>
      </trkpt>
      <trkpt lat="45.90771" lon="6.17371">
        <ele>1031.1999511719</ele>
        <time>2023-08-09T09:27:00Z</time>
      </trkpt>
      <trkpt lat="45.90764" lon="6.17374">
        <ele>1032.5999755859</ele>
        <time>2023-08-09T09:27:19Z</time>
      </trkpt>
      <trkpt lat="45.90765" lon="6.1737">
        <ele>1032.5999755859</ele>
        <time>2023-08-09T09:27:39Z</time>
      </trkpt>
      <trkpt lat="45.90754" lon="6.17355">
        <ele>1033.5999755859</ele>
        <time>2023-08-09T09:28:00Z</time>
      </trkpt>
      <trkpt lat="45.90754" lon="6.17366">
        <ele>1034.8000488281</ele>
        <time>2023-08-09T09:28:17Z</time>
      </trkpt>
      <trkpt lat="45.90754" lon="6.17383">
        <ele>1036.1999511719</ele>
        <time>2023-08-09T09:28:35Z</time>
      </trkpt>
      <trkpt lat="45.90752" lon="6.17403">
        <ele>1037.4000244141</ele>
        <time>2023-08-09T09:28:53Z</time>
      </trkpt>
      <trkpt lat="45.90744" lon="6.17393">
        <ele>1038.8000488281</ele>
        <time>2023-08-09T09:29:12Z</time>
      </trkpt>
      <trkpt lat="45.90734" lon="6.17387">
        <ele>1040</ele>
        <time>2023-08-09T09:29:30Z</time>
      </trkpt>
      <trkpt lat="45.90725" lon="6.17371">
        <ele>1041</ele>
        <time>2023-08-09T09:29:49Z</time>
      </trkpt>
      <trkpt lat="45.90714" lon="6.17356">
        <ele>1043</ele>
        <time>2023-08-09T09:30:11Z</time>
      </trkpt>
      <trkpt lat="45.9071" lon="6.17347">
        <ele>1043.8000488281</ele>
        <time>2023-08-09T09:30:32Z</time>
      </trkpt>
      <trkpt lat="45.90697" lon="6.17328">
        <ele>1045.1999511719</ele>
        <time>2023-08-09T09:30:50Z</time>
      </trkpt>
      <trkpt lat="45.90692" lon="6.17319">
        <ele>1046.4000244141</ele>
        <time>2023-08-09T09:31:08Z</time>
      </trkpt>
      <trkpt lat="45.90688" lon="6.17316">
        <ele>1047.1999511719</ele>
        <time>2023-08-09T09:31:26Z</time>
      </trkpt>
      <trkpt lat="45.90689" lon="6.17314">
        <ele>1046.4000244141</ele>
        <time>2023-08-09T09:31:51Z</time>
      </trkpt>
      <trkpt lat="45.90673" lon="6.17296">
        <ele>1049</ele>
        <time>2023-08-09T09:32:12Z</time>
      </trkpt>
      <trkpt lat="45.90668" lon="6.17289">
        <ele>1050.1999511719</ele>
        <time>2023-08-09T09:32:30Z</time>
      </trkpt>
      <trkpt lat="45.90656" lon="6.1728">
        <ele>1051.8000488281</ele>
        <time>2023-08-09T09:32:52Z</time>
      </trkpt>
      <trkpt lat="45.90651" lon="6.17286">
        <ele>1053.1999511719</ele>
        <time>2023-08-09T09:33:09Z</time>
      </trkpt>
      <trkpt lat="45.90641" lon="6.17291">
        <ele>1054.5999755859</ele>
        <time>2023-08-09T09:33:29Z</time>
      </trkpt>
      <trkpt lat="45.90628" lon="6.17286">
        <ele>1055.4000244141</ele>
        <time>2023-08-09T09:33:49Z</time>
      </trkpt>
      <trkpt lat="45.90616" lon="6.17276">
        <ele>1056</ele>
        <time>2023-08-09T09:34:10Z</time>
      </trkpt>
      <trkpt lat="45.90601" lon="6.17257">
        <ele>1056</ele>
        <time>2023-08-09T09:34:32Z</time>
      </trkpt>
      <trkpt lat="45.9059" lon="6.17247">
        <ele>1055.8000488281</ele>
        <time>2023-08-09T09:34:49Z</time>
      </trkpt>
      <trkpt lat="45.90586" lon="6.17241">
        <ele>1055.5999755859</ele>
        <time>2023-08-09T09:35:09Z</time>
      </trkpt>
      <trkpt lat="45.9058" lon="6.17236">
        <ele>1055</ele>
        <time>2023-08-09T09:35:33Z</time>
      </trkpt>
      <trkpt lat="45.90573" lon="6.17235">
        <ele>1056</ele>
        <time>2023-08-09T09:35:52Z</time>
      </trkpt>
      <trkpt lat="45.9057" lon="6.17233">
        <ele>1055.8000488281</ele>
        <time>2023-08-09T09:36:14Z</time>
      </trkpt>
      <trkpt lat="45.90564" lon="6.17233">
        <ele>1057.1999511719</ele>
        <time>2023-08-09T09:36:27Z</time>
      </trkpt>
      <trkpt lat="45.90552" lon="6.17232">
        <ele>1060</ele>
        <time>2023-08-09T09:36:50Z</time>
      </trkpt>
      <trkpt lat="45.90549" lon="6.17236">
        <ele>1061.1999511719</ele>
        <time>2023-08-09T09:37:05Z</time>
      </trkpt>
      <trkpt lat="45.90552" lon="6.1724">
        <ele>1063</ele>
        <time>2023-08-09T09:37:22Z</time>
      </trkpt>
      <trkpt lat="45.90553" lon="6.17247">
        <ele>1064.1999511719</ele>
        <time>2023-08-09T09:37:41Z</time>
      </trkpt>
      <trkpt lat="45.90557" lon="6.17251">
        <ele>1065.8000488281</ele>
        <time>2023-08-09T09:37:59Z</time>
      </trkpt>
      <trkpt lat="45.90556" lon="6.17252">
        <ele>1067.1999511719</ele>
        <time>2023-08-09T09:38:19Z</time>
      </trkpt>
      <trkpt lat="45.90551" lon="6.17255">
        <ele>1068.5999755859</ele>
        <time>2023-08-09T09:38:38Z</time>
      </trkpt>
      <trkpt lat="45.90548" lon="6.17262">
        <ele>1069</ele>
        <time>2023-08-09T09:39:02Z</time>
      </trkpt>
      <trkpt lat="45.90542" lon="6.17266">
        <ele>1071</ele>
        <time>2023-08-09T09:39:22Z</time>
      </trkpt>
      <trkpt lat="45.90546" lon="6.17271">
        <ele>1073</ele>
        <time>2023-08-09T09:39:42Z</time>
      </trkpt>
      <trkpt lat="45.9055" lon="6.17275">
        <ele>1075.1999511719</ele>
        <time>2023-08-09T09:40:04Z</time>
      </trkpt>
      <trkpt lat="45.9055" lon="6.1728">
        <ele>1077.1999511719</ele>
        <time>2023-08-09T09:40:25Z</time>
      </trkpt>
      <trkpt lat="45.90544" lon="6.17282">
        <ele>1079</ele>
        <time>2023-08-09T09:40:45Z</time>
      </trkpt>
      <trkpt lat="45.90538" lon="6.17286">
        <ele>1079.8000488281</ele>
        <time>2023-08-09T09:41:04Z</time>
      </trkpt>
      <trkpt lat="45.90543" lon="6.17288">
        <ele>1081.1999511719</ele>
        <time>2023-08-09T09:41:23Z</time>
      </trkpt>
      <trkpt lat="45.90546" lon="6.17292">
        <ele>1082.8000488281</ele>
        <time>2023-08-09T09:41:43Z</time>
      </trkpt>
      <trkpt lat="45.9055" lon="6.17295">
        <ele>1084.1999511719</ele>
        <time>2023-08-09T09:42:00Z</time>
      </trkpt>
      <trkpt lat="45.90554" lon="6.17303">
        <ele>1086.1999511719</ele>
        <time>2023-08-09T09:42:21Z</time>
      </trkpt>
      <trkpt lat="45.90552" lon="6.17306">
        <ele>1088.1999511719</ele>
        <time>2023-08-09T09:42:43Z</time>
      </trkpt>
      <trkpt lat="45.90553" lon="6.17314">
        <ele>1088.8000488281</ele>
        <time>2023-08-09T09:43:02Z</time>
      </trkpt>
      <trkpt lat="45.90555" lon="6.1732">
        <ele>1090.8000488281</ele>
        <time>2023-08-09T09:43:25Z</time>
      </trkpt>
      <trkpt lat="45.90561" lon="6.1733">
        <ele>1092.1999511719</ele>
        <time>2023-08-09T09:43:45Z</time>
      </trkpt>
      <trkpt lat="45.90564" lon="6.17336">
        <ele>1093</ele>
        <time>2023-08-09T09:44:01Z</time>
      </trkpt>
      <trkpt lat="45.90566" lon="6.17348">
        <ele>1094.4000244141</ele>
        <time>2023-08-09T09:44:20Z</time>
      </trkpt>
      <trkpt lat="45.9057" lon="6.17355">
        <ele>1096.4000244141</ele>
        <time>2023-08-09T09:44:39Z</time>
      </trkpt>
      <trkpt lat="45.90574" lon="6.17371">
        <ele>1097.1999511719</ele>
        <time>2023-08-09T09:44:56Z</time>
      </trkpt>
      <trkpt lat="45.90578" lon="6.17386">
        <ele>1098.4000244141</ele>
        <time>2023-08-09T09:45:14Z</time>
      </trkpt>
      <trkpt lat="45.90577" lon="6.17392">
        <ele>1099.4000244141</ele>
        <time>2023-08-09T09:45:35Z</time>
      </trkpt>
      <trkpt lat="45.90577" lon="6.17399">
        <ele>1099.8000488281</ele>
        <time>2023-08-09T09:46:01Z</time>
      </trkpt>
      <trkpt lat="45.90568" lon="6.17403">
        <ele>1100.8000488281</ele>
        <time>2023-08-09T09:46:27Z</time>
      </trkpt>
      <trkpt lat="45.90561" lon="6.17399">
        <ele>1101.5999755859</ele>
        <time>2023-08-09T09:46:53Z</time>
      </trkpt>
      <trkpt lat="45.90552" lon="6.17399">
        <ele>1103.5999755859</ele>
        <time>2023-08-09T09:47:11Z</time>
      </trkpt>
      <trkpt lat="45.90551" lon="6.17398">
        <ele>1104.5999755859</ele>
        <time>2023-08-09T09:47:33Z</time>
      </trkpt>
      <trkpt lat="45.90547" lon="6.174">
        <ele>1106.4000244141</ele>
        <time>2023-08-09T09:47:56Z</time>
      </trkpt>
      <trkpt lat="45.90542" lon="6.17395">
        <ele>1108.8000488281</ele>
        <time>2023-08-09T09:48:17Z</time>
      </trkpt>
      <trkpt lat="45.90537" lon="6.17383">
        <ele>1111.4000244141</ele>
        <time>2023-08-09T09:48:41Z</time>
      </trkpt>
      <trkpt lat="45.90536" lon="6.1738">
        <ele>1111.1999511719</ele>
        <time>2023-08-09T09:49:04Z</time>
      </trkpt>
      <trkpt lat="45.90537" lon="6.1738">
        <ele>1111</ele>
        <time>2023-08-09T09:49:31Z</time>
      </trkpt>
      <trkpt lat="45.90535" lon="6.17392">
        <ele>1112.8000488281</ele>
        <time>2023-08-09T09:49:49Z</time>
      </trkpt>
      <trkpt lat="45.9054" lon="6.174">
        <ele>1113</ele>
        <time>2023-08-09T09:50:07Z</time>
      </trkpt>
      <trkpt lat="45.90541" lon="6.17406">
        <ele>1114.1999511719</ele>
        <time>2023-08-09T09:50:26Z</time>
      </trkpt>
      <trkpt lat="45.9054" lon="6.17415">
        <ele>1116.1999511719</ele>
        <time>2023-08-09T09:50:50Z</time>
      </trkpt>
      <trkpt lat="45.9054" lon="6.17417">
        <ele>1117.1999511719</ele>
        <time>2023-08-09T09:51:09Z</time>
      </trkpt>
      <trkpt lat="45.9054" lon="6.17422">
        <ele>1119</ele>
        <time>2023-08-09T09:51:33Z</time>
      </trkpt>
      <trkpt lat="45.9054" lon="6.17431">
        <ele>1120.5999755859</ele>
        <time>2023-08-09T09:51:54Z</time>
      </trkpt>
      <trkpt lat="45.90539" lon="6.17431">
        <ele>1120.8000488281</ele>
        <time>2023-08-09T09:52:00Z</time>
      </trkpt>
      <trkpt lat="45.90539" lon="6.17439">
        <ele>1122.8000488281</ele>
        <time>2023-08-09T09:52:23Z</time>
      </trkpt>
      <trkpt lat="45.9054" lon="6.1745">
        <ele>1124.4000244141</ele>
        <time>2023-08-09T09:52:45Z</time>
      </trkpt>
      <trkpt lat="45.90538" lon="6.17457">
        <ele>1126</ele>
        <time>2023-08-09T09:53:06Z</time>
      </trkpt>
      <trkpt lat="45.90539" lon="6.17464">
        <ele>1127.8000488281</ele>
        <time>2023-08-09T09:53:25Z</time>
      </trkpt>
      <trkpt lat="45.90542" lon="6.17471">
        <ele>1128.5999755859</ele>
        <time>2023-08-09T09:53:49Z</time>
      </trkpt>
      <trkpt lat="45.9054" lon="6.17478">
        <ele>1129.4000244141</ele>
        <time>2023-08-09T09:54:15Z</time>
      </trkpt>
      <trkpt lat="45.90537" lon="6.17481">
        <ele>1130.8000488281</ele>
        <time>2023-08-09T09:54:40Z</time>
      </trkpt>
      <trkpt lat="45.90533" lon="6.17479">
        <ele>1131.4000244141</ele>
        <time>2023-08-09T09:55:01Z</time>
      </trkpt>
      <trkpt lat="45.90532" lon="6.17481">
        <ele>1133.1999511719</ele>
        <time>2023-08-09T09:55:22Z</time>
      </trkpt>
      <trkpt lat="45.90529" lon="6.17481">
        <ele>1133.1999511719</ele>
        <time>2023-08-09T09:55:47Z</time>
      </trkpt>
      <trkpt lat="45.90525" lon="6.1748">
        <ele>1134.1999511719</ele>
        <time>2023-08-09T09:56:06Z</time>
      </trkpt>
      <trkpt lat="45.90522" lon="6.17484">
        <ele>1134.5999755859</ele>
        <time>2023-08-09T09:56:29Z</time>
      </trkpt>
      <trkpt lat="45.90519" lon="6.17482">
        <ele>1135.5999755859</ele>
        <time>2023-08-09T09:56:47Z</time>
      </trkpt>
      <trkpt lat="45.90517" lon="6.17482">
        <ele>1136.4000244141</ele>
        <time>2023-08-09T09:57:10Z</time>
      </trkpt>
      <trkpt lat="45.90514" lon="6.1748">
        <ele>1138</ele>
        <time>2023-08-09T09:57:30Z</time>
      </trkpt>
      <trkpt lat="45.90512" lon="6.17474">
        <ele>1139.1999511719</ele>
        <time>2023-08-09T09:57:51Z</time>
      </trkpt>
      <trkpt lat="45.90506" lon="6.17473">
        <ele>1140.8000488281</ele>
        <time>2023-08-09T09:58:11Z</time>
      </trkpt>
      <trkpt lat="45.90501" lon="6.17468">
        <ele>1142.5999755859</ele>
        <time>2023-08-09T09:58:34Z</time>
      </trkpt>
      <trkpt lat="45.905" lon="6.17469">
        <ele>1144.1999511719</ele>
        <time>2023-08-09T09:58:55Z</time>
      </trkpt>
      <trkpt lat="45.90495" lon="6.17462">
        <ele>1144.5999755859</ele>
        <time>2023-08-09T09:59:13Z</time>
      </trkpt>
      <trkpt lat="45.90492" lon="6.17457">
        <ele>1145.4000244141</ele>
        <time>2023-08-09T09:59:35Z</time>
      </trkpt>
      <trkpt lat="45.90489" lon="6.17451">
        <ele>1146</ele>
        <time>2023-08-09T09:59:56Z</time>
      </trkpt>
      <trkpt lat="45.90484" lon="6.17445">
        <ele>1146.5999755859</ele>
        <time>2023-08-09T10:00:16Z</time>
      </trkpt>
      <trkpt lat="45.90479" lon="6.1744">
        <ele>1148.5999755859</ele>
        <time>2023-08-09T10:00:36Z</time>
      </trkpt>
      <trkpt lat="45.90476" lon="6.17434">
        <ele>1148.8000488281</ele>
        <time>2023-08-09T10:00:55Z</time>
      </trkpt>
      <trkpt lat="45.90471" lon="6.17426">
        <ele>1149.8000488281</ele>
        <time>2023-08-09T10:01:15Z</time>
      </trkpt>
      <trkpt lat="45.90464" lon="6.17426">
        <ele>1151.1999511719</ele>
        <time>2023-08-09T10:01:36Z</time>
      </trkpt>
      <trkpt lat="45.90455" lon="6.17424">
        <ele>1151.5999755859</ele>
        <time>2023-08-09T10:01:57Z</time>
      </trkpt>
      <trkpt lat="45.90451" lon="6.17425">
        <ele>1152.1999511719</ele>
        <time>2023-08-09T10:02:15Z</time>
      </trkpt>
      <trkpt lat="45.90451" lon="6.17428">
        <ele>1153</ele>
        <time>2023-08-09T10:02:37Z</time>
      </trkpt>
      <trkpt lat="45.9045" lon="6.17426">
        <ele>1152.8000488281</ele>
        <time>2023-08-09T10:02:59Z</time>
      </trkpt>
      <trkpt lat="45.90453" lon="6.17425">
        <ele>1151.4000244141</ele>
        <time>2023-08-09T10:03:21Z</time>
      </trkpt>
      <trkpt lat="45.90457" lon="6.17425">
        <ele>1151.1999511719</ele>
        <time>2023-08-09T10:03:49Z</time>
      </trkpt>
      <trkpt lat="45.90456" lon="6.1742">
        <ele>1151.1999511719</ele>
        <time>2023-08-09T10:04:17Z</time>
      </trkpt>
      <trkpt lat="45.90454" lon="6.17416">
        <ele>1151.4000244141</ele>
        <time>2023-08-09T10:04:45Z</time>
      </trkpt>
      <trkpt lat="45.90453" lon="6.17422">
        <ele>1151.1999511719</ele>
        <time>2023-08-09T10:05:45Z</time>
      </trkpt>
      <trkpt lat="45.90455" lon="6.17426">
        <ele>1151.1999511719</ele>
        <time>2023-08-09T10:06:16Z</time>
      </trkpt>
      <trkpt lat="45.90455" lon="6.1743">
        <ele>1151.1999511719</ele>
        <time>2023-08-09T10:06:43Z</time>
      </trkpt>
      <trkpt lat="45.90457" lon="6.1743">
        <ele>1151.1999511719</ele>
        <time>2023-08-09T10:07:19Z</time>
      </trkpt>
      <trkpt lat="45.90457" lon="6.17427">
        <ele>1151.1999511719</ele>
        <time>2023-08-09T10:07:52Z</time>
      </trkpt>
      <trkpt lat="45.9046" lon="6.17426">
        <ele>1151.1999511719</ele>
        <time>2023-08-09T10:08:31Z</time>
      </trkpt>
      <trkpt lat="45.90463" lon="6.17429">
        <ele>1151.1999511719</ele>
        <time>2023-08-09T10:08:56Z</time>
      </trkpt>
      <trkpt lat="45.90452" lon="6.1742">
        <ele>1149.4000244141</ele>
        <time>2023-08-09T10:09:15Z</time>
      </trkpt>
      <trkpt lat="45.90451" lon="6.1742">
        <ele>1149.4000244141</ele>
        <time>2023-08-09T10:09:34Z</time>
      </trkpt>
      <trkpt lat="45.90445" lon="6.17422">
        <ele>1149.5999755859</ele>
        <time>2023-08-09T10:09:55Z</time>
      </trkpt>
      <trkpt lat="45.90438" lon="6.17421">
        <ele>1152.1999511719</ele>
        <time>2023-08-09T10:10:15Z</time>
      </trkpt>
      <trkpt lat="45.90432" lon="6.1742">
        <ele>1154</ele>
        <time>2023-08-09T10:10:33Z</time>
      </trkpt>
      <trkpt lat="45.90425" lon="6.17423">
        <ele>1156.1999511719</ele>
        <time>2023-08-09T10:10:52Z</time>
      </trkpt>
      <trkpt lat="45.90422" lon="6.17419">
        <ele>1158.1999511719</ele>
        <time>2023-08-09T10:11:12Z</time>
      </trkpt>
      <trkpt lat="45.90417" lon="6.17411">
        <ele>1160.5999755859</ele>
        <time>2023-08-09T10:11:33Z</time>
      </trkpt>
      <trkpt lat="45.90411" lon="6.17405">
        <ele>1162.5999755859</ele>
        <time>2023-08-09T10:11:54Z</time>
      </trkpt>
      <trkpt lat="45.90405" lon="6.17398">
        <ele>1164</ele>
        <time>2023-08-09T10:12:14Z</time>
      </trkpt>
      <trkpt lat="45.90402" lon="6.17399">
        <ele>1165.4000244141</ele>
        <time>2023-08-09T10:12:34Z</time>
      </trkpt>
      <trkpt lat="45.90393" lon="6.17396">
        <ele>1164.5999755859</ele>
        <time>2023-08-09T10:12:53Z</time>
      </trkpt>
      <trkpt lat="45.90385" lon="6.17404">
        <ele>1166.1999511719</ele>
        <time>2023-08-09T10:13:12Z</time>
      </trkpt>
      <trkpt lat="45.90382" lon="6.17405">
        <ele>1166.5999755859</ele>
        <time>2023-08-09T10:13:36Z</time>
      </trkpt>
      <trkpt lat="45.90382" lon="6.17411">
        <ele>1168</ele>
        <time>2023-08-09T10:13:57Z</time>
      </trkpt>
      <trkpt lat="45.90376" lon="6.17411">
        <ele>1170.1999511719</ele>
        <time>2023-08-09T10:14:17Z</time>
      </trkpt>
      <trkpt lat="45.90368" lon="6.17405">
        <ele>1172.8000488281</ele>
        <time>2023-08-09T10:14:34Z</time>
      </trkpt>
      <trkpt lat="45.9036" lon="6.17399">
        <ele>1173.5999755859</ele>
        <time>2023-08-09T10:14:53Z</time>
      </trkpt>
      <trkpt lat="45.90351" lon="6.17398">
        <ele>1175.8000488281</ele>
        <time>2023-08-09T10:15:12Z</time>
      </trkpt>
      <trkpt lat="45.90344" lon="6.17404">
        <ele>1178.1999511719</ele>
        <time>2023-08-09T10:15:30Z</time>
      </trkpt>
      <trkpt lat="45.9034" lon="6.17412">
        <ele>1180.5999755859</ele>
        <time>2023-08-09T10:15:51Z</time>
      </trkpt>
      <trkpt lat="45.90333" lon="6.17427">
        <ele>1183</ele>
        <time>2023-08-09T10:16:11Z</time>
      </trkpt>
      <trkpt lat="45.90332" lon="6.17431">
        <ele>1183.4000244141</ele>
        <time>2023-08-09T10:16:29Z</time>
      </trkpt>
      <trkpt lat="45.90332" lon="6.17433">
        <ele>1183.1999511719</ele>
        <time>2023-08-09T10:16:53Z</time>
      </trkpt>
      <trkpt lat="45.90332" lon="6.17441">
        <ele>1183.5999755859</ele>
        <time>2023-08-09T10:17:14Z</time>
      </trkpt>
      <trkpt lat="45.90333" lon="6.17454">
        <ele>1183.1999511719</ele>
        <time>2023-08-09T10:17:32Z</time>
      </trkpt>
      <trkpt lat="45.90335" lon="6.17472">
        <ele>1185.1999511719</ele>
        <time>2023-08-09T10:17:52Z</time>
      </trkpt>
      <trkpt lat="45.90337" lon="6.17477">
        <ele>1185.8000488281</ele>
        <time>2023-08-09T10:17:58Z</time>
      </trkpt>
      <trkpt lat="45.90338" lon="6.17484">
        <ele>1187.8000488281</ele>
        <time>2023-08-09T10:18:20Z</time>
      </trkpt>
      <trkpt lat="45.90337" lon="6.17489">
        <ele>1187.8000488281</ele>
        <time>2023-08-09T10:18:31Z</time>
      </trkpt>
      <trkpt lat="45.90338" lon="6.17503">
        <ele>1190.1999511719</ele>
        <time>2023-08-09T10:18:53Z</time>
      </trkpt>
      <trkpt lat="45.90337" lon="6.17517">
        <ele>1191.8000488281</ele>
        <time>2023-08-09T10:19:14Z</time>
      </trkpt>
      <trkpt lat="45.90339" lon="6.17532">
        <ele>1193.5999755859</ele>
        <time>2023-08-09T10:19:35Z</time>
      </trkpt>
      <trkpt lat="45.90334" lon="6.17542">
        <ele>1193.8000488281</ele>
        <time>2023-08-09T10:20:04Z</time>
      </trkpt>
      <trkpt lat="45.90336" lon="6.17548">
        <ele>1193.5999755859</ele>
        <time>2023-08-09T10:20:29Z</time>
      </trkpt>
      <trkpt lat="45.90345" lon="6.17557">
        <ele>1196.1999511719</ele>
        <time>2023-08-09T10:20:48Z</time>
      </trkpt>
      <trkpt lat="45.90355" lon="6.17559">
        <ele>1199.1999511719</ele>
        <time>2023-08-09T10:21:07Z</time>
      </trkpt>
      <trkpt lat="45.90359" lon="6.17557">
        <ele>1202</ele>
        <time>2023-08-09T10:21:27Z</time>
      </trkpt>
      <trkpt lat="45.9036" lon="6.17556">
        <ele>1204.5999755859</ele>
        <time>2023-08-09T10:21:46Z</time>
      </trkpt>
      <trkpt lat="45.90366" lon="6.1755">
        <ele>1206</ele>
        <time>2023-08-09T10:22:00Z</time>
      </trkpt>
      <trkpt lat="45.90372" lon="6.17545">
        <ele>1207.5999755859</ele>
        <time>2023-08-09T10:22:19Z</time>
      </trkpt>
      <trkpt lat="45.90375" lon="6.17555">
        <ele>1209.1999511719</ele>
        <time>2023-08-09T10:22:36Z</time>
      </trkpt>
      <trkpt lat="45.90374" lon="6.1756">
        <ele>1210.5999755859</ele>
        <time>2023-08-09T10:22:54Z</time>
      </trkpt>
      <trkpt lat="45.90373" lon="6.17569">
        <ele>1212</ele>
        <time>2023-08-09T10:23:12Z</time>
      </trkpt>
      <trkpt lat="45.90372" lon="6.17576">
        <ele>1213.5999755859</ele>
        <time>2023-08-09T10:23:36Z</time>
      </trkpt>
      <trkpt lat="45.90368" lon="6.17583">
        <ele>1215</ele>
        <time>2023-08-09T10:23:55Z</time>
      </trkpt>
      <trkpt lat="45.90363" lon="6.17593">
        <ele>1217</ele>
        <time>2023-08-09T10:24:16Z</time>
      </trkpt>
      <trkpt lat="45.9036" lon="6.17599">
        <ele>1219.4000244141</ele>
        <time>2023-08-09T10:24:38Z</time>
      </trkpt>
      <trkpt lat="45.90355" lon="6.17607">
        <ele>1221.8000488281</ele>
        <time>2023-08-09T10:25:02Z</time>
      </trkpt>
      <trkpt lat="45.90352" lon="6.1761">
        <ele>1222.5999755859</ele>
        <time>2023-08-09T10:25:08Z</time>
      </trkpt>
      <trkpt lat="45.90345" lon="6.17613">
        <ele>1223.8000488281</ele>
        <time>2023-08-09T10:25:29Z</time>
      </trkpt>
      <trkpt lat="45.90338" lon="6.17619">
        <ele>1225.5999755859</ele>
        <time>2023-08-09T10:25:49Z</time>
      </trkpt>
      <trkpt lat="45.90331" lon="6.17622">
        <ele>1227.1999511719</ele>
        <time>2023-08-09T10:26:09Z</time>
      </trkpt>
      <trkpt lat="45.90328" lon="6.17625">
        <ele>1228.5999755859</ele>
        <time>2023-08-09T10:26:26Z</time>
      </trkpt>
      <trkpt lat="45.90329" lon="6.17627">
        <ele>1229</ele>
        <time>2023-08-09T10:26:47Z</time>
      </trkpt>
      <trkpt lat="45.90324" lon="6.17632">
        <ele>1230.8000488281</ele>
        <time>2023-08-09T10:27:05Z</time>
      </trkpt>
      <trkpt lat="45.90317" lon="6.17643">
        <ele>1232.5999755859</ele>
        <time>2023-08-09T10:27:25Z</time>
      </trkpt>
      <trkpt lat="45.90306" lon="6.17655">
        <ele>1234.4000244141</ele>
        <time>2023-08-09T10:27:46Z</time>
      </trkpt>
      <trkpt lat="45.90299" lon="6.17658">
        <ele>1236</ele>
        <time>2023-08-09T10:28:05Z</time>
      </trkpt>
      <trkpt lat="45.90284" lon="6.17659">
        <ele>1236.5999755859</ele>
        <time>2023-08-09T10:28:26Z</time>
      </trkpt>
      <trkpt lat="45.9028" lon="6.17672">
        <ele>1237</ele>
        <time>2023-08-09T10:28:48Z</time>
      </trkpt>
      <trkpt lat="45.90276" lon="6.17679">
        <ele>1238.1999511719</ele>
        <time>2023-08-09T10:29:05Z</time>
      </trkpt>
      <trkpt lat="45.90271" lon="6.17693">
        <ele>1236.8000488281</ele>
        <time>2023-08-09T10:29:28Z</time>
      </trkpt>
      <trkpt lat="45.90265" lon="6.17709">
        <ele>1237.4000244141</ele>
        <time>2023-08-09T10:29:51Z</time>
      </trkpt>
      <trkpt lat="45.90257" lon="6.17721">
        <ele>1240</ele>
        <time>2023-08-09T10:30:12Z</time>
      </trkpt>
      <trkpt lat="45.90251" lon="6.17731">
        <ele>1242.5999755859</ele>
        <time>2023-08-09T10:30:31Z</time>
      </trkpt>
      <trkpt lat="45.90244" lon="6.17737">
        <ele>1245</ele>
        <time>2023-08-09T10:30:53Z</time>
      </trkpt>
      <trkpt lat="45.9024" lon="6.17745">
        <ele>1246.4000244141</ele>
        <time>2023-08-09T10:31:13Z</time>
      </trkpt>
      <trkpt lat="45.90234" lon="6.17764">
        <ele>1247.8000488281</ele>
        <time>2023-08-09T10:31:32Z</time>
      </trkpt>
      <trkpt lat="45.90227" lon="6.17778">
        <ele>1249.4000244141</ele>
        <time>2023-08-09T10:31:53Z</time>
      </trkpt>
      <trkpt lat="45.90222" lon="6.17794">
        <ele>1249</ele>
        <time>2023-08-09T10:32:13Z</time>
      </trkpt>
      <trkpt lat="45.90228" lon="6.17797">
        <ele>1251</ele>
        <time>2023-08-09T10:32:34Z</time>
      </trkpt>
      <trkpt lat="45.90231" lon="6.17799">
        <ele>1251.8000488281</ele>
        <time>2023-08-09T10:32:42Z</time>
      </trkpt>
      <trkpt lat="45.90233" lon="6.17805">
        <ele>1253.8000488281</ele>
        <time>2023-08-09T10:33:01Z</time>
      </trkpt>
      <trkpt lat="45.90236" lon="6.17815">
        <ele>1255.1999511719</ele>
        <time>2023-08-09T10:33:19Z</time>
      </trkpt>
      <trkpt lat="45.90234" lon="6.17823">
        <ele>1257.5999755859</ele>
        <time>2023-08-09T10:33:38Z</time>
      </trkpt>
      <trkpt lat="45.90231" lon="6.17832">
        <ele>1260.1999511719</ele>
        <time>2023-08-09T10:33:59Z</time>
      </trkpt>
      <trkpt lat="45.90229" lon="6.17836">
        <ele>1262.4000244141</ele>
        <time>2023-08-09T10:34:19Z</time>
      </trkpt>
      <trkpt lat="45.90224" lon="6.17839">
        <ele>1264.1999511719</ele>
        <time>2023-08-09T10:34:36Z</time>
      </trkpt>
      <trkpt lat="45.90219" lon="6.17847">
        <ele>1265.8000488281</ele>
        <time>2023-08-09T10:34:51Z</time>
      </trkpt>
      <trkpt lat="45.90213" lon="6.17851">
        <ele>1266.4000244141</ele>
        <time>2023-08-09T10:35:10Z</time>
      </trkpt>
      <trkpt lat="45.90212" lon="6.17851">
        <ele>1266.4000244141</ele>
        <time>2023-08-09T10:35:31Z</time>
      </trkpt>
      <trkpt lat="45.90214" lon="6.17851">
        <ele>1266.4000244141</ele>
        <time>2023-08-09T10:35:48Z</time>
      </trkpt>
      <trkpt lat="45.90213" lon="6.1785">
        <ele>1266.4000244141</ele>
        <time>2023-08-09T10:36:16Z</time>
      </trkpt>
      <trkpt lat="45.90211" lon="6.17851">
        <ele>1266</ele>
        <time>2023-08-09T10:36:40Z</time>
      </trkpt>
      <trkpt lat="45.90211" lon="6.17851">
        <ele>1266</ele>
        <time>2023-08-09T10:36:51Z</time>
      </trkpt>
      <trkpt lat="45.90214" lon="6.17852">
        <ele>1266.1999511719</ele>
        <time>2023-08-09T10:37:13Z</time>
      </trkpt>
      <trkpt lat="45.90211" lon="6.17857">
        <ele>1266.1999511719</ele>
        <time>2023-08-09T10:37:37Z</time>
      </trkpt>
      <trkpt lat="45.9021" lon="6.17861">
        <ele>1262.4000244141</ele>
        <time>2023-08-09T10:37:49Z</time>
      </trkpt>
      <trkpt lat="45.9021" lon="6.17862">
        <ele>1262.1999511719</ele>
        <time>2023-08-09T10:37:50Z</time>
      </trkpt>
      <trkpt lat="45.90208" lon="6.17868">
        <ele>1260</ele>
        <time>2023-08-09T10:38:08Z</time>
      </trkpt>
      <trkpt lat="45.90204" lon="6.17874">
        <ele>1258.1999511719</ele>
        <time>2023-08-09T10:38:30Z</time>
      </trkpt>
      <trkpt lat="45.90208" lon="6.17884">
        <ele>1256</ele>
        <time>2023-08-09T10:38:52Z</time>
      </trkpt>
      <trkpt lat="45.90208" lon="6.17887">
        <ele>1256</ele>
        <time>2023-08-09T10:39:15Z</time>
      </trkpt>
      <trkpt lat="45.90208" lon="6.17891">
        <ele>1257.5999755859</ele>
        <time>2023-08-09T10:39:33Z</time>
      </trkpt>
      <trkpt lat="45.90205" lon="6.179">
        <ele>1260.1999511719</ele>
        <time>2023-08-09T10:39:51Z</time>
      </trkpt>
      <trkpt lat="45.90198" lon="6.17911">
        <ele>1262.1999511719</ele>
        <time>2023-08-09T10:40:12Z</time>
      </trkpt>
      <trkpt lat="45.90196" lon="6.1792">
        <ele>1263</ele>
        <time>2023-08-09T10:40:35Z</time>
      </trkpt>
      <trkpt lat="45.90193" lon="6.17929">
        <ele>1264.4000244141</ele>
        <time>2023-08-09T10:40:56Z</time>
      </trkpt>
      <trkpt lat="45.90193" lon="6.17945">
        <ele>1263</ele>
        <time>2023-08-09T10:41:13Z</time>
      </trkpt>
      <trkpt lat="45.90196" lon="6.17959">
        <ele>1262.5999755859</ele>
        <time>2023-08-09T10:41:31Z</time>
      </trkpt>
      <trkpt lat="45.90194" lon="6.17966">
        <ele>1263.8000488281</ele>
        <time>2023-08-09T10:41:49Z</time>
      </trkpt>
      <trkpt lat="45.90194" lon="6.17978">
        <ele>1264.1999511719</ele>
        <time>2023-08-09T10:42:10Z</time>
      </trkpt>
      <trkpt lat="45.90183" lon="6.17995">
        <ele>1264.1999511719</ele>
        <time>2023-08-09T10:42:30Z</time>
      </trkpt>
      <trkpt lat="45.90178" lon="6.18011">
        <ele>1264.1999511719</ele>
        <time>2023-08-09T10:42:48Z</time>
      </trkpt>
      <trkpt lat="45.90176" lon="6.18011">
        <ele>1261.4000244141</ele>
        <time>2023-08-09T10:42:56Z</time>
      </trkpt>
      <trkpt lat="45.90174" lon="6.18011">
        <ele>1261.8000488281</ele>
        <time>2023-08-09T10:43:04Z</time>
      </trkpt>
      <trkpt lat="45.9017" lon="6.18023">
        <ele>1263</ele>
        <time>2023-08-09T10:43:24Z</time>
      </trkpt>
      <trkpt lat="45.90166" lon="6.18031">
        <ele>1261.1999511719</ele>
        <time>2023-08-09T10:43:43Z</time>
      </trkpt>
      <trkpt lat="45.90156" lon="6.18039">
        <ele>1260</ele>
        <time>2023-08-09T10:44:06Z</time>
      </trkpt>
      <trkpt lat="45.90144" lon="6.18031">
        <ele>1257.8000488281</ele>
        <time>2023-08-09T10:44:26Z</time>
      </trkpt>
      <trkpt lat="45.90144" lon="6.1802">
        <ele>1256.8000488281</ele>
        <time>2023-08-09T10:44:46Z</time>
      </trkpt>
      <trkpt lat="45.90144" lon="6.18026">
        <ele>1257.4000244141</ele>
        <time>2023-08-09T10:45:08Z</time>
      </trkpt>
      <trkpt lat="45.90136" lon="6.18037">
        <ele>1258</ele>
        <time>2023-08-09T10:45:29Z</time>
      </trkpt>
      <trkpt lat="45.90125" lon="6.18047">
        <ele>1257.8000488281</ele>
        <time>2023-08-09T10:45:49Z</time>
      </trkpt>
      <trkpt lat="45.90119" lon="6.18057">
        <ele>1260.1999511719</ele>
        <time>2023-08-09T10:46:10Z</time>
      </trkpt>
      <trkpt lat="45.90115" lon="6.18067">
        <ele>1262.1999511719</ele>
        <time>2023-08-09T10:46:30Z</time>
      </trkpt>
      <trkpt lat="45.90113" lon="6.18081">
        <ele>1263.1999511719</ele>
        <time>2023-08-09T10:46:51Z</time>
      </trkpt>
      <trkpt lat="45.90115" lon="6.18087">
        <ele>1265.5999755859</ele>
        <time>2023-08-09T10:47:15Z</time>
      </trkpt>
      <trkpt lat="45.9012" lon="6.1809">
        <ele>1266.8000488281</ele>
        <time>2023-08-09T10:47:31Z</time>
      </trkpt>
      <trkpt lat="45.90127" lon="6.18098">
        <ele>1268</ele>
        <time>2023-08-09T10:47:50Z</time>
      </trkpt>
      <trkpt lat="45.90131" lon="6.18103">
        <ele>1270</ele>
        <time>2023-08-09T10:48:11Z</time>
      </trkpt>
      <trkpt lat="45.90132" lon="6.18111">
        <ele>1271.8000488281</ele>
        <time>2023-08-09T10:48:35Z</time>
      </trkpt>
      <trkpt lat="45.90124" lon="6.18118">
        <ele>1273</ele>
        <time>2023-08-09T10:48:58Z</time>
      </trkpt>
      <trkpt lat="45.90122" lon="6.1812">
        <ele>1274.1999511719</ele>
        <time>2023-08-09T10:49:09Z</time>
      </trkpt>
      <trkpt lat="45.90121" lon="6.18122">
        <ele>1275</ele>
        <time>2023-08-09T10:49:30Z</time>
      </trkpt>
      <trkpt lat="45.9012" lon="6.18113">
        <ele>1275</ele>
        <time>2023-08-09T10:49:55Z</time>
      </trkpt>
      <trkpt lat="45.90119" lon="6.18117">
        <ele>1275.4000244141</ele>
        <time>2023-08-09T10:50:21Z</time>
      </trkpt>
      <trkpt lat="45.90114" lon="6.18121">
        <ele>1275.5999755859</ele>
        <time>2023-08-09T10:50:50Z</time>
      </trkpt>
      <trkpt lat="45.90113" lon="6.18114">
        <ele>1276.1999511719</ele>
        <time>2023-08-09T10:51:12Z</time>
      </trkpt>
      <trkpt lat="45.90109" lon="6.18117">
        <ele>1277.8000488281</ele>
        <time>2023-08-09T10:51:30Z</time>
      </trkpt>
      <trkpt lat="45.90104" lon="6.18133">
        <ele>1279.4000244141</ele>
        <time>2023-08-09T10:51:52Z</time>
      </trkpt>
      <trkpt lat="45.90104" lon="6.18145">
        <ele>1281.1999511719</ele>
        <time>2023-08-09T10:52:11Z</time>
      </trkpt>
      <trkpt lat="45.90102" lon="6.18149">
        <ele>1283.1999511719</ele>
        <time>2023-08-09T10:52:32Z</time>
      </trkpt>
      <trkpt lat="45.90096" lon="6.18159">
        <ele>1284</ele>
        <time>2023-08-09T10:52:53Z</time>
      </trkpt>
      <trkpt lat="45.90092" lon="6.18175">
        <ele>1283</ele>
        <time>2023-08-09T10:53:14Z</time>
      </trkpt>
      <trkpt lat="45.90087" lon="6.18186">
        <ele>1283</ele>
        <time>2023-08-09T10:53:35Z</time>
      </trkpt>
      <trkpt lat="45.90084" lon="6.18197">
        <ele>1283</ele>
        <time>2023-08-09T10:54:01Z</time>
      </trkpt>
      <trkpt lat="45.90086" lon="6.18204">
        <ele>1282.8000488281</ele>
        <time>2023-08-09T10:54:33Z</time>
      </trkpt>
      <trkpt lat="45.90084" lon="6.18209">
        <ele>1282.8000488281</ele>
        <time>2023-08-09T10:55:03Z</time>
      </trkpt>
      <trkpt lat="45.90078" lon="6.18217">
        <ele>1282.8000488281</ele>
        <time>2023-08-09T10:55:25Z</time>
      </trkpt>
      <trkpt lat="45.90078" lon="6.18223">
        <ele>1282.8000488281</ele>
        <time>2023-08-09T10:55:49Z</time>
      </trkpt>
      <trkpt lat="45.90079" lon="6.18228">
        <ele>1282.8000488281</ele>
        <time>2023-08-09T10:56:12Z</time>
      </trkpt>
      <trkpt lat="45.90078" lon="6.1823">
        <ele>1282.8000488281</ele>
        <time>2023-08-09T10:56:14Z</time>
      </trkpt>
      <trkpt lat="45.90071" lon="6.18232">
        <ele>1282.8000488281</ele>
        <time>2023-08-09T10:56:38Z</time>
      </trkpt>
      <trkpt lat="45.90075" lon="6.18236">
        <ele>1282.8000488281</ele>
        <time>2023-08-09T10:56:59Z</time>
      </trkpt>
      <trkpt lat="45.90076" lon="6.18238">
        <ele>1286</ele>
        <time>2023-08-09T10:57:09Z</time>
      </trkpt>
      <trkpt lat="45.90076" lon="6.18238">
        <ele>1286</ele>
        <time>2023-08-09T10:57:10Z</time>
      </trkpt>
      <trkpt lat="45.90076" lon="6.18247">
        <ele>1288</ele>
        <time>2023-08-09T10:57:29Z</time>
      </trkpt>
      <trkpt lat="45.90071" lon="6.18251">
        <ele>1290</ele>
        <time>2023-08-09T10:57:48Z</time>
      </trkpt>
      <trkpt lat="45.90071" lon="6.18256">
        <ele>1291</ele>
        <time>2023-08-09T10:57:58Z</time>
      </trkpt>
      <trkpt lat="45.90067" lon="6.18258">
        <ele>1292.4000244141</ele>
        <time>2023-08-09T10:58:22Z</time>
      </trkpt>
      <trkpt lat="45.90063" lon="6.1826">
        <ele>1292.8000488281</ele>
        <time>2023-08-09T10:58:41Z</time>
      </trkpt>
      <trkpt lat="45.90055" lon="6.18268">
        <ele>1291.4000244141</ele>
        <time>2023-08-09T10:58:58Z</time>
      </trkpt>
      <trkpt lat="45.90047" lon="6.18275">
        <ele>1289.8000488281</ele>
        <time>2023-08-09T10:59:23Z</time>
      </trkpt>
      <trkpt lat="45.90049" lon="6.18275">
        <ele>1290.1999511719</ele>
        <time>2023-08-09T10:59:40Z</time>
      </trkpt>
      <trkpt lat="45.90046" lon="6.18277">
        <ele>1290</ele>
        <time>2023-08-09T11:00:00Z</time>
      </trkpt>
      <trkpt lat="45.90043" lon="6.18285">
        <ele>1288</ele>
        <time>2023-08-09T11:00:22Z</time>
      </trkpt>
      <trkpt lat="45.90032" lon="6.18299">
        <ele>1286.1999511719</ele>
        <time>2023-08-09T11:00:45Z</time>
      </trkpt>
      <trkpt lat="45.9002" lon="6.1831">
        <ele>1284.1999511719</ele>
        <time>2023-08-09T11:01:08Z</time>
      </trkpt>
      <trkpt lat="45.90013" lon="6.18321">
        <ele>1281.8000488281</ele>
        <time>2023-08-09T11:01:32Z</time>
      </trkpt>
      <trkpt lat="45.90009" lon="6.18332">
        <ele>1280</ele>
        <time>2023-08-09T11:01:50Z</time>
      </trkpt>
      <trkpt lat="45.90006" lon="6.1833">
        <ele>1280.4000244141</ele>
        <time>2023-08-09T11:02:12Z</time>
      </trkpt>
      <trkpt lat="45.90001" lon="6.1834">
        <ele>1279.5999755859</ele>
        <time>2023-08-09T11:02:34Z</time>
      </trkpt>
      <trkpt lat="45.89997" lon="6.18351">
        <ele>1278.4000244141</ele>
        <time>2023-08-09T11:02:54Z</time>
      </trkpt>
      <trkpt lat="45.89995" lon="6.18357">
        <ele>1278.5999755859</ele>
        <time>2023-08-09T11:03:06Z</time>
      </trkpt>
      <trkpt lat="45.8999" lon="6.18371">
        <ele>1277.4000244141</ele>
        <time>2023-08-09T11:03:30Z</time>
      </trkpt>
      <trkpt lat="45.89991" lon="6.18375">
        <ele>1278.4000244141</ele>
        <time>2023-08-09T11:03:55Z</time>
      </trkpt>
      <trkpt lat="45.89991" lon="6.18373">
        <ele>1278.4000244141</ele>
        <time>2023-08-09T11:04:23Z</time>
      </trkpt>
      <trkpt lat="45.89991" lon="6.18371">
        <ele>1278.1999511719</ele>
        <time>2023-08-09T11:04:50Z</time>
      </trkpt>
      <trkpt lat="45.8999" lon="6.18371">
        <ele>1278.1999511719</ele>
        <time>2023-08-09T11:05:45Z</time>
      </trkpt>
      <trkpt lat="45.8999" lon="6.18371">
        <ele>1278.1999511719</ele>
        <time>2023-08-09T11:06:15Z</time>
      </trkpt>
      <trkpt lat="45.8999" lon="6.18372">
        <ele>1278.1999511719</ele>
        <time>2023-08-09T11:06:45Z</time>
      </trkpt>
      <trkpt lat="45.89989" lon="6.18372">
        <ele>1278.1999511719</ele>
        <time>2023-08-09T11:07:02Z</time>
      </trkpt>
      <trkpt lat="45.89988" lon="6.18373">
        <ele>1277.8000488281</ele>
        <time>2023-08-09T11:07:20Z</time>
      </trkpt>
      <trkpt lat="45.8999" lon="6.18375">
        <ele>1278</ele>
        <time>2023-08-09T11:08:18Z</time>
      </trkpt>
      <trkpt lat="45.8999" lon="6.18375">
        <ele>1278</ele>
        <time>2023-08-09T11:09:01Z</time>
      </trkpt>
      <trkpt lat="45.89989" lon="6.18374">
        <ele>1278</ele>
        <time>2023-08-09T11:09:36Z</time>
      </trkpt>
      <trkpt lat="45.89992" lon="6.18376">
        <ele>1278</ele>
        <time>2023-08-09T11:10:08Z</time>
      </trkpt>
      <trkpt lat="45.8999" lon="6.18376">
        <ele>1278</ele>
        <time>2023-08-09T11:10:39Z</time>
      </trkpt>
      <trkpt lat="45.89994" lon="6.18377">
        <ele>1278</ele>
        <time>2023-08-09T11:11:11Z</time>
      </trkpt>
      <trkpt lat="45.89996" lon="6.18378">
        <ele>1278</ele>
        <time>2023-08-09T11:12:08Z</time>
      </trkpt>
      <trkpt lat="45.89994" lon="6.18378">
        <ele>1278</ele>
        <time>2023-08-09T11:12:15Z</time>
      </trkpt>
      <trkpt lat="45.89993" lon="6.18377">
        <ele>1277.5999755859</ele>
        <time>2023-08-09T11:12:28Z</time>
      </trkpt>
      <trkpt lat="45.89993" lon="6.18377">
        <ele>1277.5999755859</ele>
        <time>2023-08-09T11:12:50Z</time>
      </trkpt>
      <trkpt lat="45.89993" lon="6.18382">
        <ele>1277.8000488281</ele>
        <time>2023-08-09T11:13:40Z</time>
      </trkpt>
      <trkpt lat="45.89991" lon="6.18379">
        <ele>1277.8000488281</ele>
        <time>2023-08-09T11:14:46Z</time>
      </trkpt>
      <trkpt lat="45.8999" lon="6.18377">
        <ele>1277.8000488281</ele>
        <time>2023-08-09T11:15:27Z</time>
      </trkpt>
      <trkpt lat="45.89989" lon="6.18375">
        <ele>1277.8000488281</ele>
        <time>2023-08-09T11:16:44Z</time>
      </trkpt>
      <trkpt lat="45.89989" lon="6.18373">
        <ele>1277.8000488281</ele>
        <time>2023-08-09T11:17:40Z</time>
      </trkpt>
      <trkpt lat="45.89991" lon="6.18371">
        <ele>1277.8000488281</ele>
        <time>2023-08-09T11:18:21Z</time>
      </trkpt>
      <trkpt lat="45.8999" lon="6.18371">
        <ele>1277.8000488281</ele>
        <time>2023-08-09T11:18:37Z</time>
      </trkpt>
      <trkpt lat="45.8999" lon="6.18371">
        <ele>1276.4000244141</ele>
        <time>2023-08-09T11:18:40Z</time>
      </trkpt>
      <trkpt lat="45.8999" lon="6.18373">
        <ele>1276.5999755859</ele>
        <time>2023-08-09T11:19:04Z</time>
      </trkpt>
      <trkpt lat="45.8999" lon="6.18373">
        <ele>1276.8000488281</ele>
        <time>2023-08-09T11:19:15Z</time>
      </trkpt>
      <trkpt lat="45.8999" lon="6.18372">
        <ele>1276.8000488281</ele>
        <time>2023-08-09T11:19:26Z</time>
      </trkpt>
      <trkpt lat="45.89989" lon="6.18371">
        <ele>1276.8000488281</ele>
        <time>2023-08-09T11:19:49Z</time>
      </trkpt>
      <trkpt lat="45.89988" lon="6.18371">
        <ele>1276.5999755859</ele>
        <time>2023-08-09T11:19:58Z</time>
      </trkpt>
      <trkpt lat="45.89986" lon="6.18372">
        <ele>1276.1999511719</ele>
        <time>2023-08-09T11:20:16Z</time>
      </trkpt>
      <trkpt lat="45.89986" lon="6.18373">
        <ele>1276.5999755859</ele>
        <time>2023-08-09T11:20:30Z</time>
      </trkpt>
      <trkpt lat="45.89986" lon="6.18372">
        <ele>1276.8000488281</ele>
        <time>2023-08-09T11:20:44Z</time>
      </trkpt>
      <trkpt lat="45.89986" lon="6.18372">
        <ele>1277</ele>
        <time>2023-08-09T11:21:01Z</time>
      </trkpt>
      <trkpt lat="45.89986" lon="6.18371">
        <ele>1277</ele>
        <time>2023-08-09T11:21:11Z</time>
      </trkpt>
      <trkpt lat="45.89988" lon="6.18373">
        <ele>1277</ele>
        <time>2023-08-09T11:21:43Z</time>
      </trkpt>
      <trkpt lat="45.89987" lon="6.18371">
        <ele>1277</ele>
        <time>2023-08-09T11:22:00Z</time>
      </trkpt>
      <trkpt lat="45.89987" lon="6.1837">
        <ele>1277</ele>
        <time>2023-08-09T11:22:10Z</time>
      </trkpt>
      <trkpt lat="45.89987" lon="6.18371">
        <ele>1277</ele>
        <time>2023-08-09T11:22:27Z</time>
      </trkpt>
      <trkpt lat="45.89989" lon="6.18373">
        <ele>1277</ele>
        <time>2023-08-09T11:22:51Z</time>
      </trkpt>
      <trkpt lat="45.89989" lon="6.18374">
        <ele>1277</ele>
        <time>2023-08-09T11:23:46Z</time>
      </trkpt>
      <trkpt lat="45.89991" lon="6.18372">
        <ele>1277</ele>
        <time>2023-08-09T11:24:28Z</time>
      </trkpt>
      <trkpt lat="45.89994" lon="6.18374">
        <ele>1277</ele>
        <time>2023-08-09T11:24:58Z</time>
      </trkpt>
      <trkpt lat="45.89994" lon="6.18377">
        <ele>1277</ele>
        <time>2023-08-09T11:25:29Z</time>
      </trkpt>
      <trkpt lat="45.89991" lon="6.18376">
        <ele>1277</ele>
        <time>2023-08-09T11:25:58Z</time>
      </trkpt>
      <trkpt lat="45.8999" lon="6.18375">
        <ele>1277</ele>
        <time>2023-08-09T11:26:24Z</time>
      </trkpt>
      <trkpt lat="45.89987" lon="6.18374">
        <ele>1277</ele>
        <time>2023-08-09T11:26:51Z</time>
      </trkpt>
      <trkpt lat="45.89985" lon="6.18375">
        <ele>1277</ele>
        <time>2023-08-09T11:27:19Z</time>
      </trkpt>
      <trkpt lat="45.89986" lon="6.18374">
        <ele>1277</ele>
        <time>2023-08-09T11:27:31Z</time>
      </trkpt>
      <trkpt lat="45.89986" lon="6.18374">
        <ele>1277</ele>
        <time>2023-08-09T11:27:53Z</time>
      </trkpt>
      <trkpt lat="45.89985" lon="6.18373">
        <ele>1277</ele>
        <time>2023-08-09T11:28:21Z</time>
      </trkpt>
      <trkpt lat="45.89984" lon="6.1837">
        <ele>1277</ele>
        <time>2023-08-09T11:28:51Z</time>
      </trkpt>
      <trkpt lat="45.89984" lon="6.18371">
        <ele>1277</ele>
        <time>2023-08-09T11:29:18Z</time>
      </trkpt>
      <trkpt lat="45.89986" lon="6.18372">
        <ele>1277</ele>
        <time>2023-08-09T11:29:44Z</time>
      </trkpt>
      <trkpt lat="45.89987" lon="6.18375">
        <ele>1277</ele>
        <time>2023-08-09T11:30:10Z</time>
      </trkpt>
      <trkpt lat="45.89988" lon="6.18373">
        <ele>1277</ele>
        <time>2023-08-09T11:30:34Z</time>
      </trkpt>
      <trkpt lat="45.89988" lon="6.18373">
        <ele>1277</ele>
        <time>2023-08-09T11:31:01Z</time>
      </trkpt>
      <trkpt lat="45.89986" lon="6.18374">
        <ele>1277</ele>
        <time>2023-08-09T11:31:31Z</time>
      </trkpt>
      <trkpt lat="45.89988" lon="6.18377">
        <ele>1277</ele>
        <time>2023-08-09T11:32:00Z</time>
      </trkpt>
      <trkpt lat="45.8999" lon="6.18379">
        <ele>1277</ele>
        <time>2023-08-09T11:32:27Z</time>
      </trkpt>
      <trkpt lat="45.89991" lon="6.18381">
        <ele>1277</ele>
        <time>2023-08-09T11:32:54Z</time>
      </trkpt>
      <trkpt lat="45.89992" lon="6.18379">
        <ele>1277</ele>
        <time>2023-08-09T11:33:21Z</time>
      </trkpt>
      <trkpt lat="45.89991" lon="6.18375">
        <ele>1277</ele>
        <time>2023-08-09T11:33:48Z</time>
      </trkpt>
      <trkpt lat="45.89992" lon="6.18374">
        <ele>1277</ele>
        <time>2023-08-09T11:34:17Z</time>
      </trkpt>
      <trkpt lat="45.8999" lon="6.18374">
        <ele>1277</ele>
        <time>2023-08-09T11:34:44Z</time>
      </trkpt>
      <trkpt lat="45.89991" lon="6.18378">
        <ele>1277</ele>
        <time>2023-08-09T11:35:12Z</time>
      </trkpt>
      <trkpt lat="45.89992" lon="6.18377">
        <ele>1277</ele>
        <time>2023-08-09T11:35:45Z</time>
      </trkpt>
      <trkpt lat="45.89993" lon="6.18373">
        <ele>1277</ele>
        <time>2023-08-09T11:36:19Z</time>
      </trkpt>
      <trkpt lat="45.89993" lon="6.18371">
        <ele>1277</ele>
        <time>2023-08-09T11:36:46Z</time>
      </trkpt>
      <trkpt lat="45.89994" lon="6.18375">
        <ele>1277</ele>
        <time>2023-08-09T11:37:21Z</time>
      </trkpt>
      <trkpt lat="45.89994" lon="6.18384">
        <ele>1277</ele>
        <time>2023-08-09T11:37:54Z</time>
      </trkpt>
      <trkpt lat="45.89991" lon="6.18379">
        <ele>1277</ele>
        <time>2023-08-09T11:38:23Z</time>
      </trkpt>
      <trkpt lat="45.89991" lon="6.18374">
        <ele>1277</ele>
        <time>2023-08-09T11:38:52Z</time>
      </trkpt>
      <trkpt lat="45.89988" lon="6.18374">
        <ele>1277</ele>
        <time>2023-08-09T11:39:21Z</time>
      </trkpt>
      <trkpt lat="45.89987" lon="6.1837">
        <ele>1277</ele>
        <time>2023-08-09T11:39:52Z</time>
      </trkpt>
      <trkpt lat="45.89989" lon="6.18372">
        <ele>1277</ele>
        <time>2023-08-09T11:40:19Z</time>
      </trkpt>
      <trkpt lat="45.89989" lon="6.18373">
        <ele>1277</ele>
        <time>2023-08-09T11:40:51Z</time>
      </trkpt>
      <trkpt lat="45.89989" lon="6.18373">
        <ele>1277</ele>
        <time>2023-08-09T11:41:20Z</time>
      </trkpt>
      <trkpt lat="45.8999" lon="6.18375">
        <ele>1277</ele>
        <time>2023-08-09T11:41:48Z</time>
      </trkpt>
      <trkpt lat="45.8999" lon="6.18373">
        <ele>1277</ele>
        <time>2023-08-09T11:42:18Z</time>
      </trkpt>
      <trkpt lat="45.8999" lon="6.1837">
        <ele>1277</ele>
        <time>2023-08-09T11:42:47Z</time>
      </trkpt>
      <trkpt lat="45.89986" lon="6.18374">
        <ele>1277</ele>
        <time>2023-08-09T11:43:15Z</time>
      </trkpt>
      <trkpt lat="45.89985" lon="6.18374">
        <ele>1277</ele>
        <time>2023-08-09T11:43:45Z</time>
      </trkpt>
      <trkpt lat="45.89984" lon="6.18376">
        <ele>1277</ele>
        <time>2023-08-09T11:44:11Z</time>
      </trkpt>
      <trkpt lat="45.89986" lon="6.18376">
        <ele>1277</ele>
        <time>2023-08-09T11:44:40Z</time>
      </trkpt>
      <trkpt lat="45.89989" lon="6.18373">
        <ele>1277</ele>
        <time>2023-08-09T11:45:08Z</time>
      </trkpt>
      <trkpt lat="45.89989" lon="6.18376">
        <ele>1277</ele>
        <time>2023-08-09T11:45:34Z</time>
      </trkpt>
      <trkpt lat="45.89989" lon="6.18374">
        <ele>1277</ele>
        <time>2023-08-09T11:46:03Z</time>
      </trkpt>
      <trkpt lat="45.89988" lon="6.18373">
        <ele>1277</ele>
        <time>2023-08-09T11:46:30Z</time>
      </trkpt>
      <trkpt lat="45.89985" lon="6.18374">
        <ele>1277</ele>
        <time>2023-08-09T11:47:05Z</time>
      </trkpt>
      <trkpt lat="45.89984" lon="6.18373">
        <ele>1277</ele>
        <time>2023-08-09T11:47:35Z</time>
      </trkpt>
      <trkpt lat="45.89985" lon="6.18375">
        <ele>1277</ele>
        <time>2023-08-09T11:48:08Z</time>
      </trkpt>
      <trkpt lat="45.89987" lon="6.18376">
        <ele>1277</ele>
        <time>2023-08-09T11:48:32Z</time>
      </trkpt>
      <trkpt lat="45.89989" lon="6.18372">
        <ele>1277</ele>
        <time>2023-08-09T11:48:57Z</time>
      </trkpt>
      <trkpt lat="45.89988" lon="6.18373">
        <ele>1277</ele>
        <time>2023-08-09T11:49:29Z</time>
      </trkpt>
      <trkpt lat="45.89988" lon="6.18376">
        <ele>1277</ele>
        <time>2023-08-09T11:49:55Z</time>
      </trkpt>
      <trkpt lat="45.89988" lon="6.18371">
        <ele>1277</ele>
        <time>2023-08-09T11:50:22Z</time>
      </trkpt>
      <trkpt lat="45.89988" lon="6.18369">
        <ele>1277</ele>
        <time>2023-08-09T11:51:07Z</time>
      </trkpt>
      <trkpt lat="45.89987" lon="6.18371">
        <ele>1277</ele>
        <time>2023-08-09T11:51:43Z</time>
      </trkpt>
      <trkpt lat="45.89987" lon="6.18373">
        <ele>1277</ele>
        <time>2023-08-09T11:52:07Z</time>
      </trkpt>
      <trkpt lat="45.89989" lon="6.18372">
        <ele>1277</ele>
        <time>2023-08-09T11:52:30Z</time>
      </trkpt>
      <trkpt lat="45.89984" lon="6.18372">
        <ele>1277</ele>
        <time>2023-08-09T11:52:50Z</time>
      </trkpt>
      <trkpt lat="45.89977" lon="6.18378">
        <ele>1277</ele>
        <time>2023-08-09T11:53:13Z</time>
      </trkpt>
      <trkpt lat="45.89968" lon="6.18386">
        <ele>1277</ele>
        <time>2023-08-09T11:53:25Z</time>
      </trkpt>
      <trkpt lat="45.89964" lon="6.18394">
        <ele>1277</ele>
        <time>2023-08-09T11:53:39Z</time>
      </trkpt>
      <trkpt lat="45.8996" lon="6.18399">
        <ele>1277</ele>
        <time>2023-08-09T11:53:57Z</time>
      </trkpt>
      <trkpt lat="45.89955" lon="6.18407">
        <ele>1276</ele>
        <time>2023-08-09T11:54:19Z</time>
      </trkpt>
      <trkpt lat="45.89954" lon="6.18407">
        <ele>1274.5999755859</ele>
        <time>2023-08-09T11:54:22Z</time>
      </trkpt>
      <trkpt lat="45.89945" lon="6.18415">
        <ele>1274.4000244141</ele>
        <time>2023-08-09T11:54:40Z</time>
      </trkpt>
      <trkpt lat="45.89938" lon="6.1842">
        <ele>1274.5999755859</ele>
        <time>2023-08-09T11:54:57Z</time>
      </trkpt>
      <trkpt lat="45.89936" lon="6.18428">
        <ele>1273.1999511719</ele>
        <time>2023-08-09T11:55:15Z</time>
      </trkpt>
      <trkpt lat="45.89929" lon="6.18433">
        <ele>1273.5999755859</ele>
        <time>2023-08-09T11:55:34Z</time>
      </trkpt>
      <trkpt lat="45.89918" lon="6.18441">
        <ele>1274.4000244141</ele>
        <time>2023-08-09T11:55:52Z</time>
      </trkpt>
      <trkpt lat="45.89909" lon="6.1845">
        <ele>1273.5999755859</ele>
        <time>2023-08-09T11:56:10Z</time>
      </trkpt>
      <trkpt lat="45.89905" lon="6.18457">
        <ele>1273.8000488281</ele>
        <time>2023-08-09T11:56:31Z</time>
      </trkpt>
      <trkpt lat="45.89899" lon="6.18462">
        <ele>1274.8000488281</ele>
        <time>2023-08-09T11:56:46Z</time>
      </trkpt>
      <trkpt lat="45.89893" lon="6.18465">
        <ele>1275.4000244141</ele>
        <time>2023-08-09T11:57:08Z</time>
      </trkpt>
      <trkpt lat="45.8988" lon="6.1847">
        <ele>1276</ele>
        <time>2023-08-09T11:57:25Z</time>
      </trkpt>
      <trkpt lat="45.89876" lon="6.18474">
        <ele>1276.5999755859</ele>
        <time>2023-08-09T11:57:42Z</time>
      </trkpt>
      <trkpt lat="45.8987" lon="6.1848">
        <ele>1277.8000488281</ele>
        <time>2023-08-09T11:57:58Z</time>
      </trkpt>
      <trkpt lat="45.8986" lon="6.1849">
        <ele>1277.4000244141</ele>
        <time>2023-08-09T11:58:18Z</time>
      </trkpt>
      <trkpt lat="45.89855" lon="6.18499">
        <ele>1278.4000244141</ele>
        <time>2023-08-09T11:58:38Z</time>
      </trkpt>
      <trkpt lat="45.89848" lon="6.18503">
        <ele>1280</ele>
        <time>2023-08-09T11:58:56Z</time>
      </trkpt>
      <trkpt lat="45.8984" lon="6.18507">
        <ele>1280.8000488281</ele>
        <time>2023-08-09T11:59:14Z</time>
      </trkpt>
      <trkpt lat="45.89832" lon="6.18512">
        <ele>1281.4000244141</ele>
        <time>2023-08-09T11:59:38Z</time>
      </trkpt>
      <trkpt lat="45.89825" lon="6.18517">
        <ele>1281.8000488281</ele>
        <time>2023-08-09T11:59:57Z</time>
      </trkpt>
      <trkpt lat="45.89817" lon="6.18524">
        <ele>1281.1999511719</ele>
        <time>2023-08-09T12:00:15Z</time>
      </trkpt>
      <trkpt lat="45.89807" lon="6.18534">
        <ele>1279.1999511719</ele>
        <time>2023-08-09T12:00:34Z</time>
      </trkpt>
      <trkpt lat="45.89798" lon="6.18536">
        <ele>1280.5999755859</ele>
        <time>2023-08-09T12:00:53Z</time>
      </trkpt>
      <trkpt lat="45.8979" lon="6.18541">
        <ele>1282.1999511719</ele>
        <time>2023-08-09T12:01:12Z</time>
      </trkpt>
      <trkpt lat="45.8978" lon="6.18545">
        <ele>1283.4000244141</ele>
        <time>2023-08-09T12:01:29Z</time>
      </trkpt>
      <trkpt lat="45.8977" lon="6.18548">
        <ele>1282.4000244141</ele>
        <time>2023-08-09T12:01:48Z</time>
      </trkpt>
      <trkpt lat="45.89757" lon="6.18565">
        <ele>1282</ele>
        <time>2023-08-09T12:02:06Z</time>
      </trkpt>
      <trkpt lat="45.89754" lon="6.18568">
        <ele>1284.4000244141</ele>
        <time>2023-08-09T12:02:29Z</time>
      </trkpt>
      <trkpt lat="45.89751" lon="6.18569">
        <ele>1285.4000244141</ele>
        <time>2023-08-09T12:02:55Z</time>
      </trkpt>
      <trkpt lat="45.8974" lon="6.18586">
        <ele>1287</ele>
        <time>2023-08-09T12:03:15Z</time>
      </trkpt>
      <trkpt lat="45.89736" lon="6.18592">
        <ele>1289.5999755859</ele>
        <time>2023-08-09T12:03:36Z</time>
      </trkpt>
      <trkpt lat="45.8972" lon="6.18598">
        <ele>1289.8000488281</ele>
        <time>2023-08-09T12:03:54Z</time>
      </trkpt>
      <trkpt lat="45.89703" lon="6.18599">
        <ele>1290.1999511719</ele>
        <time>2023-08-09T12:04:14Z</time>
      </trkpt>
      <trkpt lat="45.89691" lon="6.186">
        <ele>1290.1999511719</ele>
        <time>2023-08-09T12:04:35Z</time>
      </trkpt>
      <trkpt lat="45.89689" lon="6.186">
        <ele>1290.1999511719</ele>
        <time>2023-08-09T12:04:59Z</time>
      </trkpt>
      <trkpt lat="45.89689" lon="6.18607">
        <ele>1291.4000244141</ele>
        <time>2023-08-09T12:05:18Z</time>
      </trkpt>
      <trkpt lat="45.89681" lon="6.18618">
        <ele>1293.5999755859</ele>
        <time>2023-08-09T12:05:38Z</time>
      </trkpt>
      <trkpt lat="45.89675" lon="6.18635">
        <ele>1294.1999511719</ele>
        <time>2023-08-09T12:05:57Z</time>
      </trkpt>
      <trkpt lat="45.89678" lon="6.1864">
        <ele>1295.5999755859</ele>
        <time>2023-08-09T12:06:15Z</time>
      </trkpt>
      <trkpt lat="45.89681" lon="6.1864">
        <ele>1297</ele>
        <time>2023-08-09T12:06:34Z</time>
      </trkpt>
      <trkpt lat="45.89686" lon="6.1864">
        <ele>1298.8000488281</ele>
        <time>2023-08-09T12:06:53Z</time>
      </trkpt>
      <trkpt lat="45.89688" lon="6.18636">
        <ele>1300.8000488281</ele>
        <time>2023-08-09T12:07:13Z</time>
      </trkpt>
      <trkpt lat="45.89691" lon="6.1864">
        <ele>1301.1999511719</ele>
        <time>2023-08-09T12:07:33Z</time>
      </trkpt>
      <trkpt lat="45.89694" lon="6.18644">
        <ele>1299.1999511719</ele>
        <time>2023-08-09T12:07:54Z</time>
      </trkpt>
      <trkpt lat="45.89698" lon="6.18642">
        <ele>1298.8000488281</ele>
        <time>2023-08-09T12:08:18Z</time>
      </trkpt>
      <trkpt lat="45.897" lon="6.18637">
        <ele>1297.1999511719</ele>
        <time>2023-08-09T12:08:39Z</time>
      </trkpt>
      <trkpt lat="45.89707" lon="6.18636">
        <ele>1296</ele>
        <time>2023-08-09T12:09:01Z</time>
      </trkpt>
      <trkpt lat="45.89714" lon="6.18645">
        <ele>1294</ele>
        <time>2023-08-09T12:09:19Z</time>
      </trkpt>
      <trkpt lat="45.89721" lon="6.18652">
        <ele>1293.4000244141</ele>
        <time>2023-08-09T12:09:36Z</time>
      </trkpt>
      <trkpt lat="45.89726" lon="6.18648">
        <ele>1293.4000244141</ele>
        <time>2023-08-09T12:09:57Z</time>
      </trkpt>
      <trkpt lat="45.89728" lon="6.18647">
        <ele>1293</ele>
        <time>2023-08-09T12:09:59Z</time>
      </trkpt>
      <trkpt lat="45.89736" lon="6.1864">
        <ele>1291.5999755859</ele>
        <time>2023-08-09T12:10:18Z</time>
      </trkpt>
      <trkpt lat="45.89748" lon="6.18624">
        <ele>1291.5999755859</ele>
        <time>2023-08-09T12:10:38Z</time>
      </trkpt>
      <trkpt lat="45.89751" lon="6.18609">
        <ele>1291.5999755859</ele>
        <time>2023-08-09T12:10:57Z</time>
      </trkpt>
      <trkpt lat="45.89769" lon="6.18604">
        <ele>1289.8000488281</ele>
        <time>2023-08-09T12:11:17Z</time>
      </trkpt>
      <trkpt lat="45.8979" lon="6.18597">
        <ele>1288.4000244141</ele>
        <time>2023-08-09T12:11:39Z</time>
      </trkpt>
      <trkpt lat="45.89799" lon="6.186">
        <ele>1286.1999511719</ele>
        <time>2023-08-09T12:11:58Z</time>
      </trkpt>
      <trkpt lat="45.89823" lon="6.18601">
        <ele>1283.8000488281</ele>
        <time>2023-08-09T12:12:17Z</time>
      </trkpt>
      <trkpt lat="45.89835" lon="6.18594">
        <ele>1282.5999755859</ele>
        <time>2023-08-09T12:12:37Z</time>
      </trkpt>
      <trkpt lat="45.89835" lon="6.18591">
        <ele>1282.1999511719</ele>
        <time>2023-08-09T12:13:09Z</time>
      </trkpt>
      <trkpt lat="45.89842" lon="6.18594">
        <ele>1280.8000488281</ele>
        <time>2023-08-09T12:13:44Z</time>
      </trkpt>
      <trkpt lat="45.89844" lon="6.18593">
        <ele>1280.5999755859</ele>
        <time>2023-08-09T12:13:45Z</time>
      </trkpt>
      <trkpt lat="45.89863" lon="6.18591">
        <ele>1277.8000488281</ele>
        <time>2023-08-09T12:14:06Z</time>
      </trkpt>
      <trkpt lat="45.89872" lon="6.18598">
        <ele>1275.8000488281</ele>
        <time>2023-08-09T12:14:24Z</time>
      </trkpt>
      <trkpt lat="45.89877" lon="6.18602">
        <ele>1274.1999511719</ele>
        <time>2023-08-09T12:14:42Z</time>
      </trkpt>
      <trkpt lat="45.89882" lon="6.18592">
        <ele>1273</ele>
        <time>2023-08-09T12:15:00Z</time>
      </trkpt>
      <trkpt lat="45.89882" lon="6.18586">
        <ele>1271</ele>
        <time>2023-08-09T12:15:22Z</time>
      </trkpt>
      <trkpt lat="45.89881" lon="6.18588">
        <ele>1270.5999755859</ele>
        <time>2023-08-09T12:15:49Z</time>
      </trkpt>
      <trkpt lat="45.89884" lon="6.18582">
        <ele>1270.4000244141</ele>
        <time>2023-08-09T12:16:12Z</time>
      </trkpt>
      <trkpt lat="45.89894" lon="6.18576">
        <ele>1267.8000488281</ele>
        <time>2023-08-09T12:16:32Z</time>
      </trkpt>
      <trkpt lat="45.89906" lon="6.1857">
        <ele>1265.4000244141</ele>
        <time>2023-08-09T12:16:50Z</time>
      </trkpt>
      <trkpt lat="45.89922" lon="6.18567">
        <ele>1263</ele>
        <time>2023-08-09T12:17:09Z</time>
      </trkpt>
      <trkpt lat="45.89938" lon="6.18565">
        <ele>1260.1999511719</ele>
        <time>2023-08-09T12:17:30Z</time>
      </trkpt>
      <trkpt lat="45.89948" lon="6.18566">
        <ele>1257</ele>
        <time>2023-08-09T12:17:44Z</time>
      </trkpt>
      <trkpt lat="45.89958" lon="6.18563">
        <ele>1254</ele>
        <time>2023-08-09T12:18:00Z</time>
      </trkpt>
      <trkpt lat="45.89968" lon="6.18559">
        <ele>1250.8000488281</ele>
        <time>2023-08-09T12:18:13Z</time>
      </trkpt>
      <trkpt lat="45.89982" lon="6.1856">
        <ele>1247.5999755859</ele>
        <time>2023-08-09T12:18:32Z</time>
      </trkpt>
      <trkpt lat="45.89988" lon="6.18562">
        <ele>1244.5999755859</ele>
        <time>2023-08-09T12:18:49Z</time>
      </trkpt>
      <trkpt lat="45.89993" lon="6.18563">
        <ele>1241.5999755859</ele>
        <time>2023-08-09T12:19:07Z</time>
      </trkpt>
      <trkpt lat="45.89999" lon="6.18564">
        <ele>1240.5999755859</ele>
        <time>2023-08-09T12:19:14Z</time>
      </trkpt>
      <trkpt lat="45.9" lon="6.18569">
        <ele>1240</ele>
        <time>2023-08-09T12:19:35Z</time>
      </trkpt>
      <trkpt lat="45.90009" lon="6.18572">
        <ele>1237</ele>
        <time>2023-08-09T12:19:48Z</time>
      </trkpt>
      <trkpt lat="45.90015" lon="6.18569">
        <ele>1234.5999755859</ele>
        <time>2023-08-09T12:20:06Z</time>
      </trkpt>
      <trkpt lat="45.90019" lon="6.18572">
        <ele>1231.5999755859</ele>
        <time>2023-08-09T12:20:23Z</time>
      </trkpt>
      <trkpt lat="45.90025" lon="6.18582">
        <ele>1228.5999755859</ele>
        <time>2023-08-09T12:20:37Z</time>
      </trkpt>
      <trkpt lat="45.90026" lon="6.18589">
        <ele>1227</ele>
        <time>2023-08-09T12:20:56Z</time>
      </trkpt>
      <trkpt lat="45.9003" lon="6.18593">
        <ele>1224.5999755859</ele>
        <time>2023-08-09T12:21:15Z</time>
      </trkpt>
      <trkpt lat="45.90038" lon="6.1859">
        <ele>1222.8000488281</ele>
        <time>2023-08-09T12:21:36Z</time>
      </trkpt>
      <trkpt lat="45.90044" lon="6.18599">
        <ele>1220.1999511719</ele>
        <time>2023-08-09T12:21:57Z</time>
      </trkpt>
      <trkpt lat="45.9005" lon="6.18592">
        <ele>1218</ele>
        <time>2023-08-09T12:22:19Z</time>
      </trkpt>
      <trkpt lat="45.90055" lon="6.18593">
        <ele>1216.5999755859</ele>
        <time>2023-08-09T12:22:41Z</time>
      </trkpt>
      <trkpt lat="45.90056" lon="6.18602">
        <ele>1214.4000244141</ele>
        <time>2023-08-09T12:23:00Z</time>
      </trkpt>
      <trkpt lat="45.9006" lon="6.18605">
        <ele>1211.4000244141</ele>
        <time>2023-08-09T12:23:21Z</time>
      </trkpt>
      <trkpt lat="45.90065" lon="6.18609">
        <ele>1209</ele>
        <time>2023-08-09T12:23:43Z</time>
      </trkpt>
      <trkpt lat="45.90074" lon="6.18604">
        <ele>1207.8000488281</ele>
        <time>2023-08-09T12:24:06Z</time>
      </trkpt>
      <trkpt lat="45.90077" lon="6.18612">
        <ele>1205.4000244141</ele>
        <time>2023-08-09T12:24:29Z</time>
      </trkpt>
      <trkpt lat="45.90081" lon="6.18613">
        <ele>1203.1999511719</ele>
        <time>2023-08-09T12:24:48Z</time>
      </trkpt>
      <trkpt lat="45.90087" lon="6.18609">
        <ele>1200.1999511719</ele>
        <time>2023-08-09T12:25:09Z</time>
      </trkpt>
      <trkpt lat="45.9009" lon="6.18612">
        <ele>1197.4000244141</ele>
        <time>2023-08-09T12:25:26Z</time>
      </trkpt>
      <trkpt lat="45.90097" lon="6.18604">
        <ele>1195</ele>
        <time>2023-08-09T12:25:48Z</time>
      </trkpt>
      <trkpt lat="45.90109" lon="6.18597">
        <ele>1192.1999511719</ele>
        <time>2023-08-09T12:26:08Z</time>
      </trkpt>
      <trkpt lat="45.90115" lon="6.18603">
        <ele>1190</ele>
        <time>2023-08-09T12:26:29Z</time>
      </trkpt>
      <trkpt lat="45.90129" lon="6.18596">
        <ele>1188.1999511719</ele>
        <time>2023-08-09T12:26:48Z</time>
      </trkpt>
      <trkpt lat="45.90131" lon="6.18585">
        <ele>1186.4000244141</ele>
        <time>2023-08-09T12:27:09Z</time>
      </trkpt>
      <trkpt lat="45.90145" lon="6.18563">
        <ele>1184</ele>
        <time>2023-08-09T12:27:34Z</time>
      </trkpt>
      <trkpt lat="45.90155" lon="6.18549">
        <ele>1183.8000488281</ele>
        <time>2023-08-09T12:27:56Z</time>
      </trkpt>
      <trkpt lat="45.90174" lon="6.1854">
        <ele>1181.8000488281</ele>
        <time>2023-08-09T12:28:20Z</time>
      </trkpt>
      <trkpt lat="45.9019" lon="6.18528">
        <ele>1180.4000244141</ele>
        <time>2023-08-09T12:28:44Z</time>
      </trkpt>
      <trkpt lat="45.902" lon="6.18522">
        <ele>1177.1999511719</ele>
        <time>2023-08-09T12:29:00Z</time>
      </trkpt>
      <trkpt lat="45.90211" lon="6.18522">
        <ele>1174.8000488281</ele>
        <time>2023-08-09T12:29:14Z</time>
      </trkpt>
      <trkpt lat="45.90234" lon="6.18523">
        <ele>1171.5999755859</ele>
        <time>2023-08-09T12:29:36Z</time>
      </trkpt>
      <trkpt lat="45.90251" lon="6.18512">
        <ele>1169.5999755859</ele>
        <time>2023-08-09T12:29:58Z</time>
      </trkpt>
      <trkpt lat="45.90267" lon="6.18497">
        <ele>1170</ele>
        <time>2023-08-09T12:30:19Z</time>
      </trkpt>
      <trkpt lat="45.9028" lon="6.18496">
        <ele>1166.8000488281</ele>
        <time>2023-08-09T12:30:42Z</time>
      </trkpt>
      <trkpt lat="45.90289" lon="6.18495">
        <ele>1163.5999755859</ele>
        <time>2023-08-09T12:30:58Z</time>
      </trkpt>
      <trkpt lat="45.90296" lon="6.1849">
        <ele>1161.1999511719</ele>
        <time>2023-08-09T12:31:16Z</time>
      </trkpt>
      <trkpt lat="45.90318" lon="6.18487">
        <ele>1159</ele>
        <time>2023-08-09T12:31:37Z</time>
      </trkpt>
      <trkpt lat="45.90332" lon="6.18484">
        <ele>1157</ele>
        <time>2023-08-09T12:31:56Z</time>
      </trkpt>
      <trkpt lat="45.90339" lon="6.18486">
        <ele>1154.5999755859</ele>
        <time>2023-08-09T12:32:13Z</time>
      </trkpt>
      <trkpt lat="45.90345" lon="6.18488">
        <ele>1151.4000244141</ele>
        <time>2023-08-09T12:32:27Z</time>
      </trkpt>
      <trkpt lat="45.90356" lon="6.18489">
        <ele>1148.4000244141</ele>
        <time>2023-08-09T12:32:47Z</time>
      </trkpt>
      <trkpt lat="45.90366" lon="6.18493">
        <ele>1145.1999511719</ele>
        <time>2023-08-09T12:33:01Z</time>
      </trkpt>
      <trkpt lat="45.9038" lon="6.18492">
        <ele>1142.8000488281</ele>
        <time>2023-08-09T12:33:18Z</time>
      </trkpt>
      <trkpt lat="45.90388" lon="6.18487">
        <ele>1140.8000488281</ele>
        <time>2023-08-09T12:33:36Z</time>
      </trkpt>
      <trkpt lat="45.90396" lon="6.18487">
        <ele>1139.4000244141</ele>
        <time>2023-08-09T12:33:55Z</time>
      </trkpt>
      <trkpt lat="45.90402" lon="6.18484">
        <ele>1138.1999511719</ele>
        <time>2023-08-09T12:34:01Z</time>
      </trkpt>
      <trkpt lat="45.90412" lon="6.18482">
        <ele>1135</ele>
        <time>2023-08-09T12:34:15Z</time>
      </trkpt>
      <trkpt lat="45.90424" lon="6.18481">
        <ele>1132</ele>
        <time>2023-08-09T12:34:31Z</time>
      </trkpt>
      <trkpt lat="45.90432" lon="6.18479">
        <ele>1128.8000488281</ele>
        <time>2023-08-09T12:34:46Z</time>
      </trkpt>
      <trkpt lat="45.90442" lon="6.18475">
        <ele>1125.5999755859</ele>
        <time>2023-08-09T12:35:03Z</time>
      </trkpt>
      <trkpt lat="45.90457" lon="6.18467">
        <ele>1123</ele>
        <time>2023-08-09T12:35:23Z</time>
      </trkpt>
      <trkpt lat="45.90472" lon="6.18461">
        <ele>1119.8000488281</ele>
        <time>2023-08-09T12:35:42Z</time>
      </trkpt>
      <trkpt lat="45.90477" lon="6.18457">
        <ele>1118.5999755859</ele>
        <time>2023-08-09T12:36:00Z</time>
      </trkpt>
      <trkpt lat="45.90483" lon="6.1845">
        <ele>1118.1999511719</ele>
        <time>2023-08-09T12:36:19Z</time>
      </trkpt>
      <trkpt lat="45.90492" lon="6.18444">
        <ele>1115.4000244141</ele>
        <time>2023-08-09T12:36:40Z</time>
      </trkpt>
      <trkpt lat="45.90502" lon="6.18439">
        <ele>1112.1999511719</ele>
        <time>2023-08-09T12:36:57Z</time>
      </trkpt>
      <trkpt lat="45.90514" lon="6.18432">
        <ele>1109.1999511719</ele>
        <time>2023-08-09T12:37:16Z</time>
      </trkpt>
      <trkpt lat="45.90521" lon="6.18429">
        <ele>1108.5999755859</ele>
        <time>2023-08-09T12:37:42Z</time>
      </trkpt>
      <trkpt lat="45.90534" lon="6.18423">
        <ele>1107.4000244141</ele>
        <time>2023-08-09T12:38:04Z</time>
      </trkpt>
      <trkpt lat="45.90545" lon="6.18408">
        <ele>1105.1999511719</ele>
        <time>2023-08-09T12:38:24Z</time>
      </trkpt>
      <trkpt lat="45.90555" lon="6.18388">
        <ele>1104.1999511719</ele>
        <time>2023-08-09T12:38:45Z</time>
      </trkpt>
      <trkpt lat="45.90561" lon="6.18381">
        <ele>1101.8000488281</ele>
        <time>2023-08-09T12:39:10Z</time>
      </trkpt>
      <trkpt lat="45.90566" lon="6.1838">
        <ele>1098.5999755859</ele>
        <time>2023-08-09T12:39:30Z</time>
      </trkpt>
      <trkpt lat="45.90576" lon="6.18374">
        <ele>1095.8000488281</ele>
        <time>2023-08-09T12:39:53Z</time>
      </trkpt>
      <trkpt lat="45.90583" lon="6.18372">
        <ele>1093.1999511719</ele>
        <time>2023-08-09T12:40:14Z</time>
      </trkpt>
      <trkpt lat="45.90586" lon="6.18372">
        <ele>1092.8000488281</ele>
        <time>2023-08-09T12:40:25Z</time>
      </trkpt>
      <trkpt lat="45.90591" lon="6.18373">
        <ele>1092.1999511719</ele>
        <time>2023-08-09T12:40:46Z</time>
      </trkpt>
      <trkpt lat="45.90598" lon="6.18368">
        <ele>1089.8000488281</ele>
        <time>2023-08-09T12:41:06Z</time>
      </trkpt>
      <trkpt lat="45.90606" lon="6.1837">
        <ele>1086.5999755859</ele>
        <time>2023-08-09T12:41:25Z</time>
      </trkpt>
      <trkpt lat="45.90615" lon="6.18362">
        <ele>1084.1999511719</ele>
        <time>2023-08-09T12:41:44Z</time>
      </trkpt>
      <trkpt lat="45.90623" lon="6.18344">
        <ele>1082</ele>
        <time>2023-08-09T12:42:05Z</time>
      </trkpt>
      <trkpt lat="45.90629" lon="6.18337">
        <ele>1080.4000244141</ele>
        <time>2023-08-09T12:42:23Z</time>
      </trkpt>
      <trkpt lat="45.90637" lon="6.18333">
        <ele>1078.1999511719</ele>
        <time>2023-08-09T12:42:39Z</time>
      </trkpt>
      <trkpt lat="45.9065" lon="6.18319">
        <ele>1075.1999511719</ele>
        <time>2023-08-09T12:43:01Z</time>
      </trkpt>
      <trkpt lat="45.90654" lon="6.18318">
        <ele>1074.8000488281</ele>
        <time>2023-08-09T12:43:18Z</time>
      </trkpt>
      <trkpt lat="45.9065" lon="6.18311">
        <ele>1072.4000244141</ele>
        <time>2023-08-09T12:43:43Z</time>
      </trkpt>
      <trkpt lat="45.90651" lon="6.18305">
        <ele>1069.5999755859</ele>
        <time>2023-08-09T12:44:07Z</time>
      </trkpt>
      <trkpt lat="45.90652" lon="6.18295">
        <ele>1067</ele>
        <time>2023-08-09T12:44:28Z</time>
      </trkpt>
      <trkpt lat="45.90658" lon="6.18284">
        <ele>1066.1999511719</ele>
        <time>2023-08-09T12:44:51Z</time>
      </trkpt>
      <trkpt lat="45.90666" lon="6.18297">
        <ele>1064.5999755859</ele>
        <time>2023-08-09T12:45:26Z</time>
      </trkpt>
      <trkpt lat="45.90681" lon="6.1829">
        <ele>1062.8000488281</ele>
        <time>2023-08-09T12:45:50Z</time>
      </trkpt>
      <trkpt lat="45.9069" lon="6.18286">
        <ele>1061.5999755859</ele>
        <time>2023-08-09T12:46:13Z</time>
      </trkpt>
      <trkpt lat="45.90697" lon="6.18284">
        <ele>1059.1999511719</ele>
        <time>2023-08-09T12:46:33Z</time>
      </trkpt>
      <trkpt lat="45.90702" lon="6.18287">
        <ele>1056.1999511719</ele>
        <time>2023-08-09T12:46:49Z</time>
      </trkpt>
      <trkpt lat="45.90709" lon="6.18291">
        <ele>1053</ele>
        <time>2023-08-09T12:47:04Z</time>
      </trkpt>
      <trkpt lat="45.90719" lon="6.18293">
        <ele>1049.8000488281</ele>
        <time>2023-08-09T12:47:18Z</time>
      </trkpt>
      <trkpt lat="45.90727" lon="6.18289">
        <ele>1046.8000488281</ele>
        <time>2023-08-09T12:47:36Z</time>
      </trkpt>
      <trkpt lat="45.90734" lon="6.18286">
        <ele>1044</ele>
        <time>2023-08-09T12:48:00Z</time>
      </trkpt>
      <trkpt lat="45.90742" lon="6.18285">
        <ele>1040.8000488281</ele>
        <time>2023-08-09T12:48:20Z</time>
      </trkpt>
      <trkpt lat="45.90744" lon="6.18285">
        <ele>1040</ele>
        <time>2023-08-09T12:48:25Z</time>
      </trkpt>
      <trkpt lat="45.90754" lon="6.18284">
        <ele>1036.5999755859</ele>
        <time>2023-08-09T12:48:45Z</time>
      </trkpt>
      <trkpt lat="45.90759" lon="6.18281">
        <ele>1033.5999755859</ele>
        <time>2023-08-09T12:49:01Z</time>
      </trkpt>
      <trkpt lat="45.90768" lon="6.18268">
        <ele>1031.5999755859</ele>
        <time>2023-08-09T12:49:21Z</time>
      </trkpt>
      <trkpt lat="45.90773" lon="6.18256">
        <ele>1030.1999511719</ele>
        <time>2023-08-09T12:49:36Z</time>
      </trkpt>
      <trkpt lat="45.90774" lon="6.1823">
        <ele>1032.8000488281</ele>
        <time>2023-08-09T12:49:59Z</time>
      </trkpt>
      <trkpt lat="45.9077" lon="6.18213">
        <ele>1035</ele>
        <time>2023-08-09T12:50:18Z</time>
      </trkpt>
      <trkpt lat="45.90768" lon="6.18208">
        <ele>1035.5999755859</ele>
        <time>2023-08-09T12:50:41Z</time>
      </trkpt>
      <trkpt lat="45.90773" lon="6.18228">
        <ele>1033.8000488281</ele>
        <time>2023-08-09T12:51:00Z</time>
      </trkpt>
      <trkpt lat="45.90777" lon="6.18249">
        <ele>1030.8000488281</ele>
        <time>2023-08-09T12:51:19Z</time>
      </trkpt>
      <trkpt lat="45.90781" lon="6.18273">
        <ele>1027.8000488281</ele>
        <time>2023-08-09T12:51:36Z</time>
      </trkpt>
      <trkpt lat="45.90784" lon="6.18292">
        <ele>1024.8000488281</ele>
        <time>2023-08-09T12:51:52Z</time>
      </trkpt>
      <trkpt lat="45.90784" lon="6.18313">
        <ele>1021.5999755859</ele>
        <time>2023-08-09T12:52:09Z</time>
      </trkpt>
      <trkpt lat="45.90788" lon="6.18329">
        <ele>1018.5999755859</ele>
        <time>2023-08-09T12:52:23Z</time>
      </trkpt>
      <trkpt lat="45.90788" lon="6.1834">
        <ele>1017.5999755859</ele>
        <time>2023-08-09T12:52:41Z</time>
      </trkpt>
      <trkpt lat="45.90786" lon="6.18355">
        <ele>1017.200012207</ele>
        <time>2023-08-09T12:52:51Z</time>
      </trkpt>
      <trkpt lat="45.90783" lon="6.18374">
        <ele>1016.799987793</ele>
        <time>2023-08-09T12:53:06Z</time>
      </trkpt>
      <trkpt lat="45.90785" lon="6.18396">
        <ele>1016</ele>
        <time>2023-08-09T12:53:20Z</time>
      </trkpt>
      <trkpt lat="45.90788" lon="6.18425">
        <ele>1016.200012207</ele>
        <time>2023-08-09T12:53:37Z</time>
      </trkpt>
      <trkpt lat="45.90795" lon="6.18441">
        <ele>1014.200012207</ele>
        <time>2023-08-09T12:53:53Z</time>
      </trkpt>
      <trkpt lat="45.90799" lon="6.18437">
        <ele>1013.200012207</ele>
        <time>2023-08-09T12:54:12Z</time>
      </trkpt>
      <trkpt lat="45.90808" lon="6.18422">
        <ele>1010.5999755859</ele>
        <time>2023-08-09T12:54:29Z</time>
      </trkpt>
      <trkpt lat="45.90811" lon="6.18417">
        <ele>1009.799987793</ele>
        <time>2023-08-09T12:54:34Z</time>
      </trkpt>
      <trkpt lat="45.9082" lon="6.18408">
        <ele>1007.4000244141</ele>
        <time>2023-08-09T12:54:47Z</time>
      </trkpt>
      <trkpt lat="45.90828" lon="6.18395">
        <ele>1004.200012207</ele>
        <time>2023-08-09T12:55:02Z</time>
      </trkpt>
      <trkpt lat="45.90842" lon="6.1838">
        <ele>1001.200012207</ele>
        <time>2023-08-09T12:55:19Z</time>
      </trkpt>
      <trkpt lat="45.9085" lon="6.18369">
        <ele>998.40002441406</ele>
        <time>2023-08-09T12:55:29Z</time>
      </trkpt>
      <trkpt lat="45.90854" lon="6.18347">
        <ele>996</ele>
        <time>2023-08-09T12:55:43Z</time>
      </trkpt>
      <trkpt lat="45.90855" lon="6.18318">
        <ele>993.79998779297</ele>
        <time>2023-08-09T12:56:03Z</time>
      </trkpt>
      <trkpt lat="45.90858" lon="6.18285">
        <ele>990.79998779297</ele>
        <time>2023-08-09T12:56:25Z</time>
      </trkpt>
      <trkpt lat="45.90861" lon="6.18256">
        <ele>988.40002441406</ele>
        <time>2023-08-09T12:56:43Z</time>
      </trkpt>
      <trkpt lat="45.90869" lon="6.18222">
        <ele>985.20001220703</ele>
        <time>2023-08-09T12:57:04Z</time>
      </trkpt>
      <trkpt lat="45.90874" lon="6.18183">
        <ele>982.40002441406</ele>
        <time>2023-08-09T12:57:26Z</time>
      </trkpt>
      <trkpt lat="45.90884" lon="6.18151">
        <ele>980</ele>
        <time>2023-08-09T12:57:47Z</time>
      </trkpt>
      <trkpt lat="45.90893" lon="6.18123">
        <ele>977.59997558594</ele>
        <time>2023-08-09T12:58:05Z</time>
      </trkpt>
      <trkpt lat="45.90897" lon="6.18098">
        <ele>974.59997558594</ele>
        <time>2023-08-09T12:58:22Z</time>
      </trkpt>
      <trkpt lat="45.90894" lon="6.18072">
        <ele>971.79998779297</ele>
        <time>2023-08-09T12:58:40Z</time>
      </trkpt>
      <trkpt lat="45.90889" lon="6.18046">
        <ele>970</ele>
        <time>2023-08-09T12:58:55Z</time>
      </trkpt>
      <trkpt lat="45.90885" lon="6.18023">
        <ele>968</ele>
        <time>2023-08-09T12:59:09Z</time>
      </trkpt>
      <trkpt lat="45.90887" lon="6.17994">
        <ele>965.59997558594</ele>
        <time>2023-08-09T12:59:29Z</time>
      </trkpt>
      <trkpt lat="45.90888" lon="6.17955">
        <ele>963.40002441406</ele>
        <time>2023-08-09T12:59:52Z</time>
      </trkpt>
      <trkpt lat="45.90889" lon="6.17921">
        <ele>961.20001220703</ele>
        <time>2023-08-09T13:00:14Z</time>
      </trkpt>
      <trkpt lat="45.90885" lon="6.17876">
        <ele>958</ele>
        <time>2023-08-09T13:00:40Z</time>
      </trkpt>
      <trkpt lat="45.90879" lon="6.17852">
        <ele>956.20001220703</ele>
        <time>2023-08-09T13:00:54Z</time>
      </trkpt>
      <trkpt lat="45.90877" lon="6.17825">
        <ele>953.59997558594</ele>
        <time>2023-08-09T13:01:11Z</time>
      </trkpt>
      <trkpt lat="45.9087" lon="6.17799">
        <ele>952</ele>
        <time>2023-08-09T13:01:28Z</time>
      </trkpt>
      <trkpt lat="45.90869" lon="6.1777">
        <ele>950</ele>
        <time>2023-08-09T13:01:47Z</time>
      </trkpt>
      <trkpt lat="45.90869" lon="6.17731">
        <ele>947.20001220703</ele>
        <time>2023-08-09T13:02:12Z</time>
      </trkpt>
      <trkpt lat="45.90879" lon="6.17704">
        <ele>945.40002441406</ele>
        <time>2023-08-09T13:02:27Z</time>
      </trkpt>
      <trkpt lat="45.90893" lon="6.17683">
        <ele>943.59997558594</ele>
        <time>2023-08-09T13:02:43Z</time>
      </trkpt>
      <trkpt lat="45.90904" lon="6.17661">
        <ele>941.20001220703</ele>
        <time>2023-08-09T13:03:04Z</time>
      </trkpt>
      <trkpt lat="45.90904" lon="6.17629">
        <ele>939.20001220703</ele>
        <time>2023-08-09T13:03:27Z</time>
      </trkpt>
      <trkpt lat="45.90897" lon="6.17598">
        <ele>937.20001220703</ele>
        <time>2023-08-09T13:03:46Z</time>
      </trkpt>
      <trkpt lat="45.90889" lon="6.17564">
        <ele>934.40002441406</ele>
        <time>2023-08-09T13:04:06Z</time>
      </trkpt>
      <trkpt lat="45.90878" lon="6.17539">
        <ele>932.40002441406</ele>
        <time>2023-08-09T13:04:25Z</time>
      </trkpt>
      <trkpt lat="45.90882" lon="6.17508">
        <ele>930.40002441406</ele>
        <time>2023-08-09T13:04:44Z</time>
      </trkpt>
      <trkpt lat="45.90886" lon="6.17493">
        <ele>929</ele>
        <time>2023-08-09T13:05:04Z</time>
      </trkpt>
      <trkpt lat="45.90887" lon="6.17495">
        <ele>928.59997558594</ele>
        <time>2023-08-09T13:05:25Z</time>
      </trkpt>
      <trkpt lat="45.90889" lon="6.17496">
        <ele>928.59997558594</ele>
        <time>2023-08-09T13:05:50Z</time>
      </trkpt>
      <trkpt lat="45.90889" lon="6.17496">
        <ele>928.40002441406</ele>
        <time>2023-08-09T13:06:22Z</time>
      </trkpt>
      <trkpt lat="45.9089" lon="6.17495">
        <ele>920.20001220703</ele>
        <time>2023-08-09T13:06:28Z</time>
      </trkpt>
    </trkseg>
  </trk>
</gpx>