<?xml version="1.0" encoding="UTF-8" standalone="no" ?>
<gpx xmlns="http://www.topografix.com/GPX/1/1" xmlns:xsi="http://www.w3.org/2001/XMLSchema-instance" xsi:schemaLocation="http://www.topografix.com/GPX/1/1 http://www.topografix.com/GPX/1/1/gpx.xsd" version="1.1" creator="VisuGPX - https://www.visugpx.com">
  <metadata>
    <name>11.25 km 403 m Cusy, Marsinge, Esery, Moussy , Vuret , Arculinge, Cusy</name>
    <desc><![CDATA[Haute Savoie commune de Réignier-Esery 11.25 km 403 m Cusy, Marsinge, Esery, Moussy , Vuret , Arculinge, Cusy]]></desc>
  </metadata>
  <trk>
    <name><![CDATA[2013-02-13T13:00:53Z]]></name>
    <trkseg>
      <trkpt lat="46.13396" lon="6.24861">
        <ele>591</ele>
      </trkpt>
      <trkpt lat="46.1341" lon="6.24906">
        <ele>589</ele>
      </trkpt>
      <trkpt lat="46.13419" lon="6.24921">
        <ele>586</ele>
      </trkpt>
      <trkpt lat="46.13468" lon="6.24889">
        <ele>583</ele>
      </trkpt>
      <trkpt lat="46.13502" lon="6.24867">
        <ele>577</ele>
      </trkpt>
      <trkpt lat="46.13554" lon="6.24895">
        <ele>574</ele>
      </trkpt>
      <trkpt lat="46.13603" lon="6.24906">
        <ele>568</ele>
      </trkpt>
      <trkpt lat="46.13688" lon="6.24897">
        <ele>557</ele>
      </trkpt>
      <trkpt lat="46.13728" lon="6.2488">
        <ele>555</ele>
      </trkpt>
      <trkpt lat="46.13784" lon="6.24863">
        <ele>546</ele>
      </trkpt>
      <trkpt lat="46.13863" lon="6.24878">
        <ele>537</ele>
      </trkpt>
      <trkpt lat="46.14022" lon="6.24904">
        <ele>525</ele>
      </trkpt>
      <trkpt lat="46.14076" lon="6.24921">
        <ele>521</ele>
      </trkpt>
      <trkpt lat="46.14097" lon="6.24951">
        <ele>516</ele>
      </trkpt>
      <trkpt lat="46.14104" lon="6.24992">
        <ele>516</ele>
      </trkpt>
      <trkpt lat="46.14123" lon="6.25018">
        <ele>512</ele>
      </trkpt>
      <trkpt lat="46.14146" lon="6.2503">
        <ele>511</ele>
      </trkpt>
      <trkpt lat="46.14171" lon="6.25076">
        <ele>505</ele>
      </trkpt>
      <trkpt lat="46.14189" lon="6.25129">
        <ele>497</ele>
      </trkpt>
      <trkpt lat="46.1417" lon="6.25206">
        <ele>491</ele>
      </trkpt>
      <trkpt lat="46.14193" lon="6.25189">
        <ele>491</ele>
      </trkpt>
      <trkpt lat="46.1421" lon="6.25151">
        <ele>495</ele>
      </trkpt>
      <trkpt lat="46.14263" lon="6.25103">
        <ele>491</ele>
      </trkpt>
      <trkpt lat="46.14303" lon="6.25078">
        <ele>493</ele>
      </trkpt>
      <trkpt lat="46.14327" lon="6.25056">
        <ele>494</ele>
      </trkpt>
      <trkpt lat="46.14314" lon="6.24998">
        <ele>500</ele>
      </trkpt>
      <trkpt lat="46.1429" lon="6.24943">
        <ele>501</ele>
      </trkpt>
      <trkpt lat="46.14283" lon="6.24919">
        <ele>502</ele>
      </trkpt>
      <trkpt lat="46.14296" lon="6.24863">
        <ele>507</ele>
      </trkpt>
      <trkpt lat="46.14318" lon="6.2479">
        <ele>514</ele>
      </trkpt>
      <trkpt lat="46.14318" lon="6.24728">
        <ele>518</ele>
      </trkpt>
      <trkpt lat="46.14317" lon="6.24659">
        <ele>522</ele>
      </trkpt>
      <trkpt lat="46.14303" lon="6.24597">
        <ele>524</ele>
      </trkpt>
      <trkpt lat="46.14287" lon="6.24531">
        <ele>528</ele>
      </trkpt>
      <trkpt lat="46.14277" lon="6.24468">
        <ele>532</ele>
      </trkpt>
      <trkpt lat="46.14278" lon="6.24367">
        <ele>538</ele>
      </trkpt>
      <trkpt lat="46.14286" lon="6.24294">
        <ele>546</ele>
      </trkpt>
      <trkpt lat="46.14286" lon="6.24226">
        <ele>556</ele>
      </trkpt>
      <trkpt lat="46.14291" lon="6.24185">
        <ele>559</ele>
      </trkpt>
      <trkpt lat="46.14361" lon="6.24131">
        <ele>571</ele>
      </trkpt>
      <trkpt lat="46.14412" lon="6.24089">
        <ele>577</ele>
      </trkpt>
      <trkpt lat="46.14442" lon="6.24022">
        <ele>584</ele>
      </trkpt>
      <trkpt lat="46.14442" lon="6.23936">
        <ele>593</ele>
      </trkpt>
      <trkpt lat="46.14422" lon="6.23863">
        <ele>600</ele>
      </trkpt>
      <trkpt lat="46.14394" lon="6.23764">
        <ele>606</ele>
      </trkpt>
      <trkpt lat="46.14404" lon="6.23722">
        <ele>608</ele>
      </trkpt>
      <trkpt lat="46.14404" lon="6.23685">
        <ele>609</ele>
      </trkpt>
      <trkpt lat="46.14391" lon="6.23631">
        <ele>614</ele>
      </trkpt>
      <trkpt lat="46.1439" lon="6.23563">
        <ele>619</ele>
      </trkpt>
      <trkpt lat="46.14413" lon="6.23483">
        <ele>624</ele>
      </trkpt>
      <trkpt lat="46.1443" lon="6.23406">
        <ele>625</ele>
      </trkpt>
      <trkpt lat="46.1443" lon="6.23359">
        <ele>625</ele>
      </trkpt>
      <trkpt lat="46.1437" lon="6.23335">
        <ele>627</ele>
      </trkpt>
      <trkpt lat="46.14269" lon="6.2331">
        <ele>630</ele>
      </trkpt>
      <trkpt lat="46.1422" lon="6.23312">
        <ele>636</ele>
      </trkpt>
      <trkpt lat="46.1419" lon="6.23305">
        <ele>637</ele>
      </trkpt>
      <trkpt lat="46.14152" lon="6.23284">
        <ele>642</ele>
      </trkpt>
      <trkpt lat="46.14077" lon="6.2325">
        <ele>648</ele>
      </trkpt>
      <trkpt lat="46.14039" lon="6.23228">
        <ele>653</ele>
      </trkpt>
      <trkpt lat="46.13979" lon="6.23252">
        <ele>658</ele>
      </trkpt>
      <trkpt lat="46.13953" lon="6.23258">
        <ele>659</ele>
      </trkpt>
      <trkpt lat="46.13918" lon="6.2328">
        <ele>660</ele>
      </trkpt>
      <trkpt lat="46.13889" lon="6.23297">
        <ele>665</ele>
      </trkpt>
      <trkpt lat="46.13884" lon="6.23267">
        <ele>665</ele>
      </trkpt>
      <trkpt lat="46.13838" lon="6.23204">
        <ele>665</ele>
      </trkpt>
      <trkpt lat="46.13765" lon="6.23172">
        <ele>671</ele>
      </trkpt>
      <trkpt lat="46.13636" lon="6.23142">
        <ele>674</ele>
      </trkpt>
      <trkpt lat="46.13618" lon="6.23131">
        <ele>674</ele>
      </trkpt>
      <trkpt lat="46.13596" lon="6.23131">
        <ele>674</ele>
      </trkpt>
      <trkpt lat="46.13563" lon="6.2311">
        <ele>677</ele>
      </trkpt>
      <trkpt lat="46.13509" lon="6.23069">
        <ele>681</ele>
      </trkpt>
      <trkpt lat="46.13432" lon="6.23011">
        <ele>689</ele>
      </trkpt>
      <trkpt lat="46.13374" lon="6.23016">
        <ele>697</ele>
      </trkpt>
      <trkpt lat="46.13315" lon="6.2302">
        <ele>708</ele>
      </trkpt>
      <trkpt lat="46.1327" lon="6.23031">
        <ele>712</ele>
      </trkpt>
      <trkpt lat="46.13209" lon="6.23005">
        <ele>723</ele>
      </trkpt>
      <trkpt lat="46.1316" lon="6.22994">
        <ele>730</ele>
      </trkpt>
      <trkpt lat="46.13081" lon="6.22964">
        <ele>729</ele>
      </trkpt>
      <trkpt lat="46.1304" lon="6.22936">
        <ele>729</ele>
      </trkpt>
      <trkpt lat="46.13023" lon="6.22926">
        <ele>729</ele>
      </trkpt>
      <trkpt lat="46.12992" lon="6.22943">
        <ele>727</ele>
      </trkpt>
      <trkpt lat="46.13002" lon="6.23003">
        <ele>723</ele>
      </trkpt>
      <trkpt lat="46.13034" lon="6.23044">
        <ele>719</ele>
      </trkpt>
      <trkpt lat="46.13053" lon="6.23084">
        <ele>713</ele>
      </trkpt>
      <trkpt lat="46.13051" lon="6.23129">
        <ele>710</ele>
      </trkpt>
      <trkpt lat="46.13035" lon="6.23198">
        <ele>701</ele>
      </trkpt>
      <trkpt lat="46.13032" lon="6.2328">
        <ele>691</ele>
      </trkpt>
      <trkpt lat="46.13037" lon="6.23391">
        <ele>675</ele>
      </trkpt>
      <trkpt lat="46.13045" lon="6.23477">
        <ele>662</ele>
      </trkpt>
      <trkpt lat="46.13044" lon="6.23509">
        <ele>655</ele>
      </trkpt>
      <trkpt lat="46.13005" lon="6.23554">
        <ele>654</ele>
      </trkpt>
      <trkpt lat="46.12996" lon="6.23576">
        <ele>653</ele>
      </trkpt>
      <trkpt lat="46.13044" lon="6.23576">
        <ele>652</ele>
      </trkpt>
      <trkpt lat="46.1304" lon="6.23608">
        <ele>644</ele>
      </trkpt>
      <trkpt lat="46.13031" lon="6.23646">
        <ele>642</ele>
      </trkpt>
      <trkpt lat="46.13032" lon="6.23677">
        <ele>635</ele>
      </trkpt>
      <trkpt lat="46.12962" lon="6.23666">
        <ele>643</ele>
      </trkpt>
      <trkpt lat="46.12934" lon="6.23659">
        <ele>643</ele>
      </trkpt>
      <trkpt lat="46.12883" lon="6.2367">
        <ele>639</ele>
      </trkpt>
      <trkpt lat="46.12824" lon="6.23661">
        <ele>642</ele>
      </trkpt>
      <trkpt lat="46.12787" lon="6.23661">
        <ele>642</ele>
      </trkpt>
      <trkpt lat="46.12745" lon="6.23638">
        <ele>643</ele>
      </trkpt>
      <trkpt lat="46.12708" lon="6.2364">
        <ele>645</ele>
      </trkpt>
      <trkpt lat="46.12641" lon="6.23722">
        <ele>647</ele>
      </trkpt>
      <trkpt lat="46.12604" lon="6.23773">
        <ele>646</ele>
      </trkpt>
      <trkpt lat="46.12549" lon="6.23831">
        <ele>651</ele>
      </trkpt>
      <trkpt lat="46.12513" lon="6.23891">
        <ele>653</ele>
      </trkpt>
      <trkpt lat="46.12482" lon="6.23925">
        <ele>661</ele>
      </trkpt>
      <trkpt lat="46.12448" lon="6.23955">
        <ele>666</ele>
      </trkpt>
      <trkpt lat="46.12388" lon="6.2399">
        <ele>673</ele>
      </trkpt>
      <trkpt lat="46.12378" lon="6.2393">
        <ele>674</ele>
      </trkpt>
      <trkpt lat="46.1236" lon="6.23902">
        <ele>679</ele>
      </trkpt>
      <trkpt lat="46.12314" lon="6.23904">
        <ele>683</ele>
      </trkpt>
      <trkpt lat="46.12277" lon="6.23921">
        <ele>678</ele>
      </trkpt>
      <trkpt lat="46.12247" lon="6.23921">
        <ele>678</ele>
      </trkpt>
      <trkpt lat="46.12207" lon="6.23885">
        <ele>682</ele>
      </trkpt>
      <trkpt lat="46.12183" lon="6.2384">
        <ele>686</ele>
      </trkpt>
      <trkpt lat="46.12107" lon="6.23816">
        <ele>683</ele>
      </trkpt>
      <trkpt lat="46.12018" lon="6.23749">
        <ele>683</ele>
      </trkpt>
      <trkpt lat="46.11926" lon="6.23692">
        <ele>685</ele>
      </trkpt>
      <trkpt lat="46.11811" lon="6.23623">
        <ele>689</ele>
      </trkpt>
      <trkpt lat="46.11659" lon="6.23561">
        <ele>692</ele>
      </trkpt>
      <trkpt lat="46.11677" lon="6.23608">
        <ele>686</ele>
      </trkpt>
      <trkpt lat="46.1168" lon="6.23653">
        <ele>684</ele>
      </trkpt>
      <trkpt lat="46.11677" lon="6.23704">
        <ele>679</ele>
      </trkpt>
      <trkpt lat="46.11674" lon="6.23771">
        <ele>674</ele>
      </trkpt>
      <trkpt lat="46.11673" lon="6.2382">
        <ele>672</ele>
      </trkpt>
      <trkpt lat="46.117" lon="6.23859">
        <ele>668</ele>
      </trkpt>
      <trkpt lat="46.11729" lon="6.23906">
        <ele>665</ele>
      </trkpt>
      <trkpt lat="46.11714" lon="6.23953">
        <ele>659</ele>
      </trkpt>
      <trkpt lat="46.11688" lon="6.23979">
        <ele>656</ele>
      </trkpt>
      <trkpt lat="46.11653" lon="6.23975">
        <ele>654</ele>
      </trkpt>
      <trkpt lat="46.1161" lon="6.23932">
        <ele>656</ele>
      </trkpt>
      <trkpt lat="46.11582" lon="6.2396">
        <ele>649</ele>
      </trkpt>
      <trkpt lat="46.11584" lon="6.24005">
        <ele>644</ele>
      </trkpt>
      <trkpt lat="46.11601" lon="6.24056">
        <ele>640</ele>
      </trkpt>
      <trkpt lat="46.11647" lon="6.24123">
        <ele>632</ele>
      </trkpt>
      <trkpt lat="46.11674" lon="6.2417">
        <ele>627</ele>
      </trkpt>
      <trkpt lat="46.11655" lon="6.24202">
        <ele>622</ele>
      </trkpt>
      <trkpt lat="46.11646" lon="6.24237">
        <ele>620</ele>
      </trkpt>
      <trkpt lat="46.11621" lon="6.24264">
        <ele>614</ele>
      </trkpt>
      <trkpt lat="46.11612" lon="6.2432">
        <ele>611</ele>
      </trkpt>
      <trkpt lat="46.11603" lon="6.24387">
        <ele>602</ele>
      </trkpt>
      <trkpt lat="46.11592" lon="6.24455">
        <ele>593</ele>
      </trkpt>
      <trkpt lat="46.11604" lon="6.245">
        <ele>589</ele>
      </trkpt>
      <trkpt lat="46.1163" lon="6.24548">
        <ele>589</ele>
      </trkpt>
      <trkpt lat="46.11643" lon="6.24567">
        <ele>588</ele>
      </trkpt>
      <trkpt lat="46.11661" lon="6.24582">
        <ele>584</ele>
      </trkpt>
      <trkpt lat="46.11708" lon="6.24565">
        <ele>584</ele>
      </trkpt>
      <trkpt lat="46.11746" lon="6.24541">
        <ele>583</ele>
      </trkpt>
      <trkpt lat="46.11804" lon="6.2455">
        <ele>585</ele>
      </trkpt>
      <trkpt lat="46.11833" lon="6.24524">
        <ele>588</ele>
      </trkpt>
      <trkpt lat="46.1186" lon="6.24531">
        <ele>588</ele>
      </trkpt>
      <trkpt lat="46.11894" lon="6.24518">
        <ele>590</ele>
      </trkpt>
      <trkpt lat="46.11938" lon="6.24543">
        <ele>597</ele>
      </trkpt>
      <trkpt lat="46.11991" lon="6.24561">
        <ele>601</ele>
      </trkpt>
      <trkpt lat="46.12042" lon="6.24554">
        <ele>611</ele>
      </trkpt>
      <trkpt lat="46.12122" lon="6.24522">
        <ele>621</ele>
      </trkpt>
      <trkpt lat="46.12141" lon="6.24558">
        <ele>620</ele>
      </trkpt>
      <trkpt lat="46.12165" lon="6.24505">
        <ele>626</ele>
      </trkpt>
      <trkpt lat="46.12198" lon="6.24462">
        <ele>631</ele>
      </trkpt>
      <trkpt lat="46.12265" lon="6.24453">
        <ele>637</ele>
      </trkpt>
      <trkpt lat="46.12309" lon="6.24477">
        <ele>640</ele>
      </trkpt>
      <trkpt lat="46.1237" lon="6.24468">
        <ele>645</ele>
      </trkpt>
      <trkpt lat="46.12454" lon="6.24447">
        <ele>648</ele>
      </trkpt>
      <trkpt lat="46.12525" lon="6.24443">
        <ele>649</ele>
      </trkpt>
      <trkpt lat="46.12512" lon="6.24507">
        <ele>640</ele>
      </trkpt>
      <trkpt lat="46.12552" lon="6.24556">
        <ele>636</ele>
      </trkpt>
      <trkpt lat="46.12562" lon="6.24612">
        <ele>627</ele>
      </trkpt>
      <trkpt lat="46.12574" lon="6.24661">
        <ele>623</ele>
      </trkpt>
      <trkpt lat="46.12599" lon="6.24681">
        <ele>620</ele>
      </trkpt>
      <trkpt lat="46.12608" lon="6.24747">
        <ele>618</ele>
      </trkpt>
      <trkpt lat="46.12608" lon="6.24835">
        <ele>608</ele>
      </trkpt>
      <trkpt lat="46.12608" lon="6.24906">
        <ele>605</ele>
      </trkpt>
      <trkpt lat="46.12596" lon="6.24936">
        <ele>601</ele>
      </trkpt>
      <trkpt lat="46.12623" lon="6.24975">
        <ele>600</ele>
      </trkpt>
      <trkpt lat="46.12657" lon="6.24981">
        <ele>600</ele>
      </trkpt>
      <trkpt lat="46.12718" lon="6.24973">
        <ele>604</ele>
      </trkpt>
      <trkpt lat="46.12708" lon="6.2508">
        <ele>596</ele>
      </trkpt>
      <trkpt lat="46.12689" lon="6.25176">
        <ele>585</ele>
      </trkpt>
      <trkpt lat="46.12654" lon="6.25256">
        <ele>574</ele>
      </trkpt>
      <trkpt lat="46.12711" lon="6.25284">
        <ele>575</ele>
      </trkpt>
      <trkpt lat="46.12738" lon="6.25309">
        <ele>573</ele>
      </trkpt>
      <trkpt lat="46.12745" lon="6.25335">
        <ele>569</ele>
      </trkpt>
      <trkpt lat="46.1284" lon="6.25346">
        <ele>570</ele>
      </trkpt>
      <trkpt lat="46.12871" lon="6.25357">
        <ele>568</ele>
      </trkpt>
      <trkpt lat="46.12974" lon="6.25488">
        <ele>552</ele>
      </trkpt>
      <trkpt lat="46.13011" lon="6.25518">
        <ele>545</ele>
      </trkpt>
      <trkpt lat="46.13083" lon="6.25539">
        <ele>541</ele>
      </trkpt>
      <trkpt lat="46.13158" lon="6.25584">
        <ele>536</ele>
      </trkpt>
      <trkpt lat="46.13206" lon="6.25597">
        <ele>534</ele>
      </trkpt>
      <trkpt lat="46.13272" lon="6.25584">
        <ele>533</ele>
      </trkpt>
      <trkpt lat="46.13329" lon="6.25498">
        <ele>542</ele>
      </trkpt>
      <trkpt lat="46.13392" lon="6.25425">
        <ele>545</ele>
      </trkpt>
      <trkpt lat="46.13395" lon="6.25391">
        <ele>552</ele>
      </trkpt>
      <trkpt lat="46.13398" lon="6.25352">
        <ele>554</ele>
      </trkpt>
      <trkpt lat="46.13411" lon="6.25297">
        <ele>561</ele>
      </trkpt>
      <trkpt lat="46.13401" lon="6.25239">
        <ele>566</ele>
      </trkpt>
      <trkpt lat="46.13379" lon="6.25146">
        <ele>574</ele>
      </trkpt>
      <trkpt lat="46.13376" lon="6.25093">
        <ele>576</ele>
      </trkpt>
      <trkpt lat="46.13379" lon="6.2503">
        <ele>582</ele>
      </trkpt>
      <trkpt lat="46.13408" lon="6.24966">
        <ele>586</ele>
      </trkpt>
      <trkpt lat="46.13426" lon="6.24915">
        <ele>586</ele>
      </trkpt>
      <trkpt lat="46.13396" lon="6.24861">
        <ele>591</ele>
      </trkpt>
    </trkseg>
  </trk>
</gpx>