<?xml version="1.0" encoding="UTF-8" standalone="no" ?>
<gpx xmlns="http://www.topografix.com/GPX/1/1" xmlns:xsi="http://www.w3.org/2001/XMLSchema-instance" xsi:schemaLocation="http://www.topografix.com/GPX/1/1 http://www.topografix.com/GPX/1/1/gpx.xsd" version="1.1" creator="VisuGPX - https://www.visugpx.com">
  <metadata>
    <name>Chemin Faisant à Cenon, parc du Cypressat</name>
    <desc><![CDATA[Des sentiers inattendus dans la ville de Cenon.
De larges et beaux points de vues sur la ville de Bordeaux.]]></desc>
  </metadata>
  <trk>
    <name><![CDATA[2016-04-14 11:30:55]]></name>
    <trkseg>
      <trkpt lat="44.84946" lon="-0.5292">
        <ele>72.72</ele>
        <time>2016-04-14T07:02:15Z</time>
      </trkpt>
      <trkpt lat="44.84936" lon="-0.52901">
        <ele>70.31</ele>
        <time>2016-04-14T07:02:32Z</time>
      </trkpt>
      <trkpt lat="44.84935" lon="-0.52899">
        <ele>66.95</ele>
        <time>2016-04-14T07:02:43Z</time>
      </trkpt>
      <trkpt lat="44.84934" lon="-0.52896">
        <ele>64.55</ele>
        <time>2016-04-14T07:03:01Z</time>
      </trkpt>
      <trkpt lat="44.84943" lon="-0.52897">
        <ele>61.18</ele>
        <time>2016-04-14T07:03:23Z</time>
      </trkpt>
      <trkpt lat="44.84943" lon="-0.52894">
        <ele>61.18</ele>
        <time>2016-04-14T07:03:45Z</time>
      </trkpt>
      <trkpt lat="44.84944" lon="-0.52894">
        <ele>60.22</ele>
        <time>2016-04-14T07:03:57Z</time>
      </trkpt>
      <trkpt lat="44.84944" lon="-0.52883">
        <ele>61.66</ele>
        <time>2016-04-14T07:04:11Z</time>
      </trkpt>
      <trkpt lat="44.84943" lon="-0.52883">
        <ele>60.7</ele>
        <time>2016-04-14T07:04:28Z</time>
      </trkpt>
      <trkpt lat="44.84941" lon="-0.52875">
        <ele>60.7</ele>
        <time>2016-04-14T07:04:42Z</time>
      </trkpt>
      <trkpt lat="44.84941" lon="-0.52873">
        <ele>59.74</ele>
        <time>2016-04-14T07:05:01Z</time>
      </trkpt>
      <trkpt lat="44.84941" lon="-0.52873">
        <ele>61.18</ele>
        <time>2016-04-14T07:05:12Z</time>
      </trkpt>
      <trkpt lat="44.84941" lon="-0.52873">
        <ele>60.22</ele>
        <time>2016-04-14T07:05:25Z</time>
      </trkpt>
      <trkpt lat="44.84942" lon="-0.52871">
        <ele>60.22</ele>
        <time>2016-04-14T07:05:37Z</time>
      </trkpt>
      <trkpt lat="44.84945" lon="-0.5287">
        <ele>60.22</ele>
        <time>2016-04-14T07:05:51Z</time>
      </trkpt>
      <trkpt lat="44.84945" lon="-0.52869">
        <ele>61.66</ele>
        <time>2016-04-14T07:05:59Z</time>
      </trkpt>
      <trkpt lat="44.84945" lon="-0.5287">
        <ele>61.66</ele>
        <time>2016-04-14T07:06:16Z</time>
      </trkpt>
      <trkpt lat="44.84942" lon="-0.52874">
        <ele>61.66</ele>
        <time>2016-04-14T07:06:23Z</time>
      </trkpt>
      <trkpt lat="44.8494" lon="-0.52877">
        <ele>61.66</ele>
        <time>2016-04-14T07:06:26Z</time>
      </trkpt>
      <trkpt lat="44.84926" lon="-0.52883">
        <ele>61.66</ele>
        <time>2016-04-14T07:06:42Z</time>
      </trkpt>
      <trkpt lat="44.84922" lon="-0.52886">
        <ele>61.66</ele>
        <time>2016-04-14T07:06:48Z</time>
      </trkpt>
      <trkpt lat="44.84914" lon="-0.52904">
        <ele>60.7</ele>
        <time>2016-04-14T07:07:03Z</time>
      </trkpt>
      <trkpt lat="44.84903" lon="-0.52911">
        <ele>60.7</ele>
        <time>2016-04-14T07:07:16Z</time>
      </trkpt>
      <trkpt lat="44.84885" lon="-0.52902">
        <ele>60.7</ele>
        <time>2016-04-14T07:07:35Z</time>
      </trkpt>
      <trkpt lat="44.84885" lon="-0.52901">
        <ele>60.7</ele>
        <time>2016-04-14T07:07:36Z</time>
      </trkpt>
      <trkpt lat="44.84878" lon="-0.52875">
        <ele>60.7</ele>
        <time>2016-04-14T07:07:54Z</time>
      </trkpt>
      <trkpt lat="44.84877" lon="-0.52873">
        <ele>60.7</ele>
        <time>2016-04-14T07:07:56Z</time>
      </trkpt>
      <trkpt lat="44.84857" lon="-0.52869">
        <ele>62.14</ele>
        <time>2016-04-14T07:08:14Z</time>
      </trkpt>
      <trkpt lat="44.84843" lon="-0.52871">
        <ele>62.14</ele>
        <time>2016-04-14T07:08:26Z</time>
      </trkpt>
      <trkpt lat="44.8484" lon="-0.52873">
        <ele>62.14</ele>
        <time>2016-04-14T07:08:29Z</time>
      </trkpt>
      <trkpt lat="44.8482" lon="-0.52876">
        <ele>62.62</ele>
        <time>2016-04-14T07:08:46Z</time>
      </trkpt>
      <trkpt lat="44.84799" lon="-0.52876">
        <ele>62.62</ele>
        <time>2016-04-14T07:09:04Z</time>
      </trkpt>
      <trkpt lat="44.84779" lon="-0.52873">
        <ele>63.1</ele>
        <time>2016-04-14T07:09:21Z</time>
      </trkpt>
      <trkpt lat="44.8477" lon="-0.52871">
        <ele>63.58</ele>
        <time>2016-04-14T07:09:29Z</time>
      </trkpt>
      <trkpt lat="44.84746" lon="-0.52869">
        <ele>64.07</ele>
        <time>2016-04-14T07:09:49Z</time>
      </trkpt>
      <trkpt lat="44.84745" lon="-0.5287">
        <ele>64.07</ele>
        <time>2016-04-14T07:09:50Z</time>
      </trkpt>
      <trkpt lat="44.84735" lon="-0.52866">
        <ele>64.07</ele>
        <time>2016-04-14T07:10:01Z</time>
      </trkpt>
      <trkpt lat="44.84718" lon="-0.52862">
        <ele>62.14</ele>
        <time>2016-04-14T07:10:17Z</time>
      </trkpt>
      <trkpt lat="44.84716" lon="-0.52859">
        <ele>62.14</ele>
        <time>2016-04-14T07:10:39Z</time>
      </trkpt>
      <trkpt lat="44.84704" lon="-0.52844">
        <ele>61.18</ele>
        <time>2016-04-14T07:10:56Z</time>
      </trkpt>
      <trkpt lat="44.84695" lon="-0.52842">
        <ele>60.22</ele>
        <time>2016-04-14T07:11:09Z</time>
      </trkpt>
      <trkpt lat="44.84678" lon="-0.52843">
        <ele>59.74</ele>
        <time>2016-04-14T07:11:25Z</time>
      </trkpt>
      <trkpt lat="44.84676" lon="-0.52842">
        <ele>59.74</ele>
        <time>2016-04-14T07:11:27Z</time>
      </trkpt>
      <trkpt lat="44.84674" lon="-0.52843">
        <ele>59.26</ele>
        <time>2016-04-14T07:11:29Z</time>
      </trkpt>
      <trkpt lat="44.84651" lon="-0.52842">
        <ele>58.3</ele>
        <time>2016-04-14T07:11:48Z</time>
      </trkpt>
      <trkpt lat="44.84651" lon="-0.52842">
        <ele>58.3</ele>
        <time>2016-04-14T07:11:49Z</time>
      </trkpt>
      <trkpt lat="44.84648" lon="-0.52841">
        <ele>58.3</ele>
        <time>2016-04-14T07:11:51Z</time>
      </trkpt>
      <trkpt lat="44.84637" lon="-0.52847">
        <ele>57.82</ele>
        <time>2016-04-14T07:12:08Z</time>
      </trkpt>
      <trkpt lat="44.84636" lon="-0.52849">
        <ele>57.82</ele>
        <time>2016-04-14T07:12:10Z</time>
      </trkpt>
      <trkpt lat="44.84635" lon="-0.52861">
        <ele>57.82</ele>
        <time>2016-04-14T07:12:25Z</time>
      </trkpt>
      <trkpt lat="44.8463" lon="-0.52866">
        <ele>57.82</ele>
        <time>2016-04-14T07:12:34Z</time>
      </trkpt>
      <trkpt lat="44.84624" lon="-0.52867">
        <ele>57.82</ele>
        <time>2016-04-14T07:12:40Z</time>
      </trkpt>
      <trkpt lat="44.84609" lon="-0.52865">
        <ele>56.86</ele>
        <time>2016-04-14T07:12:54Z</time>
      </trkpt>
      <trkpt lat="44.84588" lon="-0.52863">
        <ele>56.37</ele>
        <time>2016-04-14T07:13:12Z</time>
      </trkpt>
      <trkpt lat="44.8457" lon="-0.52864">
        <ele>55.89</ele>
        <time>2016-04-14T07:13:28Z</time>
      </trkpt>
      <trkpt lat="44.84568" lon="-0.52864">
        <ele>55.41</ele>
        <time>2016-04-14T07:13:30Z</time>
      </trkpt>
      <trkpt lat="44.84559" lon="-0.52864">
        <ele>55.41</ele>
        <time>2016-04-14T07:13:37Z</time>
      </trkpt>
      <trkpt lat="44.84555" lon="-0.52864">
        <ele>54.93</ele>
        <time>2016-04-14T07:13:41Z</time>
      </trkpt>
      <trkpt lat="44.84534" lon="-0.52868">
        <ele>54.45</ele>
        <time>2016-04-14T07:13:59Z</time>
      </trkpt>
      <trkpt lat="44.84516" lon="-0.52873">
        <ele>53.49</ele>
        <time>2016-04-14T07:14:16Z</time>
      </trkpt>
      <trkpt lat="44.84503" lon="-0.52877">
        <ele>52.53</ele>
        <time>2016-04-14T07:14:31Z</time>
      </trkpt>
      <trkpt lat="44.84497" lon="-0.5288">
        <ele>52.05</ele>
        <time>2016-04-14T07:14:37Z</time>
      </trkpt>
      <trkpt lat="44.84485" lon="-0.52894">
        <ele>51.57</ele>
        <time>2016-04-14T07:14:54Z</time>
      </trkpt>
      <trkpt lat="44.8448" lon="-0.52905">
        <ele>53.01</ele>
        <time>2016-04-14T07:15:05Z</time>
      </trkpt>
      <trkpt lat="44.84475" lon="-0.52927">
        <ele>53.49</ele>
        <time>2016-04-14T07:15:22Z</time>
      </trkpt>
      <trkpt lat="44.84478" lon="-0.52945">
        <ele>54.45</ele>
        <time>2016-04-14T07:15:37Z</time>
      </trkpt>
      <trkpt lat="44.84483" lon="-0.52968">
        <ele>55.41</ele>
        <time>2016-04-14T07:15:52Z</time>
      </trkpt>
      <trkpt lat="44.84496" lon="-0.52996">
        <ele>56.37</ele>
        <time>2016-04-14T07:16:12Z</time>
      </trkpt>
      <trkpt lat="44.84506" lon="-0.53021">
        <ele>57.34</ele>
        <time>2016-04-14T07:16:28Z</time>
      </trkpt>
      <trkpt lat="44.84504" lon="-0.53029">
        <ele>57.34</ele>
        <time>2016-04-14T07:16:47Z</time>
      </trkpt>
      <trkpt lat="44.84507" lon="-0.53026">
        <ele>57.82</ele>
        <time>2016-04-14T07:17:15Z</time>
      </trkpt>
      <trkpt lat="44.84509" lon="-0.53027">
        <ele>57.82</ele>
        <time>2016-04-14T07:17:32Z</time>
      </trkpt>
      <trkpt lat="44.84517" lon="-0.53032">
        <ele>57.82</ele>
        <time>2016-04-14T07:17:44Z</time>
      </trkpt>
      <trkpt lat="44.84528" lon="-0.53039">
        <ele>56.86</ele>
        <time>2016-04-14T07:17:57Z</time>
      </trkpt>
      <trkpt lat="44.84532" lon="-0.53044">
        <ele>56.86</ele>
        <time>2016-04-14T07:18:14Z</time>
      </trkpt>
      <trkpt lat="44.84534" lon="-0.53046">
        <ele>56.86</ele>
        <time>2016-04-14T07:18:30Z</time>
      </trkpt>
      <trkpt lat="44.84535" lon="-0.53048">
        <ele>56.86</ele>
        <time>2016-04-14T07:18:48Z</time>
      </trkpt>
      <trkpt lat="44.84536" lon="-0.53048">
        <ele>57.34</ele>
        <time>2016-04-14T07:19:09Z</time>
      </trkpt>
      <trkpt lat="44.84538" lon="-0.53045">
        <ele>57.34</ele>
        <time>2016-04-14T07:19:30Z</time>
      </trkpt>
      <trkpt lat="44.84547" lon="-0.53052">
        <ele>57.34</ele>
        <time>2016-04-14T07:19:44Z</time>
      </trkpt>
      <trkpt lat="44.84555" lon="-0.53061">
        <ele>57.34</ele>
        <time>2016-04-14T07:19:57Z</time>
      </trkpt>
      <trkpt lat="44.84564" lon="-0.53062">
        <ele>56.86</ele>
        <time>2016-04-14T07:20:10Z</time>
      </trkpt>
      <trkpt lat="44.84567" lon="-0.53062">
        <ele>56.86</ele>
        <time>2016-04-14T07:20:13Z</time>
      </trkpt>
      <trkpt lat="44.84578" lon="-0.53059">
        <ele>56.37</ele>
        <time>2016-04-14T07:20:24Z</time>
      </trkpt>
      <trkpt lat="44.8458" lon="-0.5306">
        <ele>56.37</ele>
        <time>2016-04-14T07:20:26Z</time>
      </trkpt>
      <trkpt lat="44.84587" lon="-0.53061">
        <ele>55.89</ele>
        <time>2016-04-14T07:20:33Z</time>
      </trkpt>
      <trkpt lat="44.84593" lon="-0.53061">
        <ele>55.41</ele>
        <time>2016-04-14T07:20:39Z</time>
      </trkpt>
      <trkpt lat="44.84611" lon="-0.53057">
        <ele>54.45</ele>
        <time>2016-04-14T07:20:54Z</time>
      </trkpt>
      <trkpt lat="44.84621" lon="-0.53056">
        <ele>54.45</ele>
        <time>2016-04-14T07:21:04Z</time>
      </trkpt>
      <trkpt lat="44.84629" lon="-0.53061">
        <ele>53.49</ele>
        <time>2016-04-14T07:21:14Z</time>
      </trkpt>
      <trkpt lat="44.84628" lon="-0.53072">
        <ele>52.53</ele>
        <time>2016-04-14T07:21:25Z</time>
      </trkpt>
      <trkpt lat="44.8464" lon="-0.53076">
        <ele>51.57</ele>
        <time>2016-04-14T07:21:38Z</time>
      </trkpt>
      <trkpt lat="44.84645" lon="-0.53083">
        <ele>51.57</ele>
        <time>2016-04-14T07:21:46Z</time>
      </trkpt>
      <trkpt lat="44.8465" lon="-0.53088">
        <ele>51.57</ele>
        <time>2016-04-14T07:21:54Z</time>
      </trkpt>
      <trkpt lat="44.84653" lon="-0.53091">
        <ele>50.61</ele>
        <time>2016-04-14T07:21:58Z</time>
      </trkpt>
      <trkpt lat="44.84666" lon="-0.53104">
        <ele>51.09</ele>
        <time>2016-04-14T07:22:12Z</time>
      </trkpt>
      <trkpt lat="44.84676" lon="-0.53129">
        <ele>49.65</ele>
        <time>2016-04-14T07:22:30Z</time>
      </trkpt>
      <trkpt lat="44.84677" lon="-0.53151">
        <ele>49.16</ele>
        <time>2016-04-14T07:22:45Z</time>
      </trkpt>
      <trkpt lat="44.84678" lon="-0.53165">
        <ele>49.16</ele>
        <time>2016-04-14T07:22:58Z</time>
      </trkpt>
      <trkpt lat="44.84684" lon="-0.53177">
        <ele>49.16</ele>
        <time>2016-04-14T07:23:08Z</time>
      </trkpt>
      <trkpt lat="44.847" lon="-0.53191">
        <ele>49.16</ele>
        <time>2016-04-14T07:23:25Z</time>
      </trkpt>
      <trkpt lat="44.8472" lon="-0.53197">
        <ele>48.68</ele>
        <time>2016-04-14T07:23:43Z</time>
      </trkpt>
      <trkpt lat="44.84728" lon="-0.53198">
        <ele>48.68</ele>
        <time>2016-04-14T07:23:51Z</time>
      </trkpt>
      <trkpt lat="44.84736" lon="-0.53195">
        <ele>48.68</ele>
        <time>2016-04-14T07:23:58Z</time>
      </trkpt>
      <trkpt lat="44.84751" lon="-0.53177">
        <ele>48.68</ele>
        <time>2016-04-14T07:24:16Z</time>
      </trkpt>
      <trkpt lat="44.84755" lon="-0.53168">
        <ele>48.2</ele>
        <time>2016-04-14T07:24:23Z</time>
      </trkpt>
      <trkpt lat="44.84767" lon="-0.53159">
        <ele>47.24</ele>
        <time>2016-04-14T07:24:39Z</time>
      </trkpt>
      <trkpt lat="44.84787" lon="-0.53161">
        <ele>46.28</ele>
        <time>2016-04-14T07:24:56Z</time>
      </trkpt>
      <trkpt lat="44.848" lon="-0.53156">
        <ele>45.8</ele>
        <time>2016-04-14T07:25:11Z</time>
      </trkpt>
      <trkpt lat="44.84814" lon="-0.53153">
        <ele>45.32</ele>
        <time>2016-04-14T07:25:26Z</time>
      </trkpt>
      <trkpt lat="44.84828" lon="-0.53156">
        <ele>44.84</ele>
        <time>2016-04-14T07:25:43Z</time>
      </trkpt>
      <trkpt lat="44.84831" lon="-0.53163">
        <ele>44.36</ele>
        <time>2016-04-14T07:25:59Z</time>
      </trkpt>
      <trkpt lat="44.84827" lon="-0.53164">
        <ele>43.88</ele>
        <time>2016-04-14T07:26:05Z</time>
      </trkpt>
      <trkpt lat="44.84814" lon="-0.53172">
        <ele>43.4</ele>
        <time>2016-04-14T07:26:20Z</time>
      </trkpt>
      <trkpt lat="44.84803" lon="-0.53176">
        <ele>42.44</ele>
        <time>2016-04-14T07:26:33Z</time>
      </trkpt>
      <trkpt lat="44.84787" lon="-0.53177">
        <ele>42.44</ele>
        <time>2016-04-14T07:26:51Z</time>
      </trkpt>
      <trkpt lat="44.84786" lon="-0.53183">
        <ele>41.95</ele>
        <time>2016-04-14T07:27:04Z</time>
      </trkpt>
      <trkpt lat="44.84783" lon="-0.53183">
        <ele>41.95</ele>
        <time>2016-04-14T07:27:19Z</time>
      </trkpt>
      <trkpt lat="44.84794" lon="-0.53184">
        <ele>40.99</ele>
        <time>2016-04-14T07:27:33Z</time>
      </trkpt>
      <trkpt lat="44.84807" lon="-0.53184">
        <ele>40.51</ele>
        <time>2016-04-14T07:27:48Z</time>
      </trkpt>
      <trkpt lat="44.8482" lon="-0.5319">
        <ele>39.55</ele>
        <time>2016-04-14T07:28:04Z</time>
      </trkpt>
      <trkpt lat="44.84834" lon="-0.53192">
        <ele>39.07</ele>
        <time>2016-04-14T07:28:22Z</time>
      </trkpt>
      <trkpt lat="44.84845" lon="-0.53193">
        <ele>38.59</ele>
        <time>2016-04-14T07:28:37Z</time>
      </trkpt>
      <trkpt lat="44.84848" lon="-0.53193">
        <ele>38.59</ele>
        <time>2016-04-14T07:28:55Z</time>
      </trkpt>
      <trkpt lat="44.84854" lon="-0.53192">
        <ele>38.59</ele>
        <time>2016-04-14T07:29:08Z</time>
      </trkpt>
      <trkpt lat="44.84866" lon="-0.53188">
        <ele>38.59</ele>
        <time>2016-04-14T07:29:25Z</time>
      </trkpt>
      <trkpt lat="44.84869" lon="-0.53191">
        <ele>38.11</ele>
        <time>2016-04-14T07:29:37Z</time>
      </trkpt>
      <trkpt lat="44.8487" lon="-0.53191">
        <ele>37.63</ele>
        <time>2016-04-14T07:29:50Z</time>
      </trkpt>
      <trkpt lat="44.84869" lon="-0.53199">
        <ele>37.63</ele>
        <time>2016-04-14T07:30:19Z</time>
      </trkpt>
      <trkpt lat="44.84869" lon="-0.53205">
        <ele>37.63</ele>
        <time>2016-04-14T07:30:42Z</time>
      </trkpt>
      <trkpt lat="44.84872" lon="-0.53202">
        <ele>37.63</ele>
        <time>2016-04-14T07:30:57Z</time>
      </trkpt>
      <trkpt lat="44.84876" lon="-0.53199">
        <ele>38.11</ele>
        <time>2016-04-14T07:31:08Z</time>
      </trkpt>
      <trkpt lat="44.84885" lon="-0.53194">
        <ele>38.11</ele>
        <time>2016-04-14T07:31:21Z</time>
      </trkpt>
      <trkpt lat="44.84896" lon="-0.53194">
        <ele>39.55</ele>
        <time>2016-04-14T07:31:37Z</time>
      </trkpt>
      <trkpt lat="44.84898" lon="-0.53193">
        <ele>39.55</ele>
        <time>2016-04-14T07:31:40Z</time>
      </trkpt>
      <trkpt lat="44.84912" lon="-0.5319">
        <ele>41.47</ele>
        <time>2016-04-14T07:31:56Z</time>
      </trkpt>
      <trkpt lat="44.8492" lon="-0.5319">
        <ele>42.44</ele>
        <time>2016-04-14T07:32:08Z</time>
      </trkpt>
      <trkpt lat="44.84931" lon="-0.53186">
        <ele>43.88</ele>
        <time>2016-04-14T07:32:22Z</time>
      </trkpt>
      <trkpt lat="44.84938" lon="-0.53182">
        <ele>44.36</ele>
        <time>2016-04-14T07:32:30Z</time>
      </trkpt>
      <trkpt lat="44.84955" lon="-0.53175">
        <ele>45.32</ele>
        <time>2016-04-14T07:32:48Z</time>
      </trkpt>
      <trkpt lat="44.84969" lon="-0.53166">
        <ele>46.28</ele>
        <time>2016-04-14T07:33:04Z</time>
      </trkpt>
      <trkpt lat="44.84987" lon="-0.53155">
        <ele>47.72</ele>
        <time>2016-04-14T07:33:22Z</time>
      </trkpt>
      <trkpt lat="44.84999" lon="-0.53146">
        <ele>48.68</ele>
        <time>2016-04-14T07:33:38Z</time>
      </trkpt>
      <trkpt lat="44.85005" lon="-0.53142">
        <ele>49.16</ele>
        <time>2016-04-14T07:33:53Z</time>
      </trkpt>
      <trkpt lat="44.85004" lon="-0.53142">
        <ele>49.16</ele>
        <time>2016-04-14T07:34:12Z</time>
      </trkpt>
      <trkpt lat="44.85005" lon="-0.53141">
        <ele>49.16</ele>
        <time>2016-04-14T07:34:28Z</time>
      </trkpt>
      <trkpt lat="44.85004" lon="-0.5314">
        <ele>49.16</ele>
        <time>2016-04-14T07:34:49Z</time>
      </trkpt>
      <trkpt lat="44.85005" lon="-0.5314">
        <ele>49.16</ele>
        <time>2016-04-14T07:35:04Z</time>
      </trkpt>
      <trkpt lat="44.85004" lon="-0.53139">
        <ele>49.16</ele>
        <time>2016-04-14T07:35:29Z</time>
      </trkpt>
      <trkpt lat="44.85005" lon="-0.5314">
        <ele>49.16</ele>
        <time>2016-04-14T07:35:49Z</time>
      </trkpt>
      <trkpt lat="44.85005" lon="-0.5314">
        <ele>49.16</ele>
        <time>2016-04-14T07:36:00Z</time>
      </trkpt>
      <trkpt lat="44.85009" lon="-0.53137">
        <ele>49.16</ele>
        <time>2016-04-14T07:36:18Z</time>
      </trkpt>
      <trkpt lat="44.85011" lon="-0.53133">
        <ele>49.16</ele>
        <time>2016-04-14T07:36:27Z</time>
      </trkpt>
      <trkpt lat="44.85015" lon="-0.53123">
        <ele>49.65</ele>
        <time>2016-04-14T07:36:38Z</time>
      </trkpt>
      <trkpt lat="44.85018" lon="-0.53102">
        <ele>50.61</ele>
        <time>2016-04-14T07:36:54Z</time>
      </trkpt>
      <trkpt lat="44.85022" lon="-0.53078">
        <ele>52.53</ele>
        <time>2016-04-14T07:37:12Z</time>
      </trkpt>
      <trkpt lat="44.85023" lon="-0.53053">
        <ele>53.97</ele>
        <time>2016-04-14T07:37:29Z</time>
      </trkpt>
      <trkpt lat="44.85025" lon="-0.53038">
        <ele>55.41</ele>
        <time>2016-04-14T07:37:42Z</time>
      </trkpt>
      <trkpt lat="44.85032" lon="-0.53015">
        <ele>56.86</ele>
        <time>2016-04-14T07:37:59Z</time>
      </trkpt>
      <trkpt lat="44.85038" lon="-0.52998">
        <ele>56.86</ele>
        <time>2016-04-14T07:38:12Z</time>
      </trkpt>
      <trkpt lat="44.85045" lon="-0.52978">
        <ele>58.3</ele>
        <time>2016-04-14T07:38:26Z</time>
      </trkpt>
      <trkpt lat="44.85051" lon="-0.52965">
        <ele>59.26</ele>
        <time>2016-04-14T07:38:39Z</time>
      </trkpt>
      <trkpt lat="44.85057" lon="-0.52949">
        <ele>60.7</ele>
        <time>2016-04-14T07:38:52Z</time>
      </trkpt>
      <trkpt lat="44.85063" lon="-0.52935">
        <ele>61.66</ele>
        <time>2016-04-14T07:39:04Z</time>
      </trkpt>
      <trkpt lat="44.8507" lon="-0.52927">
        <ele>62.62</ele>
        <time>2016-04-14T07:39:18Z</time>
      </trkpt>
      <trkpt lat="44.85078" lon="-0.52929">
        <ele>63.1</ele>
        <time>2016-04-14T07:39:28Z</time>
      </trkpt>
      <trkpt lat="44.85089" lon="-0.5293">
        <ele>64.07</ele>
        <time>2016-04-14T07:39:42Z</time>
      </trkpt>
      <trkpt lat="44.85101" lon="-0.52934">
        <ele>64.07</ele>
        <time>2016-04-14T07:39:57Z</time>
      </trkpt>
      <trkpt lat="44.85102" lon="-0.52934">
        <ele>64.07</ele>
        <time>2016-04-14T07:40:12Z</time>
      </trkpt>
      <trkpt lat="44.85104" lon="-0.52937">
        <ele>63.1</ele>
        <time>2016-04-14T07:40:45Z</time>
      </trkpt>
      <trkpt lat="44.85107" lon="-0.52938">
        <ele>63.1</ele>
        <time>2016-04-14T07:41:04Z</time>
      </trkpt>
      <trkpt lat="44.85108" lon="-0.52938">
        <ele>63.1</ele>
        <time>2016-04-14T07:41:23Z</time>
      </trkpt>
      <trkpt lat="44.8511" lon="-0.52937">
        <ele>62.62</ele>
        <time>2016-04-14T07:41:57Z</time>
      </trkpt>
      <trkpt lat="44.85109" lon="-0.52937">
        <ele>62.62</ele>
        <time>2016-04-14T07:42:19Z</time>
      </trkpt>
      <trkpt lat="44.8511" lon="-0.52937">
        <ele>62.62</ele>
        <time>2016-04-14T07:42:36Z</time>
      </trkpt>
      <trkpt lat="44.85108" lon="-0.52938">
        <ele>62.62</ele>
        <time>2016-04-14T07:42:48Z</time>
      </trkpt>
      <trkpt lat="44.85108" lon="-0.52936">
        <ele>62.62</ele>
        <time>2016-04-14T07:43:04Z</time>
      </trkpt>
      <trkpt lat="44.85106" lon="-0.52933">
        <ele>62.62</ele>
        <time>2016-04-14T07:43:29Z</time>
      </trkpt>
      <trkpt lat="44.85108" lon="-0.52934">
        <ele>62.62</ele>
        <time>2016-04-14T07:43:45Z</time>
      </trkpt>
      <trkpt lat="44.85109" lon="-0.52932">
        <ele>62.62</ele>
        <time>2016-04-14T07:44:07Z</time>
      </trkpt>
      <trkpt lat="44.8511" lon="-0.52933">
        <ele>62.62</ele>
        <time>2016-04-14T07:44:22Z</time>
      </trkpt>
      <trkpt lat="44.8511" lon="-0.52934">
        <ele>64.07</ele>
        <time>2016-04-14T07:44:41Z</time>
      </trkpt>
      <trkpt lat="44.8511" lon="-0.52934">
        <ele>64.07</ele>
        <time>2016-04-14T07:44:42Z</time>
      </trkpt>
      <trkpt lat="44.85108" lon="-0.52935">
        <ele>64.07</ele>
        <time>2016-04-14T07:44:53Z</time>
      </trkpt>
      <trkpt lat="44.85113" lon="-0.52935">
        <ele>62.62</ele>
        <time>2016-04-14T07:45:11Z</time>
      </trkpt>
      <trkpt lat="44.85113" lon="-0.52935">
        <ele>62.62</ele>
        <time>2016-04-14T07:45:12Z</time>
      </trkpt>
      <trkpt lat="44.85117" lon="-0.52936">
        <ele>62.62</ele>
        <time>2016-04-14T07:45:25Z</time>
      </trkpt>
      <trkpt lat="44.8512" lon="-0.52934">
        <ele>62.14</ele>
        <time>2016-04-14T07:45:39Z</time>
      </trkpt>
      <trkpt lat="44.8512" lon="-0.52925">
        <ele>62.14</ele>
        <time>2016-04-14T07:46:07Z</time>
      </trkpt>
      <trkpt lat="44.85122" lon="-0.52925">
        <ele>62.14</ele>
        <time>2016-04-14T07:46:24Z</time>
      </trkpt>
      <trkpt lat="44.85126" lon="-0.52933">
        <ele>62.14</ele>
        <time>2016-04-14T07:46:45Z</time>
      </trkpt>
      <trkpt lat="44.85127" lon="-0.5293">
        <ele>62.14</ele>
        <time>2016-04-14T07:47:09Z</time>
      </trkpt>
      <trkpt lat="44.85127" lon="-0.52929">
        <ele>63.58</ele>
        <time>2016-04-14T07:47:17Z</time>
      </trkpt>
      <trkpt lat="44.85128" lon="-0.5293">
        <ele>63.1</ele>
        <time>2016-04-14T07:47:27Z</time>
      </trkpt>
      <trkpt lat="44.85131" lon="-0.52933">
        <ele>63.1</ele>
        <time>2016-04-14T07:47:44Z</time>
      </trkpt>
      <trkpt lat="44.8514" lon="-0.5293">
        <ele>62.62</ele>
        <time>2016-04-14T07:47:59Z</time>
      </trkpt>
      <trkpt lat="44.85147" lon="-0.52925">
        <ele>62.62</ele>
        <time>2016-04-14T07:48:14Z</time>
      </trkpt>
      <trkpt lat="44.8515" lon="-0.52918">
        <ele>62.62</ele>
        <time>2016-04-14T07:48:26Z</time>
      </trkpt>
      <trkpt lat="44.85155" lon="-0.52904">
        <ele>62.62</ele>
        <time>2016-04-14T07:48:40Z</time>
      </trkpt>
      <trkpt lat="44.85157" lon="-0.52889">
        <ele>62.62</ele>
        <time>2016-04-14T07:48:52Z</time>
      </trkpt>
      <trkpt lat="44.85157" lon="-0.52876">
        <ele>63.58</ele>
        <time>2016-04-14T07:49:06Z</time>
      </trkpt>
      <trkpt lat="44.85155" lon="-0.5287">
        <ele>63.58</ele>
        <time>2016-04-14T07:49:17Z</time>
      </trkpt>
      <trkpt lat="44.85153" lon="-0.52868">
        <ele>63.58</ele>
        <time>2016-04-14T07:49:38Z</time>
      </trkpt>
      <trkpt lat="44.85147" lon="-0.52869">
        <ele>63.58</ele>
        <time>2016-04-14T07:49:47Z</time>
      </trkpt>
      <trkpt lat="44.85132" lon="-0.52865">
        <ele>64.07</ele>
        <time>2016-04-14T07:50:02Z</time>
      </trkpt>
      <trkpt lat="44.8512" lon="-0.52858">
        <ele>64.55</ele>
        <time>2016-04-14T07:50:16Z</time>
      </trkpt>
      <trkpt lat="44.85106" lon="-0.5285">
        <ele>65.51</ele>
        <time>2016-04-14T07:50:31Z</time>
      </trkpt>
      <trkpt lat="44.85096" lon="-0.52838">
        <ele>65.51</ele>
        <time>2016-04-14T07:50:46Z</time>
      </trkpt>
      <trkpt lat="44.85098" lon="-0.5283">
        <ele>66.47</ele>
        <time>2016-04-14T07:50:54Z</time>
      </trkpt>
      <trkpt lat="44.85103" lon="-0.5281">
        <ele>66.47</ele>
        <time>2016-04-14T07:51:10Z</time>
      </trkpt>
      <trkpt lat="44.85108" lon="-0.52793">
        <ele>65.03</ele>
        <time>2016-04-14T07:51:24Z</time>
      </trkpt>
      <trkpt lat="44.85109" lon="-0.52792">
        <ele>65.03</ele>
        <time>2016-04-14T07:51:25Z</time>
      </trkpt>
      <trkpt lat="44.85116" lon="-0.5277">
        <ele>64.55</ele>
        <time>2016-04-14T07:51:42Z</time>
      </trkpt>
      <trkpt lat="44.85121" lon="-0.52748">
        <ele>63.58</ele>
        <time>2016-04-14T07:51:59Z</time>
      </trkpt>
      <trkpt lat="44.85124" lon="-0.52733">
        <ele>63.58</ele>
        <time>2016-04-14T07:52:10Z</time>
      </trkpt>
      <trkpt lat="44.85125" lon="-0.52723">
        <ele>63.58</ele>
        <time>2016-04-14T07:52:25Z</time>
      </trkpt>
      <trkpt lat="44.85127" lon="-0.5271">
        <ele>62.62</ele>
        <time>2016-04-14T07:52:39Z</time>
      </trkpt>
      <trkpt lat="44.85131" lon="-0.52692">
        <ele>62.14</ele>
        <time>2016-04-14T07:52:55Z</time>
      </trkpt>
      <trkpt lat="44.85135" lon="-0.52672">
        <ele>61.66</ele>
        <time>2016-04-14T07:53:11Z</time>
      </trkpt>
      <trkpt lat="44.85137" lon="-0.52657">
        <ele>60.7</ele>
        <time>2016-04-14T07:53:26Z</time>
      </trkpt>
      <trkpt lat="44.85143" lon="-0.52641">
        <ele>59.74</ele>
        <time>2016-04-14T07:53:45Z</time>
      </trkpt>
      <trkpt lat="44.85145" lon="-0.52631">
        <ele>59.74</ele>
        <time>2016-04-14T07:54:09Z</time>
      </trkpt>
      <trkpt lat="44.85147" lon="-0.5262">
        <ele>59.74</ele>
        <time>2016-04-14T07:54:22Z</time>
      </trkpt>
      <trkpt lat="44.85148" lon="-0.5261">
        <ele>58.78</ele>
        <time>2016-04-14T07:54:34Z</time>
      </trkpt>
      <trkpt lat="44.85153" lon="-0.52593">
        <ele>59.26</ele>
        <time>2016-04-14T07:54:48Z</time>
      </trkpt>
      <trkpt lat="44.85154" lon="-0.52576">
        <ele>58.78</ele>
        <time>2016-04-14T07:55:03Z</time>
      </trkpt>
      <trkpt lat="44.85156" lon="-0.52553">
        <ele>58.3</ele>
        <time>2016-04-14T07:55:20Z</time>
      </trkpt>
      <trkpt lat="44.85156" lon="-0.52552">
        <ele>58.3</ele>
        <time>2016-04-14T07:55:21Z</time>
      </trkpt>
      <trkpt lat="44.8516" lon="-0.52526">
        <ele>58.3</ele>
        <time>2016-04-14T07:55:38Z</time>
      </trkpt>
      <trkpt lat="44.85164" lon="-0.52512">
        <ele>58.3</ele>
        <time>2016-04-14T07:55:48Z</time>
      </trkpt>
      <trkpt lat="44.85166" lon="-0.52508">
        <ele>58.3</ele>
        <time>2016-04-14T07:55:50Z</time>
      </trkpt>
      <trkpt lat="44.85186" lon="-0.52487">
        <ele>57.82</ele>
        <time>2016-04-14T07:56:10Z</time>
      </trkpt>
      <trkpt lat="44.852" lon="-0.52477">
        <ele>56.86</ele>
        <time>2016-04-14T07:56:25Z</time>
      </trkpt>
      <trkpt lat="44.85206" lon="-0.52474">
        <ele>56.86</ele>
        <time>2016-04-14T07:56:37Z</time>
      </trkpt>
      <trkpt lat="44.85206" lon="-0.52471">
        <ele>56.37</ele>
        <time>2016-04-14T07:56:40Z</time>
      </trkpt>
      <trkpt lat="44.85218" lon="-0.52466">
        <ele>55.89</ele>
        <time>2016-04-14T07:56:55Z</time>
      </trkpt>
      <trkpt lat="44.85231" lon="-0.52462">
        <ele>54.93</ele>
        <time>2016-04-14T07:57:11Z</time>
      </trkpt>
      <trkpt lat="44.85242" lon="-0.52454">
        <ele>54.45</ele>
        <time>2016-04-14T07:57:26Z</time>
      </trkpt>
      <trkpt lat="44.85256" lon="-0.52447">
        <ele>53.49</ele>
        <time>2016-04-14T07:57:42Z</time>
      </trkpt>
      <trkpt lat="44.8527" lon="-0.52439">
        <ele>53.49</ele>
        <time>2016-04-14T07:57:59Z</time>
      </trkpt>
      <trkpt lat="44.85286" lon="-0.52426">
        <ele>53.49</ele>
        <time>2016-04-14T07:58:15Z</time>
      </trkpt>
      <trkpt lat="44.85292" lon="-0.52419">
        <ele>53.49</ele>
        <time>2016-04-14T07:58:29Z</time>
      </trkpt>
      <trkpt lat="44.85297" lon="-0.52406">
        <ele>54.45</ele>
        <time>2016-04-14T07:58:44Z</time>
      </trkpt>
      <trkpt lat="44.85297" lon="-0.52401">
        <ele>54.45</ele>
        <time>2016-04-14T07:58:48Z</time>
      </trkpt>
      <trkpt lat="44.85296" lon="-0.52375">
        <ele>55.89</ele>
        <time>2016-04-14T07:59:06Z</time>
      </trkpt>
      <trkpt lat="44.85296" lon="-0.52372">
        <ele>56.37</ele>
        <time>2016-04-14T07:59:08Z</time>
      </trkpt>
      <trkpt lat="44.85295" lon="-0.5237">
        <ele>56.37</ele>
        <time>2016-04-14T07:59:10Z</time>
      </trkpt>
      <trkpt lat="44.85294" lon="-0.5235">
        <ele>57.82</ele>
        <time>2016-04-14T07:59:24Z</time>
      </trkpt>
      <trkpt lat="44.85289" lon="-0.52327">
        <ele>58.78</ele>
        <time>2016-04-14T07:59:40Z</time>
      </trkpt>
      <trkpt lat="44.85283" lon="-0.52306">
        <ele>60.7</ele>
        <time>2016-04-14T07:59:57Z</time>
      </trkpt>
      <trkpt lat="44.85276" lon="-0.52286">
        <ele>62.14</ele>
        <time>2016-04-14T08:00:13Z</time>
      </trkpt>
      <trkpt lat="44.8527" lon="-0.52268">
        <ele>63.1</ele>
        <time>2016-04-14T08:00:28Z</time>
      </trkpt>
      <trkpt lat="44.85266" lon="-0.52257">
        <ele>63.1</ele>
        <time>2016-04-14T08:00:37Z</time>
      </trkpt>
      <trkpt lat="44.85262" lon="-0.52239">
        <ele>63.58</ele>
        <time>2016-04-14T08:00:52Z</time>
      </trkpt>
      <trkpt lat="44.85263" lon="-0.52237">
        <ele>64.07</ele>
        <time>2016-04-14T08:00:53Z</time>
      </trkpt>
      <trkpt lat="44.85272" lon="-0.52228">
        <ele>62.62</ele>
        <time>2016-04-14T08:01:03Z</time>
      </trkpt>
      <trkpt lat="44.85285" lon="-0.52219">
        <ele>62.14</ele>
        <time>2016-04-14T08:01:20Z</time>
      </trkpt>
      <trkpt lat="44.853" lon="-0.52211">
        <ele>62.14</ele>
        <time>2016-04-14T08:01:39Z</time>
      </trkpt>
      <trkpt lat="44.85305" lon="-0.52209">
        <ele>62.14</ele>
        <time>2016-04-14T08:01:44Z</time>
      </trkpt>
      <trkpt lat="44.85322" lon="-0.52199">
        <ele>61.66</ele>
        <time>2016-04-14T08:02:02Z</time>
      </trkpt>
      <trkpt lat="44.85336" lon="-0.52188">
        <ele>60.7</ele>
        <time>2016-04-14T08:02:18Z</time>
      </trkpt>
      <trkpt lat="44.85352" lon="-0.52176">
        <ele>60.22</ele>
        <time>2016-04-14T08:02:36Z</time>
      </trkpt>
      <trkpt lat="44.85366" lon="-0.52163">
        <ele>59.74</ele>
        <time>2016-04-14T08:02:52Z</time>
      </trkpt>
      <trkpt lat="44.85378" lon="-0.52147">
        <ele>59.74</ele>
        <time>2016-04-14T08:03:09Z</time>
      </trkpt>
      <trkpt lat="44.85387" lon="-0.52146">
        <ele>59.74</ele>
        <time>2016-04-14T08:03:18Z</time>
      </trkpt>
      <trkpt lat="44.85405" lon="-0.52145">
        <ele>59.74</ele>
        <time>2016-04-14T08:03:35Z</time>
      </trkpt>
      <trkpt lat="44.85425" lon="-0.52142">
        <ele>59.26</ele>
        <time>2016-04-14T08:03:55Z</time>
      </trkpt>
      <trkpt lat="44.85442" lon="-0.52137">
        <ele>58.78</ele>
        <time>2016-04-14T08:04:12Z</time>
      </trkpt>
      <trkpt lat="44.85455" lon="-0.52135">
        <ele>58.78</ele>
        <time>2016-04-14T08:04:26Z</time>
      </trkpt>
      <trkpt lat="44.85474" lon="-0.52139">
        <ele>58.78</ele>
        <time>2016-04-14T08:04:43Z</time>
      </trkpt>
      <trkpt lat="44.85491" lon="-0.52148">
        <ele>58.3</ele>
        <time>2016-04-14T08:05:00Z</time>
      </trkpt>
      <trkpt lat="44.85502" lon="-0.52166">
        <ele>58.3</ele>
        <time>2016-04-14T08:05:16Z</time>
      </trkpt>
      <trkpt lat="44.8551" lon="-0.52179">
        <ele>57.82</ele>
        <time>2016-04-14T08:05:29Z</time>
      </trkpt>
      <trkpt lat="44.85517" lon="-0.52196">
        <ele>57.82</ele>
        <time>2016-04-14T08:05:45Z</time>
      </trkpt>
      <trkpt lat="44.85525" lon="-0.52217">
        <ele>57.34</ele>
        <time>2016-04-14T08:06:02Z</time>
      </trkpt>
      <trkpt lat="44.85531" lon="-0.52243">
        <ele>57.34</ele>
        <time>2016-04-14T08:06:21Z</time>
      </trkpt>
      <trkpt lat="44.85534" lon="-0.52259">
        <ele>56.86</ele>
        <time>2016-04-14T08:06:36Z</time>
      </trkpt>
      <trkpt lat="44.85536" lon="-0.52271">
        <ele>56.86</ele>
        <time>2016-04-14T08:06:51Z</time>
      </trkpt>
      <trkpt lat="44.85541" lon="-0.52287">
        <ele>56.37</ele>
        <time>2016-04-14T08:07:06Z</time>
      </trkpt>
      <trkpt lat="44.85546" lon="-0.52306">
        <ele>56.37</ele>
        <time>2016-04-14T08:07:23Z</time>
      </trkpt>
      <trkpt lat="44.8555" lon="-0.52319">
        <ele>55.89</ele>
        <time>2016-04-14T08:07:37Z</time>
      </trkpt>
      <trkpt lat="44.85551" lon="-0.52335">
        <ele>55.41</ele>
        <time>2016-04-14T08:07:51Z</time>
      </trkpt>
      <trkpt lat="44.85553" lon="-0.52345">
        <ele>55.41</ele>
        <time>2016-04-14T08:08:02Z</time>
      </trkpt>
      <trkpt lat="44.85553" lon="-0.52352">
        <ele>55.41</ele>
        <time>2016-04-14T08:08:14Z</time>
      </trkpt>
      <trkpt lat="44.85555" lon="-0.52356">
        <ele>55.41</ele>
        <time>2016-04-14T08:08:30Z</time>
      </trkpt>
      <trkpt lat="44.85556" lon="-0.52359">
        <ele>56.86</ele>
        <time>2016-04-14T08:08:33Z</time>
      </trkpt>
      <trkpt lat="44.85561" lon="-0.52373">
        <ele>57.34</ele>
        <time>2016-04-14T08:08:48Z</time>
      </trkpt>
      <trkpt lat="44.85565" lon="-0.52389">
        <ele>58.3</ele>
        <time>2016-04-14T08:09:03Z</time>
      </trkpt>
      <trkpt lat="44.85567" lon="-0.52408">
        <ele>58.3</ele>
        <time>2016-04-14T08:09:18Z</time>
      </trkpt>
      <trkpt lat="44.85563" lon="-0.52422">
        <ele>58.78</ele>
        <time>2016-04-14T08:09:34Z</time>
      </trkpt>
      <trkpt lat="44.85562" lon="-0.52436">
        <ele>58.78</ele>
        <time>2016-04-14T08:09:49Z</time>
      </trkpt>
      <trkpt lat="44.85562" lon="-0.52438">
        <ele>59.74</ele>
        <time>2016-04-14T08:09:51Z</time>
      </trkpt>
      <trkpt lat="44.85562" lon="-0.52462">
        <ele>59.74</ele>
        <time>2016-04-14T08:10:07Z</time>
      </trkpt>
      <trkpt lat="44.85561" lon="-0.52481">
        <ele>60.7</ele>
        <time>2016-04-14T08:10:22Z</time>
      </trkpt>
      <trkpt lat="44.85561" lon="-0.5249">
        <ele>60.7</ele>
        <time>2016-04-14T08:10:30Z</time>
      </trkpt>
      <trkpt lat="44.85559" lon="-0.52507">
        <ele>60.7</ele>
        <time>2016-04-14T08:10:42Z</time>
      </trkpt>
      <trkpt lat="44.85559" lon="-0.5251">
        <ele>59.26</ele>
        <time>2016-04-14T08:10:44Z</time>
      </trkpt>
      <trkpt lat="44.85553" lon="-0.52523">
        <ele>57.34</ele>
        <time>2016-04-14T08:10:59Z</time>
      </trkpt>
      <trkpt lat="44.85549" lon="-0.52539">
        <ele>55.89</ele>
        <time>2016-04-14T08:11:14Z</time>
      </trkpt>
      <trkpt lat="44.85547" lon="-0.52555">
        <ele>53.49</ele>
        <time>2016-04-14T08:11:29Z</time>
      </trkpt>
      <trkpt lat="44.85544" lon="-0.52561">
        <ele>52.53</ele>
        <time>2016-04-14T08:11:33Z</time>
      </trkpt>
      <trkpt lat="44.85538" lon="-0.52574">
        <ele>50.13</ele>
        <time>2016-04-14T08:11:45Z</time>
      </trkpt>
      <trkpt lat="44.85531" lon="-0.5259">
        <ele>47.24</ele>
        <time>2016-04-14T08:12:01Z</time>
      </trkpt>
      <trkpt lat="44.85527" lon="-0.52601">
        <ele>45.32</ele>
        <time>2016-04-14T08:12:13Z</time>
      </trkpt>
      <trkpt lat="44.85523" lon="-0.52612">
        <ele>42.44</ele>
        <time>2016-04-14T08:12:24Z</time>
      </trkpt>
      <trkpt lat="44.85518" lon="-0.52625">
        <ele>40.03</ele>
        <time>2016-04-14T08:12:39Z</time>
      </trkpt>
      <trkpt lat="44.85516" lon="-0.52639">
        <ele>37.63</ele>
        <time>2016-04-14T08:12:54Z</time>
      </trkpt>
      <trkpt lat="44.85513" lon="-0.52653">
        <ele>35.23</ele>
        <time>2016-04-14T08:13:08Z</time>
      </trkpt>
      <trkpt lat="44.85507" lon="-0.52668">
        <ele>33.3</ele>
        <time>2016-04-14T08:13:20Z</time>
      </trkpt>
      <trkpt lat="44.85507" lon="-0.52685">
        <ele>31.86</ele>
        <time>2016-04-14T08:13:35Z</time>
      </trkpt>
      <trkpt lat="44.85509" lon="-0.52698">
        <ele>31.38</ele>
        <time>2016-04-14T08:13:56Z</time>
      </trkpt>
      <trkpt lat="44.8551" lon="-0.52716">
        <ele>28.5</ele>
        <time>2016-04-14T08:14:12Z</time>
      </trkpt>
      <trkpt lat="44.85511" lon="-0.52719">
        <ele>28.02</ele>
        <time>2016-04-14T08:14:14Z</time>
      </trkpt>
      <trkpt lat="44.85516" lon="-0.52732">
        <ele>26.09</ele>
        <time>2016-04-14T08:14:28Z</time>
      </trkpt>
      <trkpt lat="44.85521" lon="-0.52747">
        <ele>23.69</ele>
        <time>2016-04-14T08:14:42Z</time>
      </trkpt>
      <trkpt lat="44.8552" lon="-0.5277">
        <ele>21.77</ele>
        <time>2016-04-14T08:14:59Z</time>
      </trkpt>
      <trkpt lat="44.85518" lon="-0.52793">
        <ele>20.32</ele>
        <time>2016-04-14T08:15:16Z</time>
      </trkpt>
      <trkpt lat="44.85521" lon="-0.52815">
        <ele>18.4</ele>
        <time>2016-04-14T08:15:31Z</time>
      </trkpt>
      <trkpt lat="44.85523" lon="-0.52834">
        <ele>17.44</ele>
        <time>2016-04-14T08:15:46Z</time>
      </trkpt>
      <trkpt lat="44.85522" lon="-0.52844">
        <ele>16.48</ele>
        <time>2016-04-14T08:16:00Z</time>
      </trkpt>
      <trkpt lat="44.85522" lon="-0.52847">
        <ele>16.48</ele>
        <time>2016-04-14T08:16:23Z</time>
      </trkpt>
      <trkpt lat="44.85523" lon="-0.52848">
        <ele>16.48</ele>
        <time>2016-04-14T08:16:44Z</time>
      </trkpt>
      <trkpt lat="44.85524" lon="-0.52847">
        <ele>17.44</ele>
        <time>2016-04-14T08:16:58Z</time>
      </trkpt>
      <trkpt lat="44.85524" lon="-0.52846">
        <ele>16.48</ele>
        <time>2016-04-14T08:17:00Z</time>
      </trkpt>
      <trkpt lat="44.85525" lon="-0.52846">
        <ele>16.48</ele>
        <time>2016-04-14T08:17:16Z</time>
      </trkpt>
      <trkpt lat="44.85524" lon="-0.52848">
        <ele>16.48</ele>
        <time>2016-04-14T08:17:33Z</time>
      </trkpt>
      <trkpt lat="44.85527" lon="-0.52848">
        <ele>16</ele>
        <time>2016-04-14T08:17:53Z</time>
      </trkpt>
      <trkpt lat="44.85526" lon="-0.52848">
        <ele>16</ele>
        <time>2016-04-14T08:18:07Z</time>
      </trkpt>
      <trkpt lat="44.85526" lon="-0.52847">
        <ele>16</ele>
        <time>2016-04-14T08:18:23Z</time>
      </trkpt>
      <trkpt lat="44.85526" lon="-0.52846">
        <ele>16</ele>
        <time>2016-04-14T08:18:45Z</time>
      </trkpt>
      <trkpt lat="44.85528" lon="-0.52849">
        <ele>16</ele>
        <time>2016-04-14T08:19:03Z</time>
      </trkpt>
      <trkpt lat="44.85528" lon="-0.5285">
        <ele>16</ele>
        <time>2016-04-14T08:19:18Z</time>
      </trkpt>
      <trkpt lat="44.85527" lon="-0.52849">
        <ele>16</ele>
        <time>2016-04-14T08:19:34Z</time>
      </trkpt>
      <trkpt lat="44.85525" lon="-0.5285">
        <ele>16</ele>
        <time>2016-04-14T08:19:52Z</time>
      </trkpt>
      <trkpt lat="44.85524" lon="-0.52852">
        <ele>16</ele>
        <time>2016-04-14T08:20:08Z</time>
      </trkpt>
      <trkpt lat="44.85525" lon="-0.52851">
        <ele>16</ele>
        <time>2016-04-14T08:20:22Z</time>
      </trkpt>
      <trkpt lat="44.85527" lon="-0.52849">
        <ele>15.52</ele>
        <time>2016-04-14T08:20:41Z</time>
      </trkpt>
      <trkpt lat="44.85529" lon="-0.52849">
        <ele>16.96</ele>
        <time>2016-04-14T08:20:44Z</time>
      </trkpt>
      <trkpt lat="44.85532" lon="-0.52852">
        <ele>16.96</ele>
        <time>2016-04-14T08:20:57Z</time>
      </trkpt>
      <trkpt lat="44.85531" lon="-0.52851">
        <ele>15.52</ele>
        <time>2016-04-14T08:21:05Z</time>
      </trkpt>
      <trkpt lat="44.8553" lon="-0.5285">
        <ele>15.52</ele>
        <time>2016-04-14T08:21:24Z</time>
      </trkpt>
      <trkpt lat="44.85532" lon="-0.52848">
        <ele>15.52</ele>
        <time>2016-04-14T08:21:40Z</time>
      </trkpt>
      <trkpt lat="44.8553" lon="-0.5285">
        <ele>15.52</ele>
        <time>2016-04-14T08:22:03Z</time>
      </trkpt>
      <trkpt lat="44.8553" lon="-0.5285">
        <ele>15.52</ele>
        <time>2016-04-14T08:22:19Z</time>
      </trkpt>
      <trkpt lat="44.85531" lon="-0.52849">
        <ele>15.52</ele>
        <time>2016-04-14T08:22:38Z</time>
      </trkpt>
      <trkpt lat="44.85532" lon="-0.5285">
        <ele>15.04</ele>
        <time>2016-04-14T08:22:58Z</time>
      </trkpt>
      <trkpt lat="44.85532" lon="-0.52849">
        <ele>16.48</ele>
        <time>2016-04-14T08:23:02Z</time>
      </trkpt>
      <trkpt lat="44.8553" lon="-0.52849">
        <ele>16.48</ele>
        <time>2016-04-14T08:23:26Z</time>
      </trkpt>
      <trkpt lat="44.85529" lon="-0.52847">
        <ele>15.04</ele>
        <time>2016-04-14T08:23:42Z</time>
      </trkpt>
      <trkpt lat="44.85529" lon="-0.52848">
        <ele>16.48</ele>
        <time>2016-04-14T08:23:54Z</time>
      </trkpt>
      <trkpt lat="44.85527" lon="-0.52848">
        <ele>16.48</ele>
        <time>2016-04-14T08:24:10Z</time>
      </trkpt>
      <trkpt lat="44.85526" lon="-0.52847">
        <ele>16</ele>
        <time>2016-04-14T08:24:24Z</time>
      </trkpt>
      <trkpt lat="44.85526" lon="-0.52846">
        <ele>16</ele>
        <time>2016-04-14T08:24:43Z</time>
      </trkpt>
      <trkpt lat="44.85524" lon="-0.52846">
        <ele>16</ele>
        <time>2016-04-14T08:24:57Z</time>
      </trkpt>
      <trkpt lat="44.85524" lon="-0.52849">
        <ele>16</ele>
        <time>2016-04-14T08:25:20Z</time>
      </trkpt>
      <trkpt lat="44.85524" lon="-0.52849">
        <ele>16</ele>
        <time>2016-04-14T08:25:32Z</time>
      </trkpt>
      <trkpt lat="44.85525" lon="-0.52847">
        <ele>16</ele>
        <time>2016-04-14T08:25:52Z</time>
      </trkpt>
      <trkpt lat="44.85524" lon="-0.52845">
        <ele>16</ele>
        <time>2016-04-14T08:26:09Z</time>
      </trkpt>
      <trkpt lat="44.85523" lon="-0.52848">
        <ele>14.56</ele>
        <time>2016-04-14T08:26:29Z</time>
      </trkpt>
      <trkpt lat="44.85517" lon="-0.5286">
        <ele>14.08</ele>
        <time>2016-04-14T08:26:51Z</time>
      </trkpt>
      <trkpt lat="44.85512" lon="-0.52875">
        <ele>12.63</ele>
        <time>2016-04-14T08:27:06Z</time>
      </trkpt>
      <trkpt lat="44.85507" lon="-0.52886">
        <ele>12.15</ele>
        <time>2016-04-14T08:27:21Z</time>
      </trkpt>
      <trkpt lat="44.85501" lon="-0.52883">
        <ele>12.15</ele>
        <time>2016-04-14T08:27:28Z</time>
      </trkpt>
      <trkpt lat="44.85495" lon="-0.52877">
        <ele>13.6</ele>
        <time>2016-04-14T08:27:35Z</time>
      </trkpt>
      <trkpt lat="44.85484" lon="-0.5286">
        <ele>14.08</ele>
        <time>2016-04-14T08:27:50Z</time>
      </trkpt>
      <trkpt lat="44.85472" lon="-0.52845">
        <ele>15.04</ele>
        <time>2016-04-14T08:28:05Z</time>
      </trkpt>
      <trkpt lat="44.8546" lon="-0.52831">
        <ele>16</ele>
        <time>2016-04-14T08:28:18Z</time>
      </trkpt>
      <trkpt lat="44.85458" lon="-0.5283">
        <ele>16</ele>
        <time>2016-04-14T08:28:31Z</time>
      </trkpt>
      <trkpt lat="44.85457" lon="-0.5283">
        <ele>16.48</ele>
        <time>2016-04-14T08:28:43Z</time>
      </trkpt>
      <trkpt lat="44.85453" lon="-0.52827">
        <ele>17.44</ele>
        <time>2016-04-14T08:28:57Z</time>
      </trkpt>
      <trkpt lat="44.8545" lon="-0.52827">
        <ele>20.81</ele>
        <time>2016-04-14T08:29:13Z</time>
      </trkpt>
      <trkpt lat="44.85447" lon="-0.52827">
        <ele>22.73</ele>
        <time>2016-04-14T08:29:28Z</time>
      </trkpt>
      <trkpt lat="44.8544" lon="-0.52819">
        <ele>24.17</ele>
        <time>2016-04-14T08:29:41Z</time>
      </trkpt>
      <trkpt lat="44.85436" lon="-0.52811">
        <ele>25.61</ele>
        <time>2016-04-14T08:29:55Z</time>
      </trkpt>
      <trkpt lat="44.85432" lon="-0.52807">
        <ele>26.09</ele>
        <time>2016-04-14T08:30:08Z</time>
      </trkpt>
      <trkpt lat="44.85422" lon="-0.528">
        <ele>27.53</ele>
        <time>2016-04-14T08:30:22Z</time>
      </trkpt>
      <trkpt lat="44.85412" lon="-0.52797">
        <ele>27.53</ele>
        <time>2016-04-14T08:30:32Z</time>
      </trkpt>
      <trkpt lat="44.85399" lon="-0.52794">
        <ele>27.53</ele>
        <time>2016-04-14T08:30:46Z</time>
      </trkpt>
      <trkpt lat="44.85389" lon="-0.5279">
        <ele>28.02</ele>
        <time>2016-04-14T08:30:58Z</time>
      </trkpt>
      <trkpt lat="44.85376" lon="-0.52788">
        <ele>28.02</ele>
        <time>2016-04-14T08:31:16Z</time>
      </trkpt>
      <trkpt lat="44.85368" lon="-0.52782">
        <ele>28.5</ele>
        <time>2016-04-14T08:31:32Z</time>
      </trkpt>
      <trkpt lat="44.85363" lon="-0.52785">
        <ele>30.42</ele>
        <time>2016-04-14T08:31:47Z</time>
      </trkpt>
      <trkpt lat="44.8536" lon="-0.52786">
        <ele>32.34</ele>
        <time>2016-04-14T08:32:02Z</time>
      </trkpt>
      <trkpt lat="44.85356" lon="-0.52773">
        <ele>33.78</ele>
        <time>2016-04-14T08:32:20Z</time>
      </trkpt>
      <trkpt lat="44.85354" lon="-0.52771">
        <ele>35.71</ele>
        <time>2016-04-14T08:32:33Z</time>
      </trkpt>
      <trkpt lat="44.85351" lon="-0.52772">
        <ele>36.67</ele>
        <time>2016-04-14T08:32:40Z</time>
      </trkpt>
      <trkpt lat="44.85346" lon="-0.52775">
        <ele>38.59</ele>
        <time>2016-04-14T08:32:53Z</time>
      </trkpt>
      <trkpt lat="44.85343" lon="-0.52774">
        <ele>41.95</ele>
        <time>2016-04-14T08:33:07Z</time>
      </trkpt>
      <trkpt lat="44.85336" lon="-0.52772">
        <ele>44.84</ele>
        <time>2016-04-14T08:33:21Z</time>
      </trkpt>
      <trkpt lat="44.85325" lon="-0.52768">
        <ele>47.24</ele>
        <time>2016-04-14T08:33:36Z</time>
      </trkpt>
      <trkpt lat="44.85314" lon="-0.52772">
        <ele>47.72</ele>
        <time>2016-04-14T08:33:50Z</time>
      </trkpt>
      <trkpt lat="44.85312" lon="-0.52783">
        <ele>48.2</ele>
        <time>2016-04-14T08:34:04Z</time>
      </trkpt>
      <trkpt lat="44.85312" lon="-0.52792">
        <ele>48.68</ele>
        <time>2016-04-14T08:34:16Z</time>
      </trkpt>
      <trkpt lat="44.85309" lon="-0.52806">
        <ele>48.68</ele>
        <time>2016-04-14T08:34:30Z</time>
      </trkpt>
      <trkpt lat="44.85307" lon="-0.52822">
        <ele>49.65</ele>
        <time>2016-04-14T08:34:46Z</time>
      </trkpt>
      <trkpt lat="44.85306" lon="-0.52824">
        <ele>49.65</ele>
        <time>2016-04-14T08:35:11Z</time>
      </trkpt>
      <trkpt lat="44.85307" lon="-0.52827">
        <ele>49.65</ele>
        <time>2016-04-14T08:35:35Z</time>
      </trkpt>
      <trkpt lat="44.85308" lon="-0.52827">
        <ele>49.65</ele>
        <time>2016-04-14T08:36:10Z</time>
      </trkpt>
      <trkpt lat="44.85312" lon="-0.52826">
        <ele>49.65</ele>
        <time>2016-04-14T08:36:39Z</time>
      </trkpt>
      <trkpt lat="44.85313" lon="-0.5283">
        <ele>49.65</ele>
        <time>2016-04-14T08:36:54Z</time>
      </trkpt>
      <trkpt lat="44.8532" lon="-0.52836">
        <ele>49.65</ele>
        <time>2016-04-14T08:37:07Z</time>
      </trkpt>
      <trkpt lat="44.85328" lon="-0.52845">
        <ele>50.13</ele>
        <time>2016-04-14T08:37:20Z</time>
      </trkpt>
      <trkpt lat="44.85335" lon="-0.52856">
        <ele>50.13</ele>
        <time>2016-04-14T08:37:33Z</time>
      </trkpt>
      <trkpt lat="44.85335" lon="-0.52878">
        <ele>51.57</ele>
        <time>2016-04-14T08:37:49Z</time>
      </trkpt>
      <trkpt lat="44.8533" lon="-0.5289">
        <ele>51.57</ele>
        <time>2016-04-14T08:38:01Z</time>
      </trkpt>
      <trkpt lat="44.85329" lon="-0.52905">
        <ele>53.97</ele>
        <time>2016-04-14T08:38:16Z</time>
      </trkpt>
      <trkpt lat="44.85321" lon="-0.52909">
        <ele>55.41</ele>
        <time>2016-04-14T08:38:31Z</time>
      </trkpt>
      <trkpt lat="44.85315" lon="-0.52912">
        <ele>56.86</ele>
        <time>2016-04-14T08:38:46Z</time>
      </trkpt>
      <trkpt lat="44.85304" lon="-0.52922">
        <ele>58.3</ele>
        <time>2016-04-14T08:39:03Z</time>
      </trkpt>
      <trkpt lat="44.85289" lon="-0.52934">
        <ele>59.74</ele>
        <time>2016-04-14T08:39:20Z</time>
      </trkpt>
      <trkpt lat="44.85288" lon="-0.52934">
        <ele>59.74</ele>
        <time>2016-04-14T08:39:21Z</time>
      </trkpt>
      <trkpt lat="44.85274" lon="-0.52929">
        <ele>61.66</ele>
        <time>2016-04-14T08:39:38Z</time>
      </trkpt>
      <trkpt lat="44.85262" lon="-0.52921">
        <ele>62.14</ele>
        <time>2016-04-14T08:39:53Z</time>
      </trkpt>
      <trkpt lat="44.85249" lon="-0.52907">
        <ele>62.62</ele>
        <time>2016-04-14T08:40:11Z</time>
      </trkpt>
      <trkpt lat="44.85239" lon="-0.529">
        <ele>62.62</ele>
        <time>2016-04-14T08:40:24Z</time>
      </trkpt>
      <trkpt lat="44.85231" lon="-0.52895">
        <ele>62.62</ele>
        <time>2016-04-14T08:40:38Z</time>
      </trkpt>
      <trkpt lat="44.85228" lon="-0.52892">
        <ele>63.1</ele>
        <time>2016-04-14T08:40:55Z</time>
      </trkpt>
      <trkpt lat="44.85222" lon="-0.52884">
        <ele>63.1</ele>
        <time>2016-04-14T08:41:09Z</time>
      </trkpt>
      <trkpt lat="44.85221" lon="-0.52867">
        <ele>63.1</ele>
        <time>2016-04-14T08:41:25Z</time>
      </trkpt>
      <trkpt lat="44.85215" lon="-0.52856">
        <ele>63.1</ele>
        <time>2016-04-14T08:41:41Z</time>
      </trkpt>
      <trkpt lat="44.85207" lon="-0.52848">
        <ele>64.07</ele>
        <time>2016-04-14T08:41:56Z</time>
      </trkpt>
      <trkpt lat="44.85198" lon="-0.52843">
        <ele>63.1</ele>
        <time>2016-04-14T08:42:12Z</time>
      </trkpt>
      <trkpt lat="44.85191" lon="-0.5284">
        <ele>64.55</ele>
        <time>2016-04-14T08:42:27Z</time>
      </trkpt>
      <trkpt lat="44.85185" lon="-0.5284">
        <ele>64.55</ele>
        <time>2016-04-14T08:42:39Z</time>
      </trkpt>
      <trkpt lat="44.85177" lon="-0.52839">
        <ele>64.55</ele>
        <time>2016-04-14T08:42:52Z</time>
      </trkpt>
      <trkpt lat="44.85175" lon="-0.52838">
        <ele>65.03</ele>
        <time>2016-04-14T08:43:13Z</time>
      </trkpt>
      <trkpt lat="44.85174" lon="-0.52835">
        <ele>65.03</ele>
        <time>2016-04-14T08:43:38Z</time>
      </trkpt>
      <trkpt lat="44.85173" lon="-0.52834">
        <ele>65.51</ele>
        <time>2016-04-14T08:43:58Z</time>
      </trkpt>
      <trkpt lat="44.85171" lon="-0.52834">
        <ele>65.99</ele>
        <time>2016-04-14T08:44:27Z</time>
      </trkpt>
      <trkpt lat="44.85172" lon="-0.52834">
        <ele>65.99</ele>
        <time>2016-04-14T08:44:46Z</time>
      </trkpt>
      <trkpt lat="44.85175" lon="-0.52835">
        <ele>66.47</ele>
        <time>2016-04-14T08:45:00Z</time>
      </trkpt>
      <trkpt lat="44.85169" lon="-0.52841">
        <ele>66.95</ele>
        <time>2016-04-14T08:45:13Z</time>
      </trkpt>
      <trkpt lat="44.85166" lon="-0.52843">
        <ele>66.95</ele>
        <time>2016-04-14T08:45:26Z</time>
      </trkpt>
      <trkpt lat="44.85162" lon="-0.52852">
        <ele>66.95</ele>
        <time>2016-04-14T08:45:40Z</time>
      </trkpt>
      <trkpt lat="44.85159" lon="-0.52857">
        <ele>66.95</ele>
        <time>2016-04-14T08:45:46Z</time>
      </trkpt>
      <trkpt lat="44.85156" lon="-0.52874">
        <ele>67.43</ele>
        <time>2016-04-14T08:46:03Z</time>
      </trkpt>
      <trkpt lat="44.85157" lon="-0.52886">
        <ele>67.43</ele>
        <time>2016-04-14T08:46:16Z</time>
      </trkpt>
      <trkpt lat="44.85155" lon="-0.52906">
        <ele>66.47</ele>
        <time>2016-04-14T08:46:33Z</time>
      </trkpt>
      <trkpt lat="44.85145" lon="-0.5293">
        <ele>65.51</ele>
        <time>2016-04-14T08:46:49Z</time>
      </trkpt>
      <trkpt lat="44.85136" lon="-0.5294">
        <ele>65.51</ele>
        <time>2016-04-14T08:47:02Z</time>
      </trkpt>
      <trkpt lat="44.85123" lon="-0.52943">
        <ele>65.51</ele>
        <time>2016-04-14T08:47:19Z</time>
      </trkpt>
      <trkpt lat="44.85114" lon="-0.52939">
        <ele>65.51</ele>
        <time>2016-04-14T08:47:32Z</time>
      </trkpt>
      <trkpt lat="44.85113" lon="-0.52939">
        <ele>65.51</ele>
        <time>2016-04-14T08:47:33Z</time>
      </trkpt>
      <trkpt lat="44.85096" lon="-0.52938">
        <ele>65.51</ele>
        <time>2016-04-14T08:47:52Z</time>
      </trkpt>
      <trkpt lat="44.85083" lon="-0.52942">
        <ele>65.51</ele>
        <time>2016-04-14T08:48:09Z</time>
      </trkpt>
      <trkpt lat="44.85075" lon="-0.52948">
        <ele>64.07</ele>
        <time>2016-04-14T08:48:22Z</time>
      </trkpt>
      <trkpt lat="44.85063" lon="-0.52948">
        <ele>62.62</ele>
        <time>2016-04-14T08:48:36Z</time>
      </trkpt>
      <trkpt lat="44.85053" lon="-0.52957">
        <ele>61.18</ele>
        <time>2016-04-14T08:48:50Z</time>
      </trkpt>
      <trkpt lat="44.85052" lon="-0.52958">
        <ele>61.18</ele>
        <time>2016-04-14T08:48:51Z</time>
      </trkpt>
      <trkpt lat="44.85046" lon="-0.52973">
        <ele>61.18</ele>
        <time>2016-04-14T08:49:07Z</time>
      </trkpt>
      <trkpt lat="44.85043" lon="-0.52981">
        <ele>61.18</ele>
        <time>2016-04-14T08:49:13Z</time>
      </trkpt>
      <trkpt lat="44.85039" lon="-0.52992">
        <ele>61.18</ele>
        <time>2016-04-14T08:49:26Z</time>
      </trkpt>
      <trkpt lat="44.85034" lon="-0.53">
        <ele>61.18</ele>
        <time>2016-04-14T08:49:40Z</time>
      </trkpt>
      <trkpt lat="44.85028" lon="-0.53016">
        <ele>61.18</ele>
        <time>2016-04-14T08:49:54Z</time>
      </trkpt>
      <trkpt lat="44.85019" lon="-0.53033">
        <ele>61.18</ele>
        <time>2016-04-14T08:50:09Z</time>
      </trkpt>
      <trkpt lat="44.85015" lon="-0.53036">
        <ele>62.62</ele>
        <time>2016-04-14T08:50:13Z</time>
      </trkpt>
      <trkpt lat="44.85001" lon="-0.53043">
        <ele>63.58</ele>
        <time>2016-04-14T08:50:27Z</time>
      </trkpt>
      <trkpt lat="44.84979" lon="-0.53043">
        <ele>65.03</ele>
        <time>2016-04-14T08:50:45Z</time>
      </trkpt>
      <trkpt lat="44.84964" lon="-0.53043">
        <ele>65.51</ele>
        <time>2016-04-14T08:51:00Z</time>
      </trkpt>
      <trkpt lat="44.84949" lon="-0.53044">
        <ele>66.95</ele>
        <time>2016-04-14T08:51:16Z</time>
      </trkpt>
      <trkpt lat="44.84939" lon="-0.53045">
        <ele>68.39</ele>
        <time>2016-04-14T08:51:29Z</time>
      </trkpt>
      <trkpt lat="44.8493" lon="-0.53048">
        <ele>68.87</ele>
        <time>2016-04-14T08:51:44Z</time>
      </trkpt>
      <trkpt lat="44.84924" lon="-0.53054">
        <ele>68.87</ele>
        <time>2016-04-14T08:51:57Z</time>
      </trkpt>
      <trkpt lat="44.84917" lon="-0.53057">
        <ele>67.91</ele>
        <time>2016-04-14T08:52:18Z</time>
      </trkpt>
      <trkpt lat="44.8491" lon="-0.53059">
        <ele>67.91</ele>
        <time>2016-04-14T08:52:31Z</time>
      </trkpt>
      <trkpt lat="44.84909" lon="-0.5306">
        <ele>67.91</ele>
        <time>2016-04-14T08:52:46Z</time>
      </trkpt>
      <trkpt lat="44.84909" lon="-0.53067">
        <ele>67.91</ele>
        <time>2016-04-14T08:53:04Z</time>
      </trkpt>
      <trkpt lat="44.84907" lon="-0.53069">
        <ele>67.43</ele>
        <time>2016-04-14T08:53:19Z</time>
      </trkpt>
      <trkpt lat="44.84909" lon="-0.53065">
        <ele>67.43</ele>
        <time>2016-04-14T08:53:40Z</time>
      </trkpt>
      <trkpt lat="44.84909" lon="-0.53063">
        <ele>67.43</ele>
        <time>2016-04-14T08:53:54Z</time>
      </trkpt>
      <trkpt lat="44.84908" lon="-0.53061">
        <ele>68.39</ele>
        <time>2016-04-14T08:54:18Z</time>
      </trkpt>
      <trkpt lat="44.84908" lon="-0.53064">
        <ele>68.39</ele>
        <time>2016-04-14T08:54:48Z</time>
      </trkpt>
      <trkpt lat="44.84908" lon="-0.5306">
        <ele>68.39</ele>
        <time>2016-04-14T08:55:19Z</time>
      </trkpt>
      <trkpt lat="44.84908" lon="-0.5306">
        <ele>68.87</ele>
        <time>2016-04-14T08:55:47Z</time>
      </trkpt>
      <trkpt lat="44.8491" lon="-0.5306">
        <ele>68.39</ele>
        <time>2016-04-14T08:56:13Z</time>
      </trkpt>
      <trkpt lat="44.8491" lon="-0.53059">
        <ele>68.39</ele>
        <time>2016-04-14T08:56:45Z</time>
      </trkpt>
      <trkpt lat="44.84908" lon="-0.53059">
        <ele>67.91</ele>
        <time>2016-04-14T08:57:20Z</time>
      </trkpt>
      <trkpt lat="44.84907" lon="-0.53059">
        <ele>67.91</ele>
        <time>2016-04-14T08:57:49Z</time>
      </trkpt>
      <trkpt lat="44.84907" lon="-0.5306">
        <ele>66.47</ele>
        <time>2016-04-14T08:57:53Z</time>
      </trkpt>
      <trkpt lat="44.84909" lon="-0.53065">
        <ele>66.47</ele>
        <time>2016-04-14T08:58:08Z</time>
      </trkpt>
      <trkpt lat="44.84905" lon="-0.53058">
        <ele>66.47</ele>
        <time>2016-04-14T08:58:24Z</time>
      </trkpt>
      <trkpt lat="44.84906" lon="-0.53056">
        <ele>67.43</ele>
        <time>2016-04-14T08:58:30Z</time>
      </trkpt>
      <trkpt lat="44.84908" lon="-0.53048">
        <ele>67.43</ele>
        <time>2016-04-14T08:58:37Z</time>
      </trkpt>
      <trkpt lat="44.84902" lon="-0.5303">
        <ele>67.43</ele>
        <time>2016-04-14T08:58:53Z</time>
      </trkpt>
      <trkpt lat="44.84901" lon="-0.5301">
        <ele>67.43</ele>
        <time>2016-04-14T08:59:09Z</time>
      </trkpt>
      <trkpt lat="44.84902" lon="-0.53">
        <ele>65.99</ele>
        <time>2016-04-14T08:59:17Z</time>
      </trkpt>
      <trkpt lat="44.84905" lon="-0.52981">
        <ele>65.99</ele>
        <time>2016-04-14T08:59:33Z</time>
      </trkpt>
      <trkpt lat="44.84907" lon="-0.5297">
        <ele>65.99</ele>
        <time>2016-04-14T08:59:44Z</time>
      </trkpt>
      <trkpt lat="44.84909" lon="-0.52959">
        <ele>65.51</ele>
        <time>2016-04-14T08:59:57Z</time>
      </trkpt>
      <trkpt lat="44.84913" lon="-0.52942">
        <ele>65.51</ele>
        <time>2016-04-14T09:00:13Z</time>
      </trkpt>
      <trkpt lat="44.84916" lon="-0.52937">
        <ele>65.03</ele>
        <time>2016-04-14T09:00:26Z</time>
      </trkpt>
      <trkpt lat="44.84919" lon="-0.52934">
        <ele>65.03</ele>
        <time>2016-04-14T09:00:55Z</time>
      </trkpt>
      <trkpt lat="44.84919" lon="-0.52933">
        <ele>65.51</ele>
        <time>2016-04-14T09:01:10Z</time>
      </trkpt>
      <trkpt lat="44.84919" lon="-0.52928">
        <ele>65.51</ele>
        <time>2016-04-14T09:01:25Z</time>
      </trkpt>
      <trkpt lat="44.84917" lon="-0.52924">
        <ele>65.51</ele>
        <time>2016-04-14T09:01:46Z</time>
      </trkpt>
      <trkpt lat="44.84917" lon="-0.52921">
        <ele>65.51</ele>
        <time>2016-04-14T09:02:07Z</time>
      </trkpt>
      <trkpt lat="44.84921" lon="-0.52919">
        <ele>65.51</ele>
        <time>2016-04-14T09:02:26Z</time>
      </trkpt>
      <trkpt lat="44.84921" lon="-0.52916">
        <ele>65.51</ele>
        <time>2016-04-14T09:02:43Z</time>
      </trkpt>
      <trkpt lat="44.84923" lon="-0.52905">
        <ele>65.51</ele>
        <time>2016-04-14T09:02:57Z</time>
      </trkpt>
      <trkpt lat="44.84927" lon="-0.5289">
        <ele>65.51</ele>
        <time>2016-04-14T09:03:11Z</time>
      </trkpt>
      <trkpt lat="44.84928" lon="-0.52883">
        <ele>66.47</ele>
        <time>2016-04-14T09:03:24Z</time>
      </trkpt>
      <trkpt lat="44.84925" lon="-0.52872">
        <ele>66.47</ele>
        <time>2016-04-14T09:03:37Z</time>
      </trkpt>
      <trkpt lat="44.84924" lon="-0.52862">
        <ele>66.47</ele>
        <time>2016-04-14T09:03:46Z</time>
      </trkpt>
      <trkpt lat="44.84923" lon="-0.52849">
        <ele>66.47</ele>
        <time>2016-04-14T09:03:59Z</time>
      </trkpt>
      <trkpt lat="44.84922" lon="-0.52831">
        <ele>66.95</ele>
        <time>2016-04-14T09:04:13Z</time>
      </trkpt>
      <trkpt lat="44.84919" lon="-0.52802">
        <ele>65.51</ele>
        <time>2016-04-14T09:04:32Z</time>
      </trkpt>
      <trkpt lat="44.84919" lon="-0.528">
        <ele>65.51</ele>
        <time>2016-04-14T09:04:33Z</time>
      </trkpt>
      <trkpt lat="44.84918" lon="-0.52786">
        <ele>65.51</ele>
        <time>2016-04-14T09:04:41Z</time>
      </trkpt>
      <trkpt lat="44.84918" lon="-0.52783">
        <ele>65.51</ele>
        <time>2016-04-14T09:04:43Z</time>
      </trkpt>
      <trkpt lat="44.84917" lon="-0.52753">
        <ele>65.51</ele>
        <time>2016-04-14T09:05:02Z</time>
      </trkpt>
      <trkpt lat="44.84916" lon="-0.52751">
        <ele>65.03</ele>
        <time>2016-04-14T09:05:03Z</time>
      </trkpt>
      <trkpt lat="44.84912" lon="-0.52732">
        <ele>65.51</ele>
        <time>2016-04-14T09:05:17Z</time>
      </trkpt>
      <trkpt lat="44.84911" lon="-0.52728">
        <ele>64.55</ele>
        <time>2016-04-14T09:05:20Z</time>
      </trkpt>
      <trkpt lat="44.84911" lon="-0.52706">
        <ele>64.55</ele>
        <time>2016-04-14T09:05:34Z</time>
      </trkpt>
      <trkpt lat="44.84912" lon="-0.52696">
        <ele>64.55</ele>
        <time>2016-04-14T09:05:40Z</time>
      </trkpt>
      <trkpt lat="44.84912" lon="-0.5269">
        <ele>64.55</ele>
        <time>2016-04-14T09:05:43Z</time>
      </trkpt>
      <trkpt lat="44.84911" lon="-0.52683">
        <ele>64.55</ele>
        <time>2016-04-14T09:05:47Z</time>
      </trkpt>
      <trkpt lat="44.84912" lon="-0.52654">
        <ele>64.07</ele>
        <time>2016-04-14T09:06:03Z</time>
      </trkpt>
      <trkpt lat="44.84912" lon="-0.52628">
        <ele>63.1</ele>
        <time>2016-04-14T09:06:21Z</time>
      </trkpt>
      <trkpt lat="44.84913" lon="-0.52614">
        <ele>62.62</ele>
        <time>2016-04-14T09:06:29Z</time>
      </trkpt>
      <trkpt lat="44.84914" lon="-0.52589">
        <ele>62.14</ele>
        <time>2016-04-14T09:06:45Z</time>
      </trkpt>
      <trkpt lat="44.84916" lon="-0.52563">
        <ele>61.18</ele>
        <time>2016-04-14T09:07:01Z</time>
      </trkpt>
      <trkpt lat="44.84918" lon="-0.52534">
        <ele>60.7</ele>
        <time>2016-04-14T09:07:18Z</time>
      </trkpt>
      <trkpt lat="44.84915" lon="-0.52518">
        <ele>60.22</ele>
        <time>2016-04-14T09:07:30Z</time>
      </trkpt>
      <trkpt lat="44.84903" lon="-0.52508">
        <ele>58.78</ele>
        <time>2016-04-14T09:07:44Z</time>
      </trkpt>
      <trkpt lat="44.84886" lon="-0.52514">
        <ele>57.34</ele>
        <time>2016-04-14T09:08:02Z</time>
      </trkpt>
      <trkpt lat="44.84869" lon="-0.52522">
        <ele>56.86</ele>
        <time>2016-04-14T09:08:19Z</time>
      </trkpt>
      <trkpt lat="44.84853" lon="-0.52528">
        <ele>56.37</ele>
        <time>2016-04-14T09:08:36Z</time>
      </trkpt>
      <trkpt lat="44.84832" lon="-0.52534">
        <ele>55.89</ele>
        <time>2016-04-14T09:08:53Z</time>
      </trkpt>
      <trkpt lat="44.84813" lon="-0.52541">
        <ele>55.41</ele>
        <time>2016-04-14T09:09:11Z</time>
      </trkpt>
      <trkpt lat="44.84795" lon="-0.52548">
        <ele>55.41</ele>
        <time>2016-04-14T09:09:27Z</time>
      </trkpt>
      <trkpt lat="44.84777" lon="-0.52552">
        <ele>54.93</ele>
        <time>2016-04-14T09:09:44Z</time>
      </trkpt>
      <trkpt lat="44.84771" lon="-0.52551">
        <ele>54.45</ele>
        <time>2016-04-14T09:09:57Z</time>
      </trkpt>
      <trkpt lat="44.84764" lon="-0.52547">
        <ele>53.97</ele>
        <time>2016-04-14T09:10:11Z</time>
      </trkpt>
      <trkpt lat="44.84756" lon="-0.52546">
        <ele>53.49</ele>
        <time>2016-04-14T09:10:36Z</time>
      </trkpt>
      <trkpt lat="44.84758" lon="-0.52539">
        <ele>53.49</ele>
        <time>2016-04-14T09:10:57Z</time>
      </trkpt>
      <trkpt lat="44.84761" lon="-0.52539">
        <ele>53.01</ele>
        <time>2016-04-14T09:11:33Z</time>
      </trkpt>
      <trkpt lat="44.84756" lon="-0.52544">
        <ele>53.01</ele>
        <time>2016-04-14T09:11:53Z</time>
      </trkpt>
      <trkpt lat="44.84745" lon="-0.52548">
        <ele>52.53</ele>
        <time>2016-04-14T09:12:06Z</time>
      </trkpt>
      <trkpt lat="44.84729" lon="-0.52554">
        <ele>51.57</ele>
        <time>2016-04-14T09:12:22Z</time>
      </trkpt>
      <trkpt lat="44.84724" lon="-0.52558">
        <ele>51.09</ele>
        <time>2016-04-14T09:12:28Z</time>
      </trkpt>
      <trkpt lat="44.84707" lon="-0.52563">
        <ele>50.13</ele>
        <time>2016-04-14T09:12:46Z</time>
      </trkpt>
      <trkpt lat="44.84705" lon="-0.52564">
        <ele>50.13</ele>
        <time>2016-04-14T09:12:48Z</time>
      </trkpt>
      <trkpt lat="44.84692" lon="-0.52586">
        <ele>49.65</ele>
        <time>2016-04-14T09:13:06Z</time>
      </trkpt>
      <trkpt lat="44.84684" lon="-0.52596">
        <ele>48.68</ele>
        <time>2016-04-14T09:13:20Z</time>
      </trkpt>
      <trkpt lat="44.84668" lon="-0.52601">
        <ele>48.2</ele>
        <time>2016-04-14T09:13:37Z</time>
      </trkpt>
      <trkpt lat="44.84652" lon="-0.52599">
        <ele>47.72</ele>
        <time>2016-04-14T09:13:52Z</time>
      </trkpt>
      <trkpt lat="44.84638" lon="-0.52599">
        <ele>46.76</ele>
        <time>2016-04-14T09:14:07Z</time>
      </trkpt>
      <trkpt lat="44.84624" lon="-0.52606">
        <ele>46.76</ele>
        <time>2016-04-14T09:14:22Z</time>
      </trkpt>
      <trkpt lat="44.84609" lon="-0.52617">
        <ele>46.28</ele>
        <time>2016-04-14T09:14:39Z</time>
      </trkpt>
      <trkpt lat="44.84601" lon="-0.52627">
        <ele>46.28</ele>
        <time>2016-04-14T09:14:54Z</time>
      </trkpt>
      <trkpt lat="44.84599" lon="-0.52631">
        <ele>45.32</ele>
        <time>2016-04-14T09:15:22Z</time>
      </trkpt>
      <trkpt lat="44.846" lon="-0.52631">
        <ele>44.84</ele>
        <time>2016-04-14T09:15:37Z</time>
      </trkpt>
      <trkpt lat="44.84598" lon="-0.52627">
        <ele>44.36</ele>
        <time>2016-04-14T09:15:51Z</time>
      </trkpt>
      <trkpt lat="44.84595" lon="-0.52628">
        <ele>44.36</ele>
        <time>2016-04-14T09:16:12Z</time>
      </trkpt>
      <trkpt lat="44.84583" lon="-0.52633">
        <ele>44.36</ele>
        <time>2016-04-14T09:16:27Z</time>
      </trkpt>
      <trkpt lat="44.84575" lon="-0.52636">
        <ele>45.8</ele>
        <time>2016-04-14T09:16:42Z</time>
      </trkpt>
      <trkpt lat="44.84561" lon="-0.52635">
        <ele>46.76</ele>
        <time>2016-04-14T09:16:59Z</time>
      </trkpt>
      <trkpt lat="44.84546" lon="-0.52635">
        <ele>47.24</ele>
        <time>2016-04-14T09:17:13Z</time>
      </trkpt>
      <trkpt lat="44.84529" lon="-0.52637">
        <ele>48.2</ele>
        <time>2016-04-14T09:17:29Z</time>
      </trkpt>
      <trkpt lat="44.84518" lon="-0.52645">
        <ele>48.68</ele>
        <time>2016-04-14T09:17:42Z</time>
      </trkpt>
      <trkpt lat="44.84507" lon="-0.52657">
        <ele>49.16</ele>
        <time>2016-04-14T09:17:56Z</time>
      </trkpt>
      <trkpt lat="44.84499" lon="-0.52671">
        <ele>50.13</ele>
        <time>2016-04-14T09:18:10Z</time>
      </trkpt>
      <trkpt lat="44.84489" lon="-0.52682">
        <ele>50.61</ele>
        <time>2016-04-14T09:18:23Z</time>
      </trkpt>
      <trkpt lat="44.84487" lon="-0.52685">
        <ele>51.57</ele>
        <time>2016-04-14T09:18:37Z</time>
      </trkpt>
      <trkpt lat="44.84489" lon="-0.52684">
        <ele>53.01</ele>
        <time>2016-04-14T09:18:52Z</time>
      </trkpt>
      <trkpt lat="44.84484" lon="-0.527">
        <ele>53.97</ele>
        <time>2016-04-14T09:19:09Z</time>
      </trkpt>
      <trkpt lat="44.84472" lon="-0.5271">
        <ele>54.45</ele>
        <time>2016-04-14T09:19:24Z</time>
      </trkpt>
      <trkpt lat="44.84458" lon="-0.52721">
        <ele>54.45</ele>
        <time>2016-04-14T09:19:39Z</time>
      </trkpt>
      <trkpt lat="44.84452" lon="-0.52737">
        <ele>54.93</ele>
        <time>2016-04-14T09:19:53Z</time>
      </trkpt>
      <trkpt lat="44.84451" lon="-0.5274">
        <ele>54.93</ele>
        <time>2016-04-14T09:19:55Z</time>
      </trkpt>
      <trkpt lat="44.8445" lon="-0.52757">
        <ele>55.41</ele>
        <time>2016-04-14T09:20:10Z</time>
      </trkpt>
      <trkpt lat="44.84452" lon="-0.52763">
        <ele>55.41</ele>
        <time>2016-04-14T09:20:31Z</time>
      </trkpt>
      <trkpt lat="44.84454" lon="-0.52766">
        <ele>55.41</ele>
        <time>2016-04-14T09:20:50Z</time>
      </trkpt>
      <trkpt lat="44.84455" lon="-0.52769">
        <ele>55.41</ele>
        <time>2016-04-14T09:21:11Z</time>
      </trkpt>
      <trkpt lat="44.84451" lon="-0.52772">
        <ele>55.89</ele>
        <time>2016-04-14T09:21:30Z</time>
      </trkpt>
      <trkpt lat="44.84452" lon="-0.52773">
        <ele>55.89</ele>
        <time>2016-04-14T09:21:46Z</time>
      </trkpt>
      <trkpt lat="44.8446" lon="-0.52777">
        <ele>56.37</ele>
        <time>2016-04-14T09:22:02Z</time>
      </trkpt>
      <trkpt lat="44.84465" lon="-0.5278">
        <ele>56.37</ele>
        <time>2016-04-14T09:22:12Z</time>
      </trkpt>
      <trkpt lat="44.84473" lon="-0.52785">
        <ele>56.86</ele>
        <time>2016-04-14T09:22:25Z</time>
      </trkpt>
      <trkpt lat="44.84484" lon="-0.52788">
        <ele>56.86</ele>
        <time>2016-04-14T09:22:43Z</time>
      </trkpt>
      <trkpt lat="44.84497" lon="-0.52792">
        <ele>57.82</ele>
        <time>2016-04-14T09:22:59Z</time>
      </trkpt>
      <trkpt lat="44.84512" lon="-0.52794">
        <ele>58.78</ele>
        <time>2016-04-14T09:23:15Z</time>
      </trkpt>
      <trkpt lat="44.84534" lon="-0.52796">
        <ele>61.18</ele>
        <time>2016-04-14T09:23:33Z</time>
      </trkpt>
      <trkpt lat="44.84544" lon="-0.52795">
        <ele>62.14</ele>
        <time>2016-04-14T09:23:42Z</time>
      </trkpt>
      <trkpt lat="44.84563" lon="-0.52796">
        <ele>63.58</ele>
        <time>2016-04-14T09:23:58Z</time>
      </trkpt>
      <trkpt lat="44.84577" lon="-0.52799">
        <ele>64.07</ele>
        <time>2016-04-14T09:24:11Z</time>
      </trkpt>
      <trkpt lat="44.84582" lon="-0.528">
        <ele>64.07</ele>
        <time>2016-04-14T09:24:16Z</time>
      </trkpt>
      <trkpt lat="44.84597" lon="-0.52808">
        <ele>65.51</ele>
        <time>2016-04-14T09:24:30Z</time>
      </trkpt>
      <trkpt lat="44.84611" lon="-0.52815">
        <ele>66.47</ele>
        <time>2016-04-14T09:24:43Z</time>
      </trkpt>
      <trkpt lat="44.84619" lon="-0.5282">
        <ele>66.47</ele>
        <time>2016-04-14T09:24:57Z</time>
      </trkpt>
      <trkpt lat="44.84628" lon="-0.52818">
        <ele>67.43</ele>
        <time>2016-04-14T09:25:09Z</time>
      </trkpt>
      <trkpt lat="44.8464" lon="-0.52817">
        <ele>67.43</ele>
        <time>2016-04-14T09:25:22Z</time>
      </trkpt>
      <trkpt lat="44.84659" lon="-0.52815">
        <ele>68.39</ele>
        <time>2016-04-14T09:25:38Z</time>
      </trkpt>
      <trkpt lat="44.84679" lon="-0.5281">
        <ele>69.35</ele>
        <time>2016-04-14T09:25:55Z</time>
      </trkpt>
      <trkpt lat="44.84683" lon="-0.5281">
        <ele>69.35</ele>
        <time>2016-04-14T09:25:57Z</time>
      </trkpt>
      <trkpt lat="44.84695" lon="-0.52824">
        <ele>71.27</ele>
        <time>2016-04-14T09:26:12Z</time>
      </trkpt>
      <trkpt lat="44.84707" lon="-0.52845">
        <ele>73.2</ele>
        <time>2016-04-14T09:26:28Z</time>
      </trkpt>
      <trkpt lat="44.84719" lon="-0.52859">
        <ele>74.64</ele>
        <time>2016-04-14T09:26:42Z</time>
      </trkpt>
      <trkpt lat="44.8473" lon="-0.52866">
        <ele>75.12</ele>
        <time>2016-04-14T09:26:57Z</time>
      </trkpt>
      <trkpt lat="44.84734" lon="-0.52865">
        <ele>75.12</ele>
        <time>2016-04-14T09:27:02Z</time>
      </trkpt>
      <trkpt lat="44.84754" lon="-0.52865">
        <ele>75.12</ele>
        <time>2016-04-14T09:27:20Z</time>
      </trkpt>
      <trkpt lat="44.84774" lon="-0.52867">
        <ele>75.12</ele>
        <time>2016-04-14T09:27:37Z</time>
      </trkpt>
      <trkpt lat="44.8479" lon="-0.52871">
        <ele>75.12</ele>
        <time>2016-04-14T09:27:51Z</time>
      </trkpt>
      <trkpt lat="44.84805" lon="-0.5287">
        <ele>75.12</ele>
        <time>2016-04-14T09:28:04Z</time>
      </trkpt>
      <trkpt lat="44.84808" lon="-0.5287">
        <ele>75.6</ele>
        <time>2016-04-14T09:28:06Z</time>
      </trkpt>
      <trkpt lat="44.84829" lon="-0.52868">
        <ele>74.64</ele>
        <time>2016-04-14T09:28:21Z</time>
      </trkpt>
      <trkpt lat="44.84846" lon="-0.52867">
        <ele>74.64</ele>
        <time>2016-04-14T09:28:36Z</time>
      </trkpt>
      <trkpt lat="44.84862" lon="-0.52868">
        <ele>75.12</ele>
        <time>2016-04-14T09:28:51Z</time>
      </trkpt>
      <trkpt lat="44.84863" lon="-0.52869">
        <ele>75.12</ele>
        <time>2016-04-14T09:28:52Z</time>
      </trkpt>
      <trkpt lat="44.8487" lon="-0.52868">
        <ele>75.12</ele>
        <time>2016-04-14T09:28:56Z</time>
      </trkpt>
      <trkpt lat="44.84874" lon="-0.52892">
        <ele>75.6</ele>
        <time>2016-04-14T09:29:12Z</time>
      </trkpt>
      <trkpt lat="44.84879" lon="-0.52902">
        <ele>75.6</ele>
        <time>2016-04-14T09:29:19Z</time>
      </trkpt>
      <trkpt lat="44.84895" lon="-0.52912">
        <ele>75.6</ele>
        <time>2016-04-14T09:29:35Z</time>
      </trkpt>
      <trkpt lat="44.84902" lon="-0.52914">
        <ele>75.6</ele>
        <time>2016-04-14T09:29:42Z</time>
      </trkpt>
      <trkpt lat="44.84915" lon="-0.52929">
        <ele>75.6</ele>
        <time>2016-04-14T09:29:57Z</time>
      </trkpt>
      <trkpt lat="44.84915" lon="-0.52932">
        <ele>77.04</ele>
        <time>2016-04-14T09:30:11Z</time>
      </trkpt>
      <trkpt lat="44.84916" lon="-0.52937">
        <ele>76.08</ele>
        <time>2016-04-14T09:30:30Z</time>
      </trkpt>
      <trkpt lat="44.84917" lon="-0.52939">
        <ele>76.08</ele>
        <time>2016-04-14T09:30:38Z</time>
      </trkpt>
    </trkseg>
  </trk>
</gpx>