<?xml version="1.0" encoding="UTF-8" standalone="no" ?>
<gpx xmlns="http://www.topografix.com/GPX/1/1" xmlns:xsi="http://www.w3.org/2001/XMLSchema-instance" xsi:schemaLocation="http://www.topografix.com/GPX/1/1 http://www.topografix.com/GPX/1/1/gpx.xsd" version="1.1" creator="VisuGPX - https://www.visugpx.com">
  <metadata>
    <name>Hackenberg, le plus gros ouvrage de la Ligne Maginot</name>
    <desc><![CDATA[Départ : parking devant l Entrée du Matériel EM. Suivre balisage anneau vert du club vosgien pour monter vers l Entrée des Hommes EH ; 1100 soldats et officiers composaient l équipage de l ouvrage. Continuer vers la chapelle du Hackenberg. Les blocs d observation n°11 et n°12, de part et d autre de la chapelle,  se trouvent à 100 m au-dessus des galeries et du poste de commandement de l ouvrage. À partir de la chapelle suivre le balisage chevalet vert qui passe à proximité des blocs de combat. Sur la façade du bloc n°24 remarquer la date de construction : 1933. Continuer vers les blocs du demi-fort Ouest : numéro 10 ; puis n°8 fortement endommagé lors des combats en novembre 1944 ; n°7 monter l escalier à gauche de l ouvrage vers le bloc n°9. Belle vue sur la vallée de la Moselle et les tours de réfrigération de la centrale nucléaire de Cattenom. Le bloc n°25 est situé au début du fossé antichar que l on longe sur 1,1 km en passant près des blocs n°24, n°23, n°22, n°21. Le chemin continue sur le demi-fort Est : blocs n°2, n°3, n°5. Aller-retour de 100 m  pour aller au bloc n°6. Continuer sur chemin non balisé. Après avoir franchi le CD60, suivre balisage rectangle blanc et rouge sur ancienne route militaire. Faire un petit crochet vers le cimetière de Kemplich et son église reconstruite en 1755. Environ 1 km après l abri des Chênes Brûlés, quitter le chemin balisé et descendre à droite vers Veckring. Franchir de nouveau le CD60 au niveau du char américain « Destroyer ». Monter vers le parking de l Entrée du Matériel EM (toilettes et grande aire de pique-nique). L après-midi visite, pendant deux heures, de l intérieur de l ouvrage. Le petit train militaire emmènera 50 passagers à 15 km/h jusqu%u2019au bloc 9 à 1,5 km de l entrée en 6 mn (emmener vêtements chauds).
http://www.clubvosgienbitche.fr/NotreGuide.html
]]></desc>
  </metadata>
  <trk>
    <name><![CDATA[Hackenberg]]></name>
    <trkseg>
      <trkpt lat="49.34113" lon="6.36531">
        <ele>249</ele>
      </trkpt>
      <trkpt lat="49.34122" lon="6.36532">
        <ele>249</ele>
      </trkpt>
      <trkpt lat="49.34126" lon="6.3653">
        <ele>250</ele>
      </trkpt>
      <trkpt lat="49.34128" lon="6.36531">
        <ele>250</ele>
      </trkpt>
      <trkpt lat="49.34132" lon="6.36536">
        <ele>203</ele>
      </trkpt>
      <trkpt lat="49.34137" lon="6.36536">
        <ele>202</ele>
      </trkpt>
      <trkpt lat="49.34137" lon="6.36536">
        <ele>202</ele>
      </trkpt>
      <trkpt lat="49.34137" lon="6.36536">
        <ele>202</ele>
      </trkpt>
      <trkpt lat="49.34125" lon="6.36544">
        <ele>201</ele>
      </trkpt>
      <trkpt lat="49.34119" lon="6.36549">
        <ele>201</ele>
      </trkpt>
      <trkpt lat="49.3413" lon="6.36558">
        <ele>250</ele>
      </trkpt>
      <trkpt lat="49.34133" lon="6.36569">
        <ele>250</ele>
      </trkpt>
      <trkpt lat="49.34137" lon="6.36576">
        <ele>251</ele>
      </trkpt>
      <trkpt lat="49.34119" lon="6.36619">
        <ele>250</ele>
      </trkpt>
      <trkpt lat="49.34108" lon="6.36645">
        <ele>203</ele>
      </trkpt>
      <trkpt lat="49.34109" lon="6.3665">
        <ele>203</ele>
      </trkpt>
      <trkpt lat="49.34106" lon="6.36663">
        <ele>203</ele>
      </trkpt>
      <trkpt lat="49.341" lon="6.36702">
        <ele>204</ele>
      </trkpt>
      <trkpt lat="49.34106" lon="6.36735">
        <ele>203</ele>
      </trkpt>
      <trkpt lat="49.3412" lon="6.3677">
        <ele>204</ele>
      </trkpt>
      <trkpt lat="49.34122" lon="6.36772">
        <ele>203</ele>
      </trkpt>
      <trkpt lat="49.34134" lon="6.36804">
        <ele>203</ele>
      </trkpt>
      <trkpt lat="49.34139" lon="6.36828">
        <ele>203</ele>
      </trkpt>
      <trkpt lat="49.34139" lon="6.36867">
        <ele>202</ele>
      </trkpt>
      <trkpt lat="49.34142" lon="6.3691">
        <ele>203</ele>
      </trkpt>
      <trkpt lat="49.34156" lon="6.36949">
        <ele>204</ele>
      </trkpt>
      <trkpt lat="49.3418" lon="6.36976">
        <ele>204</ele>
      </trkpt>
      <trkpt lat="49.34203" lon="6.36965">
        <ele>202</ele>
      </trkpt>
      <trkpt lat="49.34213" lon="6.36942">
        <ele>202</ele>
      </trkpt>
      <trkpt lat="49.34213" lon="6.36941">
        <ele>202</ele>
      </trkpt>
      <trkpt lat="49.3423" lon="6.36904">
        <ele>203</ele>
      </trkpt>
      <trkpt lat="49.34248" lon="6.36885">
        <ele>202</ele>
      </trkpt>
      <trkpt lat="49.34272" lon="6.36868">
        <ele>202</ele>
      </trkpt>
      <trkpt lat="49.34299" lon="6.36849">
        <ele>202</ele>
      </trkpt>
      <trkpt lat="49.34314" lon="6.36823">
        <ele>200</ele>
      </trkpt>
      <trkpt lat="49.34313" lon="6.36819">
        <ele>199</ele>
      </trkpt>
      <trkpt lat="49.34313" lon="6.36819">
        <ele>199</ele>
      </trkpt>
      <trkpt lat="49.34313" lon="6.36818">
        <ele>199</ele>
      </trkpt>
      <trkpt lat="49.34313" lon="6.36818">
        <ele>199</ele>
      </trkpt>
      <trkpt lat="49.34313" lon="6.36818">
        <ele>199</ele>
      </trkpt>
      <trkpt lat="49.34313" lon="6.36818">
        <ele>199</ele>
      </trkpt>
      <trkpt lat="49.34313" lon="6.36818">
        <ele>199</ele>
      </trkpt>
      <trkpt lat="49.34315" lon="6.36813">
        <ele>199</ele>
      </trkpt>
      <trkpt lat="49.34317" lon="6.36806">
        <ele>199</ele>
      </trkpt>
      <trkpt lat="49.34315" lon="6.36795">
        <ele>198</ele>
      </trkpt>
      <trkpt lat="49.34291" lon="6.36771">
        <ele>204</ele>
      </trkpt>
      <trkpt lat="49.34271" lon="6.36786">
        <ele>209</ele>
      </trkpt>
      <trkpt lat="49.34255" lon="6.368">
        <ele>211</ele>
      </trkpt>
      <trkpt lat="49.34227" lon="6.36801">
        <ele>213</ele>
      </trkpt>
      <trkpt lat="49.34208" lon="6.36765">
        <ele>208</ele>
      </trkpt>
      <trkpt lat="49.34193" lon="6.36729">
        <ele>208</ele>
      </trkpt>
      <trkpt lat="49.34189" lon="6.36694">
        <ele>213</ele>
      </trkpt>
      <trkpt lat="49.34198" lon="6.36662">
        <ele>215</ele>
      </trkpt>
      <trkpt lat="49.3421" lon="6.36624">
        <ele>222</ele>
      </trkpt>
      <trkpt lat="49.3423" lon="6.36592">
        <ele>226</ele>
      </trkpt>
      <trkpt lat="49.3425" lon="6.36575">
        <ele>225</ele>
      </trkpt>
      <trkpt lat="49.3426" lon="6.36546">
        <ele>223</ele>
      </trkpt>
      <trkpt lat="49.34247" lon="6.36507">
        <ele>227</ele>
      </trkpt>
      <trkpt lat="49.34233" lon="6.36473">
        <ele>226</ele>
      </trkpt>
      <trkpt lat="49.3422" lon="6.36442">
        <ele>221</ele>
      </trkpt>
      <trkpt lat="49.34219" lon="6.36441">
        <ele>222</ele>
      </trkpt>
      <trkpt lat="49.34193" lon="6.36411">
        <ele>226</ele>
      </trkpt>
      <trkpt lat="49.34183" lon="6.364">
        <ele>225</ele>
      </trkpt>
      <trkpt lat="49.34172" lon="6.36369">
        <ele>223</ele>
      </trkpt>
      <trkpt lat="49.3417" lon="6.36363">
        <ele>223</ele>
      </trkpt>
      <trkpt lat="49.34166" lon="6.36356">
        <ele>223</ele>
      </trkpt>
      <trkpt lat="49.34161" lon="6.3635">
        <ele>224</ele>
      </trkpt>
      <trkpt lat="49.34139" lon="6.36335">
        <ele>227</ele>
      </trkpt>
      <trkpt lat="49.34119" lon="6.36315">
        <ele>229</ele>
      </trkpt>
      <trkpt lat="49.34104" lon="6.36299">
        <ele>229</ele>
      </trkpt>
      <trkpt lat="49.34079" lon="6.36274">
        <ele>234</ele>
      </trkpt>
      <trkpt lat="49.34078" lon="6.36273">
        <ele>235</ele>
      </trkpt>
      <trkpt lat="49.34073" lon="6.36264">
        <ele>234</ele>
      </trkpt>
      <trkpt lat="49.34061" lon="6.36233">
        <ele>233</ele>
      </trkpt>
      <trkpt lat="49.34054" lon="6.36197">
        <ele>228</ele>
      </trkpt>
      <trkpt lat="49.34053" lon="6.36193">
        <ele>228</ele>
      </trkpt>
      <trkpt lat="49.34053" lon="6.36182">
        <ele>228</ele>
      </trkpt>
      <trkpt lat="49.34054" lon="6.36149">
        <ele>226</ele>
      </trkpt>
      <trkpt lat="49.34061" lon="6.36122">
        <ele>235</ele>
      </trkpt>
      <trkpt lat="49.34064" lon="6.36112">
        <ele>237</ele>
      </trkpt>
      <trkpt lat="49.34066" lon="6.36108">
        <ele>237</ele>
      </trkpt>
      <trkpt lat="49.34071" lon="6.36101">
        <ele>237</ele>
      </trkpt>
      <trkpt lat="49.34078" lon="6.36081">
        <ele>240</ele>
      </trkpt>
      <trkpt lat="49.34084" lon="6.3606">
        <ele>240</ele>
      </trkpt>
      <trkpt lat="49.34093" lon="6.36033">
        <ele>238</ele>
      </trkpt>
      <trkpt lat="49.34093" lon="6.36031">
        <ele>238</ele>
      </trkpt>
      <trkpt lat="49.34098" lon="6.36004">
        <ele>236</ele>
      </trkpt>
      <trkpt lat="49.34098" lon="6.35991">
        <ele>237</ele>
      </trkpt>
      <trkpt lat="49.34099" lon="6.35964">
        <ele>237</ele>
      </trkpt>
      <trkpt lat="49.34097" lon="6.35955">
        <ele>240</ele>
      </trkpt>
      <trkpt lat="49.34096" lon="6.35947">
        <ele>240</ele>
      </trkpt>
      <trkpt lat="49.34094" lon="6.35914">
        <ele>238</ele>
      </trkpt>
      <trkpt lat="49.34094" lon="6.35909">
        <ele>238</ele>
      </trkpt>
      <trkpt lat="49.34095" lon="6.35901">
        <ele>236</ele>
      </trkpt>
      <trkpt lat="49.34094" lon="6.35891">
        <ele>235</ele>
      </trkpt>
      <trkpt lat="49.34095" lon="6.35875">
        <ele>233</ele>
      </trkpt>
      <trkpt lat="49.34093" lon="6.35842">
        <ele>228</ele>
      </trkpt>
      <trkpt lat="49.34093" lon="6.35837">
        <ele>228</ele>
      </trkpt>
      <trkpt lat="49.34093" lon="6.35831">
        <ele>227</ele>
      </trkpt>
      <trkpt lat="49.34092" lon="6.35807">
        <ele>229</ele>
      </trkpt>
      <trkpt lat="49.34091" lon="6.35794">
        <ele>231</ele>
      </trkpt>
      <trkpt lat="49.34092" lon="6.35764">
        <ele>240</ele>
      </trkpt>
      <trkpt lat="49.34091" lon="6.35755">
        <ele>241</ele>
      </trkpt>
      <trkpt lat="49.34097" lon="6.35733">
        <ele>245</ele>
      </trkpt>
      <trkpt lat="49.34096" lon="6.35729">
        <ele>245</ele>
      </trkpt>
      <trkpt lat="49.34087" lon="6.35707">
        <ele>250</ele>
      </trkpt>
      <trkpt lat="49.341" lon="6.35724">
        <ele>260</ele>
      </trkpt>
      <trkpt lat="49.34102" lon="6.35727">
        <ele>260</ele>
      </trkpt>
      <trkpt lat="49.34109" lon="6.35738">
        <ele>264</ele>
      </trkpt>
      <trkpt lat="49.34111" lon="6.35743">
        <ele>264</ele>
      </trkpt>
      <trkpt lat="49.34114" lon="6.3575">
        <ele>265</ele>
      </trkpt>
      <trkpt lat="49.34118" lon="6.35763">
        <ele>266</ele>
      </trkpt>
      <trkpt lat="49.34119" lon="6.35771">
        <ele>266</ele>
      </trkpt>
      <trkpt lat="49.34121" lon="6.35782">
        <ele>266</ele>
      </trkpt>
      <trkpt lat="49.34124" lon="6.35792">
        <ele>266</ele>
      </trkpt>
      <trkpt lat="49.34126" lon="6.358">
        <ele>266</ele>
      </trkpt>
      <trkpt lat="49.34128" lon="6.35813">
        <ele>266</ele>
      </trkpt>
      <trkpt lat="49.34127" lon="6.35817">
        <ele>265</ele>
      </trkpt>
      <trkpt lat="49.34134" lon="6.35844">
        <ele>264</ele>
      </trkpt>
      <trkpt lat="49.34137" lon="6.35859">
        <ele>265</ele>
      </trkpt>
      <trkpt lat="49.3414" lon="6.35871">
        <ele>268</ele>
      </trkpt>
      <trkpt lat="49.34143" lon="6.35882">
        <ele>271</ele>
      </trkpt>
      <trkpt lat="49.34145" lon="6.35893">
        <ele>272</ele>
      </trkpt>
      <trkpt lat="49.34154" lon="6.3592">
        <ele>272</ele>
      </trkpt>
      <trkpt lat="49.34154" lon="6.35921">
        <ele>272</ele>
      </trkpt>
      <trkpt lat="49.3416" lon="6.35944">
        <ele>273</ele>
      </trkpt>
      <trkpt lat="49.34161" lon="6.35948">
        <ele>273</ele>
      </trkpt>
      <trkpt lat="49.34163" lon="6.35955">
        <ele>273</ele>
      </trkpt>
      <trkpt lat="49.34168" lon="6.35973">
        <ele>272</ele>
      </trkpt>
      <trkpt lat="49.3417" lon="6.35999">
        <ele>271</ele>
      </trkpt>
      <trkpt lat="49.34173" lon="6.36005">
        <ele>270</ele>
      </trkpt>
      <trkpt lat="49.34175" lon="6.36016">
        <ele>271</ele>
      </trkpt>
      <trkpt lat="49.34184" lon="6.36037">
        <ele>271</ele>
      </trkpt>
      <trkpt lat="49.34187" lon="6.36043">
        <ele>270</ele>
      </trkpt>
      <trkpt lat="49.34189" lon="6.36048">
        <ele>269</ele>
      </trkpt>
      <trkpt lat="49.34204" lon="6.3608">
        <ele>271</ele>
      </trkpt>
      <trkpt lat="49.34222" lon="6.36111">
        <ele>275</ele>
      </trkpt>
      <trkpt lat="49.34234" lon="6.36138">
        <ele>276</ele>
      </trkpt>
      <trkpt lat="49.34238" lon="6.36147">
        <ele>275</ele>
      </trkpt>
      <trkpt lat="49.34248" lon="6.36168">
        <ele>277</ele>
      </trkpt>
      <trkpt lat="49.34261" lon="6.36198">
        <ele>276</ele>
      </trkpt>
      <trkpt lat="49.34274" lon="6.36231">
        <ele>272</ele>
      </trkpt>
      <trkpt lat="49.34289" lon="6.36269">
        <ele>270</ele>
      </trkpt>
      <trkpt lat="49.34303" lon="6.36296">
        <ele>269</ele>
      </trkpt>
      <trkpt lat="49.34321" lon="6.36326">
        <ele>272</ele>
      </trkpt>
      <trkpt lat="49.34325" lon="6.36335">
        <ele>273</ele>
      </trkpt>
      <trkpt lat="49.3434" lon="6.3637">
        <ele>275</ele>
      </trkpt>
      <trkpt lat="49.34345" lon="6.3638">
        <ele>274</ele>
      </trkpt>
      <trkpt lat="49.34349" lon="6.3639">
        <ele>273</ele>
      </trkpt>
      <trkpt lat="49.34362" lon="6.36419">
        <ele>272</ele>
      </trkpt>
      <trkpt lat="49.34372" lon="6.36434">
        <ele>270</ele>
      </trkpt>
      <trkpt lat="49.34388" lon="6.36457">
        <ele>272</ele>
      </trkpt>
      <trkpt lat="49.34399" lon="6.36475">
        <ele>274</ele>
      </trkpt>
      <trkpt lat="49.34416" lon="6.36504">
        <ele>274</ele>
      </trkpt>
      <trkpt lat="49.34435" lon="6.36534">
        <ele>278</ele>
      </trkpt>
      <trkpt lat="49.34452" lon="6.36557">
        <ele>281</ele>
      </trkpt>
      <trkpt lat="49.34461" lon="6.36566">
        <ele>283</ele>
      </trkpt>
      <trkpt lat="49.34467" lon="6.3657">
        <ele>283</ele>
      </trkpt>
      <trkpt lat="49.3447" lon="6.36574">
        <ele>283</ele>
      </trkpt>
      <trkpt lat="49.3447" lon="6.36574">
        <ele>283</ele>
      </trkpt>
      <trkpt lat="49.34475" lon="6.36576">
        <ele>283</ele>
      </trkpt>
      <trkpt lat="49.34481" lon="6.36583">
        <ele>283</ele>
      </trkpt>
      <trkpt lat="49.34506" lon="6.36596">
        <ele>280</ele>
      </trkpt>
      <trkpt lat="49.34539" lon="6.36609">
        <ele>280</ele>
      </trkpt>
      <trkpt lat="49.34568" lon="6.36622">
        <ele>273</ele>
      </trkpt>
      <trkpt lat="49.34593" lon="6.36631">
        <ele>275</ele>
      </trkpt>
      <trkpt lat="49.34596" lon="6.36634">
        <ele>275</ele>
      </trkpt>
      <trkpt lat="49.34596" lon="6.36634">
        <ele>275</ele>
      </trkpt>
      <trkpt lat="49.34596" lon="6.36634">
        <ele>275</ele>
      </trkpt>
      <trkpt lat="49.34606" lon="6.36638">
        <ele>271</ele>
      </trkpt>
      <trkpt lat="49.34609" lon="6.3664">
        <ele>271</ele>
      </trkpt>
      <trkpt lat="49.34625" lon="6.36648">
        <ele>272</ele>
      </trkpt>
      <trkpt lat="49.34634" lon="6.36657">
        <ele>273</ele>
      </trkpt>
      <trkpt lat="49.34649" lon="6.36681">
        <ele>271</ele>
      </trkpt>
      <trkpt lat="49.34666" lon="6.36704">
        <ele>275</ele>
      </trkpt>
      <trkpt lat="49.34674" lon="6.36711">
        <ele>275</ele>
      </trkpt>
      <trkpt lat="49.34691" lon="6.36735">
        <ele>274</ele>
      </trkpt>
      <trkpt lat="49.34705" lon="6.36755">
        <ele>273</ele>
      </trkpt>
      <trkpt lat="49.34712" lon="6.36766">
        <ele>275</ele>
      </trkpt>
      <trkpt lat="49.34725" lon="6.36787">
        <ele>274</ele>
      </trkpt>
      <trkpt lat="49.34731" lon="6.36795">
        <ele>273</ele>
      </trkpt>
      <trkpt lat="49.34754" lon="6.36821">
        <ele>271</ele>
      </trkpt>
      <trkpt lat="49.3476" lon="6.3683">
        <ele>271</ele>
      </trkpt>
      <trkpt lat="49.34772" lon="6.36847">
        <ele>274</ele>
      </trkpt>
      <trkpt lat="49.34793" lon="6.36859">
        <ele>277</ele>
      </trkpt>
      <trkpt lat="49.34818" lon="6.36864">
        <ele>282</ele>
      </trkpt>
      <trkpt lat="49.34827" lon="6.36862">
        <ele>285</ele>
      </trkpt>
      <trkpt lat="49.34832" lon="6.36859">
        <ele>286</ele>
      </trkpt>
      <trkpt lat="49.34835" lon="6.36864">
        <ele>287</ele>
      </trkpt>
      <trkpt lat="49.34842" lon="6.36875">
        <ele>286</ele>
      </trkpt>
      <trkpt lat="49.34844" lon="6.36891">
        <ele>287</ele>
      </trkpt>
      <trkpt lat="49.34845" lon="6.36893">
        <ele>287</ele>
      </trkpt>
      <trkpt lat="49.34843" lon="6.3689">
        <ele>290</ele>
      </trkpt>
      <trkpt lat="49.3483" lon="6.3689">
        <ele>291</ele>
      </trkpt>
      <trkpt lat="49.34826" lon="6.36891">
        <ele>290</ele>
      </trkpt>
      <trkpt lat="49.34829" lon="6.36899">
        <ele>289</ele>
      </trkpt>
      <trkpt lat="49.34828" lon="6.36912">
        <ele>289</ele>
      </trkpt>
      <trkpt lat="49.34829" lon="6.36917">
        <ele>289</ele>
      </trkpt>
      <trkpt lat="49.34832" lon="6.3693">
        <ele>291</ele>
      </trkpt>
      <trkpt lat="49.34839" lon="6.36944">
        <ele>292</ele>
      </trkpt>
      <trkpt lat="49.34839" lon="6.36929">
        <ele>291</ele>
      </trkpt>
      <trkpt lat="49.3484" lon="6.36928">
        <ele>291</ele>
      </trkpt>
      <trkpt lat="49.3484" lon="6.36928">
        <ele>291</ele>
      </trkpt>
      <trkpt lat="49.3484" lon="6.36928">
        <ele>291</ele>
      </trkpt>
      <trkpt lat="49.34838" lon="6.36929">
        <ele>291</ele>
      </trkpt>
      <trkpt lat="49.34838" lon="6.3693">
        <ele>291</ele>
      </trkpt>
      <trkpt lat="49.34838" lon="6.36953">
        <ele>291</ele>
      </trkpt>
      <trkpt lat="49.34838" lon="6.36969">
        <ele>289</ele>
      </trkpt>
      <trkpt lat="49.34844" lon="6.37">
        <ele>288</ele>
      </trkpt>
      <trkpt lat="49.3484" lon="6.37007">
        <ele>287</ele>
      </trkpt>
      <trkpt lat="49.34841" lon="6.37007">
        <ele>287</ele>
      </trkpt>
      <trkpt lat="49.3484" lon="6.3701">
        <ele>287</ele>
      </trkpt>
      <trkpt lat="49.34841" lon="6.3704">
        <ele>276</ele>
      </trkpt>
      <trkpt lat="49.34846" lon="6.3705">
        <ele>271</ele>
      </trkpt>
      <trkpt lat="49.34846" lon="6.37056">
        <ele>267</ele>
      </trkpt>
      <trkpt lat="49.34845" lon="6.3708">
        <ele>263</ele>
      </trkpt>
      <trkpt lat="49.34841" lon="6.37133">
        <ele>266</ele>
      </trkpt>
      <trkpt lat="49.34837" lon="6.37158">
        <ele>265</ele>
      </trkpt>
      <trkpt lat="49.34844" lon="6.37195">
        <ele>261</ele>
      </trkpt>
      <trkpt lat="49.34851" lon="6.37221">
        <ele>257</ele>
      </trkpt>
      <trkpt lat="49.34854" lon="6.37266">
        <ele>254</ele>
      </trkpt>
      <trkpt lat="49.34856" lon="6.37301">
        <ele>253</ele>
      </trkpt>
      <trkpt lat="49.34859" lon="6.37339">
        <ele>251</ele>
      </trkpt>
      <trkpt lat="49.34868" lon="6.37382">
        <ele>252</ele>
      </trkpt>
      <trkpt lat="49.34871" lon="6.37403">
        <ele>248</ele>
      </trkpt>
      <trkpt lat="49.34874" lon="6.37429">
        <ele>245</ele>
      </trkpt>
      <trkpt lat="49.34876" lon="6.37448">
        <ele>243</ele>
      </trkpt>
      <trkpt lat="49.34886" lon="6.3744">
        <ele>240</ele>
      </trkpt>
      <trkpt lat="49.34896" lon="6.37413">
        <ele>240</ele>
      </trkpt>
      <trkpt lat="49.349" lon="6.37389">
        <ele>235</ele>
      </trkpt>
      <trkpt lat="49.34902" lon="6.37368">
        <ele>232</ele>
      </trkpt>
      <trkpt lat="49.34906" lon="6.37331">
        <ele>231</ele>
      </trkpt>
      <trkpt lat="49.34905" lon="6.37305">
        <ele>227</ele>
      </trkpt>
      <trkpt lat="49.34905" lon="6.37281">
        <ele>222</ele>
      </trkpt>
      <trkpt lat="49.34909" lon="6.37248">
        <ele>219</ele>
      </trkpt>
      <trkpt lat="49.34917" lon="6.37228">
        <ele>218</ele>
      </trkpt>
      <trkpt lat="49.34922" lon="6.37195">
        <ele>228</ele>
      </trkpt>
      <trkpt lat="49.34926" lon="6.37185">
        <ele>232</ele>
      </trkpt>
      <trkpt lat="49.34926" lon="6.37185">
        <ele>232</ele>
      </trkpt>
      <trkpt lat="49.34925" lon="6.37183">
        <ele>232</ele>
      </trkpt>
      <trkpt lat="49.34925" lon="6.37183">
        <ele>232</ele>
      </trkpt>
      <trkpt lat="49.34927" lon="6.37181">
        <ele>232</ele>
      </trkpt>
      <trkpt lat="49.34927" lon="6.37181">
        <ele>232</ele>
      </trkpt>
      <trkpt lat="49.34927" lon="6.37174">
        <ele>230</ele>
      </trkpt>
      <trkpt lat="49.3493" lon="6.37153">
        <ele>229</ele>
      </trkpt>
      <trkpt lat="49.34933" lon="6.3715">
        <ele>229</ele>
      </trkpt>
      <trkpt lat="49.34933" lon="6.37149">
        <ele>228</ele>
      </trkpt>
      <trkpt lat="49.34933" lon="6.37149">
        <ele>228</ele>
      </trkpt>
      <trkpt lat="49.34919" lon="6.37127">
        <ele>236</ele>
      </trkpt>
      <trkpt lat="49.34919" lon="6.37116">
        <ele>239</ele>
      </trkpt>
      <trkpt lat="49.34921" lon="6.37114">
        <ele>240</ele>
      </trkpt>
      <trkpt lat="49.3493" lon="6.37118">
        <ele>243</ele>
      </trkpt>
      <trkpt lat="49.34927" lon="6.37111">
        <ele>242</ele>
      </trkpt>
      <trkpt lat="49.34942" lon="6.37091">
        <ele>237</ele>
      </trkpt>
      <trkpt lat="49.34943" lon="6.37088">
        <ele>237</ele>
      </trkpt>
      <trkpt lat="49.34961" lon="6.37066">
        <ele>233</ele>
      </trkpt>
      <trkpt lat="49.3497" lon="6.37055">
        <ele>228</ele>
      </trkpt>
      <trkpt lat="49.34987" lon="6.3704">
        <ele>220</ele>
      </trkpt>
      <trkpt lat="49.34996" lon="6.37021">
        <ele>214</ele>
      </trkpt>
      <trkpt lat="49.35012" lon="6.36997">
        <ele>208</ele>
      </trkpt>
      <trkpt lat="49.35025" lon="6.36972">
        <ele>208</ele>
      </trkpt>
      <trkpt lat="49.3504" lon="6.36952">
        <ele>218</ele>
      </trkpt>
      <trkpt lat="49.35049" lon="6.36939">
        <ele>226</ele>
      </trkpt>
      <trkpt lat="49.35061" lon="6.36915">
        <ele>230</ele>
      </trkpt>
      <trkpt lat="49.35061" lon="6.36915">
        <ele>229</ele>
      </trkpt>
      <trkpt lat="49.35063" lon="6.36916">
        <ele>229</ele>
      </trkpt>
      <trkpt lat="49.35069" lon="6.36951">
        <ele>230</ele>
      </trkpt>
      <trkpt lat="49.35073" lon="6.36972">
        <ele>230</ele>
      </trkpt>
      <trkpt lat="49.35073" lon="6.36972">
        <ele>230</ele>
      </trkpt>
      <trkpt lat="49.35096" lon="6.36968">
        <ele>228</ele>
      </trkpt>
      <trkpt lat="49.35097" lon="6.3696">
        <ele>280</ele>
      </trkpt>
      <trkpt lat="49.35096" lon="6.36947">
        <ele>281</ele>
      </trkpt>
      <trkpt lat="49.35094" lon="6.36937">
        <ele>281</ele>
      </trkpt>
      <trkpt lat="49.35092" lon="6.36927">
        <ele>281</ele>
      </trkpt>
      <trkpt lat="49.35092" lon="6.36917">
        <ele>281</ele>
      </trkpt>
      <trkpt lat="49.35083" lon="6.36902">
        <ele>230</ele>
      </trkpt>
      <trkpt lat="49.35065" lon="6.36876">
        <ele>229</ele>
      </trkpt>
      <trkpt lat="49.35053" lon="6.36851">
        <ele>227</ele>
      </trkpt>
      <trkpt lat="49.35057" lon="6.36816">
        <ele>225</ele>
      </trkpt>
      <trkpt lat="49.3507" lon="6.3681">
        <ele>223</ele>
      </trkpt>
      <trkpt lat="49.35073" lon="6.36823">
        <ele>216</ele>
      </trkpt>
      <trkpt lat="49.35077" lon="6.36841">
        <ele>205</ele>
      </trkpt>
      <trkpt lat="49.35081" lon="6.36833">
        <ele>205</ele>
      </trkpt>
      <trkpt lat="49.35093" lon="6.36819">
        <ele>212</ele>
      </trkpt>
      <trkpt lat="49.35101" lon="6.36819">
        <ele>212</ele>
      </trkpt>
      <trkpt lat="49.35101" lon="6.36819">
        <ele>212</ele>
      </trkpt>
      <trkpt lat="49.35097" lon="6.36817">
        <ele>212</ele>
      </trkpt>
      <trkpt lat="49.35099" lon="6.36812">
        <ele>213</ele>
      </trkpt>
      <trkpt lat="49.35103" lon="6.36809">
        <ele>213</ele>
      </trkpt>
      <trkpt lat="49.35117" lon="6.36802">
        <ele>208</ele>
      </trkpt>
      <trkpt lat="49.35133" lon="6.36791">
        <ele>203</ele>
      </trkpt>
      <trkpt lat="49.35145" lon="6.36781">
        <ele>202</ele>
      </trkpt>
      <trkpt lat="49.35168" lon="6.36775">
        <ele>201</ele>
      </trkpt>
      <trkpt lat="49.35177" lon="6.36782">
        <ele>199</ele>
      </trkpt>
      <trkpt lat="49.35194" lon="6.368">
        <ele>203</ele>
      </trkpt>
      <trkpt lat="49.35196" lon="6.36804">
        <ele>203</ele>
      </trkpt>
      <trkpt lat="49.35196" lon="6.36804">
        <ele>203</ele>
      </trkpt>
      <trkpt lat="49.35196" lon="6.36804">
        <ele>203</ele>
      </trkpt>
      <trkpt lat="49.35197" lon="6.36804">
        <ele>204</ele>
      </trkpt>
      <trkpt lat="49.35197" lon="6.36804">
        <ele>204</ele>
      </trkpt>
      <trkpt lat="49.35196" lon="6.36798">
        <ele>205</ele>
      </trkpt>
      <trkpt lat="49.35194" lon="6.36796">
        <ele>205</ele>
      </trkpt>
      <trkpt lat="49.35194" lon="6.36796">
        <ele>205</ele>
      </trkpt>
      <trkpt lat="49.35202" lon="6.3681">
        <ele>263</ele>
      </trkpt>
      <trkpt lat="49.35205" lon="6.36814">
        <ele>263</ele>
      </trkpt>
      <trkpt lat="49.35208" lon="6.36816">
        <ele>263</ele>
      </trkpt>
      <trkpt lat="49.3521" lon="6.3682">
        <ele>263</ele>
      </trkpt>
      <trkpt lat="49.35213" lon="6.36824">
        <ele>263</ele>
      </trkpt>
      <trkpt lat="49.35213" lon="6.36837">
        <ele>215</ele>
      </trkpt>
      <trkpt lat="49.35213" lon="6.36837">
        <ele>215</ele>
      </trkpt>
      <trkpt lat="49.35213" lon="6.36838">
        <ele>214</ele>
      </trkpt>
      <trkpt lat="49.35211" lon="6.36843">
        <ele>215</ele>
      </trkpt>
      <trkpt lat="49.3521" lon="6.36847">
        <ele>215</ele>
      </trkpt>
      <trkpt lat="49.35201" lon="6.36873">
        <ele>214</ele>
      </trkpt>
      <trkpt lat="49.35186" lon="6.36894">
        <ele>214</ele>
      </trkpt>
      <trkpt lat="49.35172" lon="6.36911">
        <ele>213</ele>
      </trkpt>
      <trkpt lat="49.35169" lon="6.36913">
        <ele>214</ele>
      </trkpt>
      <trkpt lat="49.35157" lon="6.3692">
        <ele>221</ele>
      </trkpt>
      <trkpt lat="49.3515" lon="6.36925">
        <ele>222</ele>
      </trkpt>
      <trkpt lat="49.3514" lon="6.36934">
        <ele>222</ele>
      </trkpt>
      <trkpt lat="49.35138" lon="6.36936">
        <ele>222</ele>
      </trkpt>
      <trkpt lat="49.35131" lon="6.36942">
        <ele>226</ele>
      </trkpt>
      <trkpt lat="49.35127" lon="6.36953">
        <ele>226</ele>
      </trkpt>
      <trkpt lat="49.3513" lon="6.36959">
        <ele>225</ele>
      </trkpt>
      <trkpt lat="49.35143" lon="6.36966">
        <ele>227</ele>
      </trkpt>
      <trkpt lat="49.35149" lon="6.3698">
        <ele>228</ele>
      </trkpt>
      <trkpt lat="49.3515" lon="6.36981">
        <ele>228</ele>
      </trkpt>
      <trkpt lat="49.35163" lon="6.36983">
        <ele>227</ele>
      </trkpt>
      <trkpt lat="49.35178" lon="6.36992">
        <ele>220</ele>
      </trkpt>
      <trkpt lat="49.35183" lon="6.36995">
        <ele>218</ele>
      </trkpt>
      <trkpt lat="49.35193" lon="6.37009">
        <ele>216</ele>
      </trkpt>
      <trkpt lat="49.35194" lon="6.37012">
        <ele>216</ele>
      </trkpt>
      <trkpt lat="49.35195" lon="6.37015">
        <ele>216</ele>
      </trkpt>
      <trkpt lat="49.35195" lon="6.37015">
        <ele>216</ele>
      </trkpt>
      <trkpt lat="49.35195" lon="6.37015">
        <ele>216</ele>
      </trkpt>
      <trkpt lat="49.35195" lon="6.37016">
        <ele>216</ele>
      </trkpt>
      <trkpt lat="49.35189" lon="6.37029">
        <ele>215</ele>
      </trkpt>
      <trkpt lat="49.35189" lon="6.37029">
        <ele>215</ele>
      </trkpt>
      <trkpt lat="49.35175" lon="6.37046">
        <ele>215</ele>
      </trkpt>
      <trkpt lat="49.35167" lon="6.3705">
        <ele>212</ele>
      </trkpt>
      <trkpt lat="49.35161" lon="6.37063">
        <ele>205</ele>
      </trkpt>
      <trkpt lat="49.35141" lon="6.3708">
        <ele>200</ele>
      </trkpt>
      <trkpt lat="49.35136" lon="6.37083">
        <ele>199</ele>
      </trkpt>
      <trkpt lat="49.35124" lon="6.37092">
        <ele>196</ele>
      </trkpt>
      <trkpt lat="49.35094" lon="6.37113">
        <ele>194</ele>
      </trkpt>
      <trkpt lat="49.35065" lon="6.37126">
        <ele>194</ele>
      </trkpt>
      <trkpt lat="49.35058" lon="6.37128">
        <ele>194</ele>
      </trkpt>
      <trkpt lat="49.35036" lon="6.37146">
        <ele>197</ele>
      </trkpt>
      <trkpt lat="49.3502" lon="6.37168">
        <ele>200</ele>
      </trkpt>
      <trkpt lat="49.3501" lon="6.37185">
        <ele>199</ele>
      </trkpt>
      <trkpt lat="49.35004" lon="6.37187">
        <ele>197</ele>
      </trkpt>
      <trkpt lat="49.34998" lon="6.37186">
        <ele>196</ele>
      </trkpt>
      <trkpt lat="49.3496" lon="6.37196">
        <ele>201</ele>
      </trkpt>
      <trkpt lat="49.34958" lon="6.37197">
        <ele>202</ele>
      </trkpt>
      <trkpt lat="49.34953" lon="6.37198">
        <ele>202</ele>
      </trkpt>
      <trkpt lat="49.34949" lon="6.372">
        <ele>203</ele>
      </trkpt>
      <trkpt lat="49.34939" lon="6.37213">
        <ele>205</ele>
      </trkpt>
      <trkpt lat="49.34927" lon="6.37247">
        <ele>201</ele>
      </trkpt>
      <trkpt lat="49.34925" lon="6.37256">
        <ele>204</ele>
      </trkpt>
      <trkpt lat="49.34926" lon="6.37287">
        <ele>202</ele>
      </trkpt>
      <trkpt lat="49.34926" lon="6.37315">
        <ele>195</ele>
      </trkpt>
      <trkpt lat="49.34926" lon="6.37351">
        <ele>183</ele>
      </trkpt>
      <trkpt lat="49.34921" lon="6.37395">
        <ele>175</ele>
      </trkpt>
      <trkpt lat="49.3492" lon="6.37443">
        <ele>172</ele>
      </trkpt>
      <trkpt lat="49.3492" lon="6.37471">
        <ele>175</ele>
      </trkpt>
      <trkpt lat="49.3493" lon="6.37515">
        <ele>177</ele>
      </trkpt>
      <trkpt lat="49.34946" lon="6.37561">
        <ele>212</ele>
      </trkpt>
      <trkpt lat="49.34943" lon="6.37559">
        <ele>212</ele>
      </trkpt>
      <trkpt lat="49.34947" lon="6.37569">
        <ele>214</ele>
      </trkpt>
      <trkpt lat="49.34953" lon="6.37573">
        <ele>214</ele>
      </trkpt>
      <trkpt lat="49.34953" lon="6.37573">
        <ele>214</ele>
      </trkpt>
      <trkpt lat="49.3495" lon="6.3758">
        <ele>215</ele>
      </trkpt>
      <trkpt lat="49.34948" lon="6.37584">
        <ele>215</ele>
      </trkpt>
      <trkpt lat="49.34948" lon="6.37584">
        <ele>215</ele>
      </trkpt>
      <trkpt lat="49.34947" lon="6.37585">
        <ele>215</ele>
      </trkpt>
      <trkpt lat="49.34945" lon="6.37587">
        <ele>215</ele>
      </trkpt>
      <trkpt lat="49.34945" lon="6.37584">
        <ele>215</ele>
      </trkpt>
      <trkpt lat="49.34944" lon="6.37587">
        <ele>215</ele>
      </trkpt>
      <trkpt lat="49.34941" lon="6.37583">
        <ele>215</ele>
      </trkpt>
      <trkpt lat="49.3494" lon="6.37579">
        <ele>215</ele>
      </trkpt>
      <trkpt lat="49.3494" lon="6.37579">
        <ele>215</ele>
      </trkpt>
      <trkpt lat="49.34938" lon="6.37577">
        <ele>215</ele>
      </trkpt>
      <trkpt lat="49.34926" lon="6.37589">
        <ele>215</ele>
      </trkpt>
      <trkpt lat="49.34906" lon="6.37622">
        <ele>212</ele>
      </trkpt>
      <trkpt lat="49.34876" lon="6.37662">
        <ele>207</ele>
      </trkpt>
      <trkpt lat="49.34858" lon="6.3769">
        <ele>214</ele>
      </trkpt>
      <trkpt lat="49.34856" lon="6.37694">
        <ele>215</ele>
      </trkpt>
      <trkpt lat="49.34844" lon="6.37716">
        <ele>218</ele>
      </trkpt>
      <trkpt lat="49.3483" lon="6.37735">
        <ele>221</ele>
      </trkpt>
      <trkpt lat="49.34826" lon="6.37747">
        <ele>222</ele>
      </trkpt>
      <trkpt lat="49.34823" lon="6.37775">
        <ele>223</ele>
      </trkpt>
      <trkpt lat="49.34825" lon="6.37798">
        <ele>223</ele>
      </trkpt>
      <trkpt lat="49.34826" lon="6.37801">
        <ele>223</ele>
      </trkpt>
      <trkpt lat="49.34842" lon="6.37827">
        <ele>221</ele>
      </trkpt>
      <trkpt lat="49.34859" lon="6.37844">
        <ele>220</ele>
      </trkpt>
      <trkpt lat="49.34876" lon="6.37864">
        <ele>214</ele>
      </trkpt>
      <trkpt lat="49.34882" lon="6.37873">
        <ele>211</ele>
      </trkpt>
      <trkpt lat="49.34902" lon="6.379">
        <ele>205</ele>
      </trkpt>
      <trkpt lat="49.3491" lon="6.37917">
        <ele>203</ele>
      </trkpt>
      <trkpt lat="49.34932" lon="6.37966">
        <ele>205</ele>
      </trkpt>
      <trkpt lat="49.34952" lon="6.3801">
        <ele>218</ele>
      </trkpt>
      <trkpt lat="49.34965" lon="6.38034">
        <ele>227</ele>
      </trkpt>
      <trkpt lat="49.34976" lon="6.38058">
        <ele>231</ele>
      </trkpt>
      <trkpt lat="49.34977" lon="6.38063">
        <ele>230</ele>
      </trkpt>
      <trkpt lat="49.34981" lon="6.38077">
        <ele>230</ele>
      </trkpt>
      <trkpt lat="49.34983" lon="6.38091">
        <ele>231</ele>
      </trkpt>
      <trkpt lat="49.34983" lon="6.38091">
        <ele>231</ele>
      </trkpt>
      <trkpt lat="49.34983" lon="6.38091">
        <ele>231</ele>
      </trkpt>
      <trkpt lat="49.3498" lon="6.3812">
        <ele>228</ele>
      </trkpt>
      <trkpt lat="49.34974" lon="6.38161">
        <ele>227</ele>
      </trkpt>
      <trkpt lat="49.34975" lon="6.38163">
        <ele>226</ele>
      </trkpt>
      <trkpt lat="49.3498" lon="6.38174">
        <ele>226</ele>
      </trkpt>
      <trkpt lat="49.34991" lon="6.3819">
        <ele>226</ele>
      </trkpt>
      <trkpt lat="49.35" lon="6.38204">
        <ele>230</ele>
      </trkpt>
      <trkpt lat="49.35006" lon="6.38232">
        <ele>238</ele>
      </trkpt>
      <trkpt lat="49.35002" lon="6.38229">
        <ele>237</ele>
      </trkpt>
      <trkpt lat="49.34997" lon="6.38225">
        <ele>237</ele>
      </trkpt>
      <trkpt lat="49.34982" lon="6.38209">
        <ele>237</ele>
      </trkpt>
      <trkpt lat="49.34974" lon="6.38196">
        <ele>239</ele>
      </trkpt>
      <trkpt lat="49.34968" lon="6.38189">
        <ele>237</ele>
      </trkpt>
      <trkpt lat="49.34955" lon="6.38184">
        <ele>234</ele>
      </trkpt>
      <trkpt lat="49.34938" lon="6.38208">
        <ele>240</ele>
      </trkpt>
      <trkpt lat="49.34937" lon="6.38208">
        <ele>239</ele>
      </trkpt>
      <trkpt lat="49.34937" lon="6.38188">
        <ele>235</ele>
      </trkpt>
      <trkpt lat="49.34929" lon="6.3818">
        <ele>235</ele>
      </trkpt>
      <trkpt lat="49.34914" lon="6.38172">
        <ele>232</ele>
      </trkpt>
      <trkpt lat="49.34896" lon="6.38166">
        <ele>234</ele>
      </trkpt>
      <trkpt lat="49.34874" lon="6.38153">
        <ele>232</ele>
      </trkpt>
      <trkpt lat="49.34863" lon="6.38161">
        <ele>231</ele>
      </trkpt>
      <trkpt lat="49.3485" lon="6.38171">
        <ele>230</ele>
      </trkpt>
      <trkpt lat="49.34841" lon="6.38197">
        <ele>228</ele>
      </trkpt>
      <trkpt lat="49.34842" lon="6.38201">
        <ele>227</ele>
      </trkpt>
      <trkpt lat="49.34842" lon="6.38201">
        <ele>227</ele>
      </trkpt>
      <trkpt lat="49.34838" lon="6.38211">
        <ele>224</ele>
      </trkpt>
      <trkpt lat="49.34835" lon="6.38229">
        <ele>221</ele>
      </trkpt>
      <trkpt lat="49.34845" lon="6.38254">
        <ele>216</ele>
      </trkpt>
      <trkpt lat="49.34845" lon="6.38273">
        <ele>218</ele>
      </trkpt>
      <trkpt lat="49.34845" lon="6.38273">
        <ele>218</ele>
      </trkpt>
      <trkpt lat="49.34845" lon="6.38273">
        <ele>218</ele>
      </trkpt>
      <trkpt lat="49.34852" lon="6.38287">
        <ele>220</ele>
      </trkpt>
      <trkpt lat="49.34872" lon="6.38297">
        <ele>223</ele>
      </trkpt>
      <trkpt lat="49.34887" lon="6.38303">
        <ele>222</ele>
      </trkpt>
      <trkpt lat="49.34891" lon="6.38303">
        <ele>224</ele>
      </trkpt>
      <trkpt lat="49.34885" lon="6.38312">
        <ele>225</ele>
      </trkpt>
      <trkpt lat="49.34868" lon="6.38313">
        <ele>229</ele>
      </trkpt>
      <trkpt lat="49.34851" lon="6.38296">
        <ele>231</ele>
      </trkpt>
      <trkpt lat="49.34839" lon="6.38285">
        <ele>234</ele>
      </trkpt>
      <trkpt lat="49.34836" lon="6.38284">
        <ele>234</ele>
      </trkpt>
      <trkpt lat="49.3482" lon="6.38285">
        <ele>236</ele>
      </trkpt>
      <trkpt lat="49.34802" lon="6.38292">
        <ele>234</ele>
      </trkpt>
      <trkpt lat="49.34802" lon="6.38292">
        <ele>234</ele>
      </trkpt>
      <trkpt lat="49.34802" lon="6.38292">
        <ele>235</ele>
      </trkpt>
      <trkpt lat="49.34794" lon="6.38296">
        <ele>233</ele>
      </trkpt>
      <trkpt lat="49.34793" lon="6.38295">
        <ele>233</ele>
      </trkpt>
      <trkpt lat="49.34773" lon="6.38305">
        <ele>236</ele>
      </trkpt>
      <trkpt lat="49.3477" lon="6.38308">
        <ele>236</ele>
      </trkpt>
      <trkpt lat="49.3475" lon="6.38325">
        <ele>236</ele>
      </trkpt>
      <trkpt lat="49.34735" lon="6.38337">
        <ele>231</ele>
      </trkpt>
      <trkpt lat="49.34733" lon="6.3834">
        <ele>231</ele>
      </trkpt>
      <trkpt lat="49.34711" lon="6.38353">
        <ele>230</ele>
      </trkpt>
      <trkpt lat="49.34706" lon="6.38354">
        <ele>228</ele>
      </trkpt>
      <trkpt lat="49.34684" lon="6.38367">
        <ele>225</ele>
      </trkpt>
      <trkpt lat="49.34663" lon="6.38381">
        <ele>223</ele>
      </trkpt>
      <trkpt lat="49.34657" lon="6.38391">
        <ele>223</ele>
      </trkpt>
      <trkpt lat="49.34639" lon="6.38424">
        <ele>227</ele>
      </trkpt>
      <trkpt lat="49.34621" lon="6.38458">
        <ele>224</ele>
      </trkpt>
      <trkpt lat="49.34609" lon="6.38476">
        <ele>226</ele>
      </trkpt>
      <trkpt lat="49.34602" lon="6.38482">
        <ele>226</ele>
      </trkpt>
      <trkpt lat="49.34595" lon="6.3849">
        <ele>225</ele>
      </trkpt>
      <trkpt lat="49.34589" lon="6.385">
        <ele>224</ele>
      </trkpt>
      <trkpt lat="49.34577" lon="6.38516">
        <ele>226</ele>
      </trkpt>
      <trkpt lat="49.34567" lon="6.38536">
        <ele>227</ele>
      </trkpt>
      <trkpt lat="49.34554" lon="6.38574">
        <ele>221</ele>
      </trkpt>
      <trkpt lat="49.34545" lon="6.38605">
        <ele>221</ele>
      </trkpt>
      <trkpt lat="49.3454" lon="6.38612">
        <ele>278</ele>
      </trkpt>
      <trkpt lat="49.34532" lon="6.38617">
        <ele>277</ele>
      </trkpt>
      <trkpt lat="49.34529" lon="6.38622">
        <ele>277</ele>
      </trkpt>
      <trkpt lat="49.3452" lon="6.38625">
        <ele>223</ele>
      </trkpt>
      <trkpt lat="49.34496" lon="6.38642">
        <ele>223</ele>
      </trkpt>
      <trkpt lat="49.34468" lon="6.38662">
        <ele>224</ele>
      </trkpt>
      <trkpt lat="49.3444" lon="6.38682">
        <ele>226</ele>
      </trkpt>
      <trkpt lat="49.34413" lon="6.38699">
        <ele>227</ele>
      </trkpt>
      <trkpt lat="49.3439" lon="6.38702">
        <ele>226</ele>
      </trkpt>
      <trkpt lat="49.34372" lon="6.38699">
        <ele>224</ele>
      </trkpt>
      <trkpt lat="49.3435" lon="6.38705">
        <ele>226</ele>
      </trkpt>
      <trkpt lat="49.34322" lon="6.38702">
        <ele>227</ele>
      </trkpt>
      <trkpt lat="49.34293" lon="6.38698">
        <ele>231</ele>
      </trkpt>
      <trkpt lat="49.34291" lon="6.38697">
        <ele>231</ele>
      </trkpt>
      <trkpt lat="49.34273" lon="6.38693">
        <ele>232</ele>
      </trkpt>
      <trkpt lat="49.34268" lon="6.38695">
        <ele>233</ele>
      </trkpt>
      <trkpt lat="49.34264" lon="6.38694">
        <ele>232</ele>
      </trkpt>
      <trkpt lat="49.34241" lon="6.38696">
        <ele>233</ele>
      </trkpt>
      <trkpt lat="49.3422" lon="6.387">
        <ele>235</ele>
      </trkpt>
      <trkpt lat="49.34198" lon="6.38704">
        <ele>236</ele>
      </trkpt>
      <trkpt lat="49.34181" lon="6.38716">
        <ele>238</ele>
      </trkpt>
      <trkpt lat="49.34169" lon="6.38725">
        <ele>240</ele>
      </trkpt>
      <trkpt lat="49.34166" lon="6.38727">
        <ele>241</ele>
      </trkpt>
      <trkpt lat="49.3416" lon="6.38732">
        <ele>242</ele>
      </trkpt>
      <trkpt lat="49.34145" lon="6.38743">
        <ele>244</ele>
      </trkpt>
      <trkpt lat="49.34123" lon="6.38765">
        <ele>247</ele>
      </trkpt>
      <trkpt lat="49.34112" lon="6.38772">
        <ele>250</ele>
      </trkpt>
      <trkpt lat="49.34092" lon="6.38779">
        <ele>250</ele>
      </trkpt>
      <trkpt lat="49.34075" lon="6.38786">
        <ele>251</ele>
      </trkpt>
      <trkpt lat="49.34072" lon="6.38786">
        <ele>251</ele>
      </trkpt>
      <trkpt lat="49.34061" lon="6.3879">
        <ele>252</ele>
      </trkpt>
      <trkpt lat="49.34045" lon="6.38792">
        <ele>252</ele>
      </trkpt>
      <trkpt lat="49.34032" lon="6.38781">
        <ele>250</ele>
      </trkpt>
      <trkpt lat="49.34027" lon="6.38781">
        <ele>249</ele>
      </trkpt>
      <trkpt lat="49.34024" lon="6.38776">
        <ele>249</ele>
      </trkpt>
      <trkpt lat="49.34017" lon="6.38774">
        <ele>248</ele>
      </trkpt>
      <trkpt lat="49.34015" lon="6.38774">
        <ele>248</ele>
      </trkpt>
      <trkpt lat="49.33993" lon="6.38768">
        <ele>246</ele>
      </trkpt>
      <trkpt lat="49.33982" lon="6.38766">
        <ele>244</ele>
      </trkpt>
      <trkpt lat="49.33965" lon="6.38763">
        <ele>246</ele>
      </trkpt>
      <trkpt lat="49.33962" lon="6.38762">
        <ele>247</ele>
      </trkpt>
      <trkpt lat="49.33937" lon="6.38764">
        <ele>249</ele>
      </trkpt>
      <trkpt lat="49.33911" lon="6.38766">
        <ele>253</ele>
      </trkpt>
      <trkpt lat="49.33893" lon="6.38766">
        <ele>253</ele>
      </trkpt>
      <trkpt lat="49.33872" lon="6.38752">
        <ele>253</ele>
      </trkpt>
      <trkpt lat="49.33855" lon="6.38744">
        <ele>247</ele>
      </trkpt>
      <trkpt lat="49.33837" lon="6.38737">
        <ele>240</ele>
      </trkpt>
      <trkpt lat="49.33814" lon="6.3873">
        <ele>244</ele>
      </trkpt>
      <trkpt lat="49.3381" lon="6.38721">
        <ele>247</ele>
      </trkpt>
      <trkpt lat="49.33807" lon="6.38726">
        <ele>249</ele>
      </trkpt>
      <trkpt lat="49.338" lon="6.38728">
        <ele>248</ele>
      </trkpt>
      <trkpt lat="49.33785" lon="6.38728">
        <ele>246</ele>
      </trkpt>
      <trkpt lat="49.33767" lon="6.38724">
        <ele>243</ele>
      </trkpt>
      <trkpt lat="49.33762" lon="6.38722">
        <ele>242</ele>
      </trkpt>
      <trkpt lat="49.33748" lon="6.38719">
        <ele>243</ele>
      </trkpt>
      <trkpt lat="49.33738" lon="6.38716">
        <ele>242</ele>
      </trkpt>
      <trkpt lat="49.33715" lon="6.38709">
        <ele>243</ele>
      </trkpt>
      <trkpt lat="49.33698" lon="6.38696">
        <ele>250</ele>
      </trkpt>
      <trkpt lat="49.33682" lon="6.38691">
        <ele>259</ele>
      </trkpt>
      <trkpt lat="49.33677" lon="6.38691">
        <ele>261</ele>
      </trkpt>
      <trkpt lat="49.33662" lon="6.38687">
        <ele>266</ele>
      </trkpt>
      <trkpt lat="49.33655" lon="6.38682">
        <ele>268</ele>
      </trkpt>
      <trkpt lat="49.33639" lon="6.38655">
        <ele>271</ele>
      </trkpt>
      <trkpt lat="49.33625" lon="6.38624">
        <ele>273</ele>
      </trkpt>
      <trkpt lat="49.33609" lon="6.38594">
        <ele>275</ele>
      </trkpt>
      <trkpt lat="49.33594" lon="6.38565">
        <ele>276</ele>
      </trkpt>
      <trkpt lat="49.33582" lon="6.38536">
        <ele>274</ele>
      </trkpt>
      <trkpt lat="49.33564" lon="6.38505">
        <ele>273</ele>
      </trkpt>
      <trkpt lat="49.33554" lon="6.38488">
        <ele>271</ele>
      </trkpt>
      <trkpt lat="49.33542" lon="6.38461">
        <ele>266</ele>
      </trkpt>
      <trkpt lat="49.33528" lon="6.38432">
        <ele>262</ele>
      </trkpt>
      <trkpt lat="49.33518" lon="6.38401">
        <ele>255</ele>
      </trkpt>
      <trkpt lat="49.33505" lon="6.38365">
        <ele>250</ele>
      </trkpt>
      <trkpt lat="49.33494" lon="6.38342">
        <ele>250</ele>
      </trkpt>
      <trkpt lat="49.33472" lon="6.38309">
        <ele>249</ele>
      </trkpt>
      <trkpt lat="49.33445" lon="6.38278">
        <ele>251</ele>
      </trkpt>
      <trkpt lat="49.33428" lon="6.38253">
        <ele>253</ele>
      </trkpt>
      <trkpt lat="49.33413" lon="6.38229">
        <ele>257</ele>
      </trkpt>
      <trkpt lat="49.33409" lon="6.38223">
        <ele>258</ele>
      </trkpt>
      <trkpt lat="49.33391" lon="6.38203">
        <ele>257</ele>
      </trkpt>
      <trkpt lat="49.33368" lon="6.3818">
        <ele>262</ele>
      </trkpt>
      <trkpt lat="49.3335" lon="6.38169">
        <ele>265</ele>
      </trkpt>
      <trkpt lat="49.33339" lon="6.38165">
        <ele>266</ele>
      </trkpt>
      <trkpt lat="49.33337" lon="6.38165">
        <ele>266</ele>
      </trkpt>
      <trkpt lat="49.33312" lon="6.3816">
        <ele>267</ele>
      </trkpt>
      <trkpt lat="49.33284" lon="6.38145">
        <ele>265</ele>
      </trkpt>
      <trkpt lat="49.33268" lon="6.38136">
        <ele>263</ele>
      </trkpt>
      <trkpt lat="49.33257" lon="6.38132">
        <ele>261</ele>
      </trkpt>
      <trkpt lat="49.33233" lon="6.38129">
        <ele>259</ele>
      </trkpt>
      <trkpt lat="49.33231" lon="6.38127">
        <ele>258</ele>
      </trkpt>
      <trkpt lat="49.33223" lon="6.38122">
        <ele>255</ele>
      </trkpt>
      <trkpt lat="49.33205" lon="6.38108">
        <ele>244</ele>
      </trkpt>
      <trkpt lat="49.33183" lon="6.38092">
        <ele>235</ele>
      </trkpt>
      <trkpt lat="49.33166" lon="6.38084">
        <ele>232</ele>
      </trkpt>
      <trkpt lat="49.33144" lon="6.38082">
        <ele>231</ele>
      </trkpt>
      <trkpt lat="49.33123" lon="6.38091">
        <ele>230</ele>
      </trkpt>
      <trkpt lat="49.33121" lon="6.38092">
        <ele>231</ele>
      </trkpt>
      <trkpt lat="49.33096" lon="6.3809">
        <ele>232</ele>
      </trkpt>
      <trkpt lat="49.33075" lon="6.38099">
        <ele>233</ele>
      </trkpt>
      <trkpt lat="49.33051" lon="6.38115">
        <ele>234</ele>
      </trkpt>
      <trkpt lat="49.33047" lon="6.3812">
        <ele>234</ele>
      </trkpt>
      <trkpt lat="49.33025" lon="6.38143">
        <ele>236</ele>
      </trkpt>
      <trkpt lat="49.33021" lon="6.38146">
        <ele>237</ele>
      </trkpt>
      <trkpt lat="49.33013" lon="6.38156">
        <ele>239</ele>
      </trkpt>
      <trkpt lat="49.33013" lon="6.38156">
        <ele>239</ele>
      </trkpt>
      <trkpt lat="49.3301" lon="6.38172">
        <ele>246</ele>
      </trkpt>
      <trkpt lat="49.32993" lon="6.38173">
        <ele>308</ele>
      </trkpt>
      <trkpt lat="49.32967" lon="6.38233">
        <ele>307</ele>
      </trkpt>
      <trkpt lat="49.32976" lon="6.38257">
        <ele>306</ele>
      </trkpt>
      <trkpt lat="49.33003" lon="6.38287">
        <ele>305</ele>
      </trkpt>
      <trkpt lat="49.33026" lon="6.38331">
        <ele>302</ele>
      </trkpt>
      <trkpt lat="49.33043" lon="6.3837">
        <ele>300</ele>
      </trkpt>
      <trkpt lat="49.33052" lon="6.38385">
        <ele>298</ele>
      </trkpt>
      <trkpt lat="49.33053" lon="6.38397">
        <ele>297</ele>
      </trkpt>
      <trkpt lat="49.33061" lon="6.3841">
        <ele>296</ele>
      </trkpt>
      <trkpt lat="49.33074" lon="6.38447">
        <ele>294</ele>
      </trkpt>
      <trkpt lat="49.33089" lon="6.38488">
        <ele>291</ele>
      </trkpt>
      <trkpt lat="49.33105" lon="6.38511">
        <ele>290</ele>
      </trkpt>
      <trkpt lat="49.33114" lon="6.38517">
        <ele>244</ele>
      </trkpt>
      <trkpt lat="49.33119" lon="6.38527">
        <ele>243</ele>
      </trkpt>
      <trkpt lat="49.33121" lon="6.3853">
        <ele>243</ele>
      </trkpt>
      <trkpt lat="49.33127" lon="6.38549">
        <ele>240</ele>
      </trkpt>
      <trkpt lat="49.33127" lon="6.38549">
        <ele>240</ele>
      </trkpt>
      <trkpt lat="49.33133" lon="6.38566">
        <ele>238</ele>
      </trkpt>
      <trkpt lat="49.33137" lon="6.38588">
        <ele>236</ele>
      </trkpt>
      <trkpt lat="49.33139" lon="6.38589">
        <ele>234</ele>
      </trkpt>
      <trkpt lat="49.33129" lon="6.38561">
        <ele>236</ele>
      </trkpt>
      <trkpt lat="49.33126" lon="6.38543">
        <ele>238</ele>
      </trkpt>
      <trkpt lat="49.33123" lon="6.3853">
        <ele>240</ele>
      </trkpt>
      <trkpt lat="49.33111" lon="6.38516">
        <ele>241</ele>
      </trkpt>
      <trkpt lat="49.33097" lon="6.38505">
        <ele>241</ele>
      </trkpt>
      <trkpt lat="49.33084" lon="6.38471">
        <ele>238</ele>
      </trkpt>
      <trkpt lat="49.33071" lon="6.38438">
        <ele>236</ele>
      </trkpt>
      <trkpt lat="49.33055" lon="6.38399">
        <ele>245</ele>
      </trkpt>
      <trkpt lat="49.3304" lon="6.38359">
        <ele>250</ele>
      </trkpt>
      <trkpt lat="49.33024" lon="6.38326">
        <ele>253</ele>
      </trkpt>
      <trkpt lat="49.33008" lon="6.38295">
        <ele>253</ele>
      </trkpt>
      <trkpt lat="49.33001" lon="6.38285">
        <ele>254</ele>
      </trkpt>
      <trkpt lat="49.32982" lon="6.38263">
        <ele>253</ele>
      </trkpt>
      <trkpt lat="49.32969" lon="6.38249">
        <ele>252</ele>
      </trkpt>
      <trkpt lat="49.32967" lon="6.38244">
        <ele>254</ele>
      </trkpt>
      <trkpt lat="49.32968" lon="6.38224">
        <ele>255</ele>
      </trkpt>
      <trkpt lat="49.32972" lon="6.38215">
        <ele>256</ele>
      </trkpt>
      <trkpt lat="49.3299" lon="6.38183">
        <ele>259</ele>
      </trkpt>
      <trkpt lat="49.32994" lon="6.3817">
        <ele>260</ele>
      </trkpt>
      <trkpt lat="49.32993" lon="6.38142">
        <ele>261</ele>
      </trkpt>
      <trkpt lat="49.32984" lon="6.3812">
        <ele>259</ele>
      </trkpt>
      <trkpt lat="49.32979" lon="6.38103">
        <ele>257</ele>
      </trkpt>
      <trkpt lat="49.32971" lon="6.38076">
        <ele>257</ele>
      </trkpt>
      <trkpt lat="49.32952" lon="6.38037">
        <ele>262</ele>
      </trkpt>
      <trkpt lat="49.32937" lon="6.38004">
        <ele>268</ele>
      </trkpt>
      <trkpt lat="49.32926" lon="6.37971">
        <ele>271</ele>
      </trkpt>
      <trkpt lat="49.32916" lon="6.3794">
        <ele>271</ele>
      </trkpt>
      <trkpt lat="49.32912" lon="6.37919">
        <ele>270</ele>
      </trkpt>
      <trkpt lat="49.32904" lon="6.37899">
        <ele>271</ele>
      </trkpt>
      <trkpt lat="49.32899" lon="6.37872">
        <ele>270</ele>
      </trkpt>
      <trkpt lat="49.32899" lon="6.3786">
        <ele>269</ele>
      </trkpt>
      <trkpt lat="49.32893" lon="6.37811">
        <ele>266</ele>
      </trkpt>
      <trkpt lat="49.32881" lon="6.37777">
        <ele>270</ele>
      </trkpt>
      <trkpt lat="49.32868" lon="6.37745">
        <ele>282</ele>
      </trkpt>
      <trkpt lat="49.3286" lon="6.37721">
        <ele>286</ele>
      </trkpt>
      <trkpt lat="49.32853" lon="6.37696">
        <ele>291</ele>
      </trkpt>
      <trkpt lat="49.32847" lon="6.37689">
        <ele>291</ele>
      </trkpt>
      <trkpt lat="49.32847" lon="6.37689">
        <ele>291</ele>
      </trkpt>
      <trkpt lat="49.32847" lon="6.37688">
        <ele>291</ele>
      </trkpt>
      <trkpt lat="49.32847" lon="6.37687">
        <ele>291</ele>
      </trkpt>
      <trkpt lat="49.32846" lon="6.37687">
        <ele>292</ele>
      </trkpt>
      <trkpt lat="49.32847" lon="6.37687">
        <ele>292</ele>
      </trkpt>
      <trkpt lat="49.32846" lon="6.37687">
        <ele>292</ele>
      </trkpt>
      <trkpt lat="49.32846" lon="6.37687">
        <ele>292</ele>
      </trkpt>
      <trkpt lat="49.32838" lon="6.37669">
        <ele>293</ele>
      </trkpt>
      <trkpt lat="49.32819" lon="6.37633">
        <ele>290</ele>
      </trkpt>
      <trkpt lat="49.32808" lon="6.37606">
        <ele>285</ele>
      </trkpt>
      <trkpt lat="49.32791" lon="6.37564">
        <ele>281</ele>
      </trkpt>
      <trkpt lat="49.32777" lon="6.37526">
        <ele>284</ele>
      </trkpt>
      <trkpt lat="49.32758" lon="6.37477">
        <ele>280</ele>
      </trkpt>
      <trkpt lat="49.32749" lon="6.37443">
        <ele>277</ele>
      </trkpt>
      <trkpt lat="49.32741" lon="6.37399">
        <ele>275</ele>
      </trkpt>
      <trkpt lat="49.32742" lon="6.37371">
        <ele>276</ele>
      </trkpt>
      <trkpt lat="49.32747" lon="6.37361">
        <ele>274</ele>
      </trkpt>
      <trkpt lat="49.32747" lon="6.3736">
        <ele>274</ele>
      </trkpt>
      <trkpt lat="49.32774" lon="6.37362">
        <ele>271</ele>
      </trkpt>
      <trkpt lat="49.32774" lon="6.37362">
        <ele>271</ele>
      </trkpt>
      <trkpt lat="49.32774" lon="6.37362">
        <ele>271</ele>
      </trkpt>
      <trkpt lat="49.32776" lon="6.37364">
        <ele>270</ele>
      </trkpt>
      <trkpt lat="49.32799" lon="6.37371">
        <ele>268</ele>
      </trkpt>
      <trkpt lat="49.32823" lon="6.37369">
        <ele>268</ele>
      </trkpt>
      <trkpt lat="49.32853" lon="6.37356">
        <ele>267</ele>
      </trkpt>
      <trkpt lat="49.32873" lon="6.37348">
        <ele>270</ele>
      </trkpt>
      <trkpt lat="49.32885" lon="6.37341">
        <ele>268</ele>
      </trkpt>
      <trkpt lat="49.32897" lon="6.37296">
        <ele>277</ele>
      </trkpt>
      <trkpt lat="49.32899" lon="6.3728">
        <ele>278</ele>
      </trkpt>
      <trkpt lat="49.32903" lon="6.3725">
        <ele>280</ele>
      </trkpt>
      <trkpt lat="49.32908" lon="6.37221">
        <ele>278</ele>
      </trkpt>
      <trkpt lat="49.32906" lon="6.37182">
        <ele>274</ele>
      </trkpt>
      <trkpt lat="49.32905" lon="6.37162">
        <ele>273</ele>
      </trkpt>
      <trkpt lat="49.32905" lon="6.37125">
        <ele>275</ele>
      </trkpt>
      <trkpt lat="49.32902" lon="6.37082">
        <ele>273</ele>
      </trkpt>
      <trkpt lat="49.32898" lon="6.37041">
        <ele>271</ele>
      </trkpt>
      <trkpt lat="49.32894" lon="6.36997">
        <ele>271</ele>
      </trkpt>
      <trkpt lat="49.32889" lon="6.36955">
        <ele>270</ele>
      </trkpt>
      <trkpt lat="49.32883" lon="6.36922">
        <ele>270</ele>
      </trkpt>
      <trkpt lat="49.32882" lon="6.36913">
        <ele>270</ele>
      </trkpt>
      <trkpt lat="49.32871" lon="6.36867">
        <ele>274</ele>
      </trkpt>
      <trkpt lat="49.32865" lon="6.36829">
        <ele>273</ele>
      </trkpt>
      <trkpt lat="49.32855" lon="6.36782">
        <ele>272</ele>
      </trkpt>
      <trkpt lat="49.32855" lon="6.3678">
        <ele>272</ele>
      </trkpt>
      <trkpt lat="49.32844" lon="6.36731">
        <ele>269</ele>
      </trkpt>
      <trkpt lat="49.32833" lon="6.36678">
        <ele>267</ele>
      </trkpt>
      <trkpt lat="49.32822" lon="6.36634">
        <ele>266</ele>
      </trkpt>
      <trkpt lat="49.32813" lon="6.36595">
        <ele>265</ele>
      </trkpt>
      <trkpt lat="49.32804" lon="6.36552">
        <ele>261</ele>
      </trkpt>
      <trkpt lat="49.32796" lon="6.36512">
        <ele>261</ele>
      </trkpt>
      <trkpt lat="49.32793" lon="6.36495">
        <ele>263</ele>
      </trkpt>
      <trkpt lat="49.32783" lon="6.36459">
        <ele>263</ele>
      </trkpt>
      <trkpt lat="49.32774" lon="6.36417">
        <ele>263</ele>
      </trkpt>
      <trkpt lat="49.32768" lon="6.36389">
        <ele>261</ele>
      </trkpt>
      <trkpt lat="49.3276" lon="6.36355">
        <ele>263</ele>
      </trkpt>
      <trkpt lat="49.32751" lon="6.36318">
        <ele>265</ele>
      </trkpt>
      <trkpt lat="49.3274" lon="6.36285">
        <ele>266</ele>
      </trkpt>
      <trkpt lat="49.32734" lon="6.36248">
        <ele>266</ele>
      </trkpt>
      <trkpt lat="49.32727" lon="6.36202">
        <ele>266</ele>
      </trkpt>
      <trkpt lat="49.32715" lon="6.36157">
        <ele>267</ele>
      </trkpt>
      <trkpt lat="49.32709" lon="6.36122">
        <ele>267</ele>
      </trkpt>
      <trkpt lat="49.32701" lon="6.36089">
        <ele>268</ele>
      </trkpt>
      <trkpt lat="49.32702" lon="6.36047">
        <ele>267</ele>
      </trkpt>
      <trkpt lat="49.32704" lon="6.36015">
        <ele>266</ele>
      </trkpt>
      <trkpt lat="49.32705" lon="6.35998">
        <ele>265</ele>
      </trkpt>
      <trkpt lat="49.32721" lon="6.35962">
        <ele>263</ele>
      </trkpt>
      <trkpt lat="49.32736" lon="6.35928">
        <ele>255</ele>
      </trkpt>
      <trkpt lat="49.32757" lon="6.3591">
        <ele>251</ele>
      </trkpt>
      <trkpt lat="49.32759" lon="6.3591">
        <ele>251</ele>
      </trkpt>
      <trkpt lat="49.32782" lon="6.35908">
        <ele>250</ele>
      </trkpt>
      <trkpt lat="49.32796" lon="6.35913">
        <ele>246</ele>
      </trkpt>
      <trkpt lat="49.32803" lon="6.35914">
        <ele>245</ele>
      </trkpt>
      <trkpt lat="49.32827" lon="6.35914">
        <ele>243</ele>
      </trkpt>
      <trkpt lat="49.32839" lon="6.35916">
        <ele>240</ele>
      </trkpt>
      <trkpt lat="49.32861" lon="6.3592">
        <ele>230</ele>
      </trkpt>
      <trkpt lat="49.32891" lon="6.35927">
        <ele>219</ele>
      </trkpt>
      <trkpt lat="49.32927" lon="6.35934">
        <ele>219</ele>
      </trkpt>
      <trkpt lat="49.3294" lon="6.35962">
        <ele>212</ele>
      </trkpt>
      <trkpt lat="49.32951" lon="6.35993">
        <ele>209</ele>
      </trkpt>
      <trkpt lat="49.32959" lon="6.36026">
        <ele>207</ele>
      </trkpt>
      <trkpt lat="49.32975" lon="6.36048">
        <ele>206</ele>
      </trkpt>
      <trkpt lat="49.33008" lon="6.36043">
        <ele>203</ele>
      </trkpt>
      <trkpt lat="49.33023" lon="6.36036">
        <ele>202</ele>
      </trkpt>
      <trkpt lat="49.33048" lon="6.36024">
        <ele>201</ele>
      </trkpt>
      <trkpt lat="49.33057" lon="6.36023">
        <ele>201</ele>
      </trkpt>
      <trkpt lat="49.3309" lon="6.36013">
        <ele>201</ele>
      </trkpt>
      <trkpt lat="49.33124" lon="6.35997">
        <ele>197</ele>
      </trkpt>
      <trkpt lat="49.33156" lon="6.35986">
        <ele>195</ele>
      </trkpt>
      <trkpt lat="49.33193" lon="6.35969">
        <ele>192</ele>
      </trkpt>
      <trkpt lat="49.33227" lon="6.35954">
        <ele>191</ele>
      </trkpt>
      <trkpt lat="49.33254" lon="6.35961">
        <ele>192</ele>
      </trkpt>
      <trkpt lat="49.33274" lon="6.3599">
        <ele>189</ele>
      </trkpt>
      <trkpt lat="49.33298" lon="6.36024">
        <ele>185</ele>
      </trkpt>
      <trkpt lat="49.33314" lon="6.36058">
        <ele>180</ele>
      </trkpt>
      <trkpt lat="49.33337" lon="6.36099">
        <ele>176</ele>
      </trkpt>
      <trkpt lat="49.33351" lon="6.36129">
        <ele>175</ele>
      </trkpt>
      <trkpt lat="49.33369" lon="6.36165">
        <ele>172</ele>
      </trkpt>
      <trkpt lat="49.33386" lon="6.36205">
        <ele>171</ele>
      </trkpt>
      <trkpt lat="49.33389" lon="6.3621">
        <ele>171</ele>
      </trkpt>
      <trkpt lat="49.33393" lon="6.36219">
        <ele>171</ele>
      </trkpt>
      <trkpt lat="49.33401" lon="6.36234">
        <ele>170</ele>
      </trkpt>
      <trkpt lat="49.33401" lon="6.36238">
        <ele>171</ele>
      </trkpt>
      <trkpt lat="49.33412" lon="6.36246">
        <ele>173</ele>
      </trkpt>
      <trkpt lat="49.33418" lon="6.36243">
        <ele>173</ele>
      </trkpt>
      <trkpt lat="49.33431" lon="6.36235">
        <ele>173</ele>
      </trkpt>
      <trkpt lat="49.33438" lon="6.36231">
        <ele>171</ele>
      </trkpt>
      <trkpt lat="49.33444" lon="6.36228">
        <ele>169</ele>
      </trkpt>
      <trkpt lat="49.33479" lon="6.36209">
        <ele>166</ele>
      </trkpt>
      <trkpt lat="49.33502" lon="6.36194">
        <ele>165</ele>
      </trkpt>
      <trkpt lat="49.33511" lon="6.36202">
        <ele>165</ele>
      </trkpt>
      <trkpt lat="49.33517" lon="6.36217">
        <ele>165</ele>
      </trkpt>
      <trkpt lat="49.33517" lon="6.36229">
        <ele>166</ele>
      </trkpt>
      <trkpt lat="49.33522" lon="6.36256">
        <ele>166</ele>
      </trkpt>
      <trkpt lat="49.33523" lon="6.36263">
        <ele>166</ele>
      </trkpt>
      <trkpt lat="49.33524" lon="6.36268">
        <ele>165</ele>
      </trkpt>
      <trkpt lat="49.33525" lon="6.36267">
        <ele>165</ele>
      </trkpt>
      <trkpt lat="49.3353" lon="6.36265">
        <ele>165</ele>
      </trkpt>
      <trkpt lat="49.33561" lon="6.36246">
        <ele>167</ele>
      </trkpt>
      <trkpt lat="49.33566" lon="6.36248">
        <ele>166</ele>
      </trkpt>
      <trkpt lat="49.33588" lon="6.36237">
        <ele>167</ele>
      </trkpt>
      <trkpt lat="49.33602" lon="6.36234">
        <ele>168</ele>
      </trkpt>
      <trkpt lat="49.33613" lon="6.36236">
        <ele>166</ele>
      </trkpt>
      <trkpt lat="49.33631" lon="6.36243">
        <ele>165</ele>
      </trkpt>
      <trkpt lat="49.33657" lon="6.36269">
        <ele>164</ele>
      </trkpt>
      <trkpt lat="49.33662" lon="6.36275">
        <ele>164</ele>
      </trkpt>
      <trkpt lat="49.33666" lon="6.36281">
        <ele>165</ele>
      </trkpt>
      <trkpt lat="49.33703" lon="6.36312">
        <ele>171</ele>
      </trkpt>
      <trkpt lat="49.33735" lon="6.36343">
        <ele>173</ele>
      </trkpt>
      <trkpt lat="49.33769" lon="6.36372">
        <ele>174</ele>
      </trkpt>
      <trkpt lat="49.33795" lon="6.36401">
        <ele>176</ele>
      </trkpt>
      <trkpt lat="49.3382" lon="6.36425">
        <ele>177</ele>
      </trkpt>
      <trkpt lat="49.33843" lon="6.36447">
        <ele>177</ele>
      </trkpt>
      <trkpt lat="49.33871" lon="6.36474">
        <ele>181</ele>
      </trkpt>
      <trkpt lat="49.33895" lon="6.36499">
        <ele>183</ele>
      </trkpt>
      <trkpt lat="49.33923" lon="6.36523">
        <ele>184</ele>
      </trkpt>
      <trkpt lat="49.33942" lon="6.3654">
        <ele>185</ele>
      </trkpt>
      <trkpt lat="49.33965" lon="6.3656">
        <ele>190</ele>
      </trkpt>
      <trkpt lat="49.33996" lon="6.36574">
        <ele>191</ele>
      </trkpt>
      <trkpt lat="49.34024" lon="6.36571">
        <ele>192</ele>
      </trkpt>
      <trkpt lat="49.34026" lon="6.3657">
        <ele>192</ele>
      </trkpt>
      <trkpt lat="49.34035" lon="6.36568">
        <ele>194</ele>
      </trkpt>
      <trkpt lat="49.34047" lon="6.36565">
        <ele>195</ele>
      </trkpt>
      <trkpt lat="49.34052" lon="6.36565">
        <ele>196</ele>
      </trkpt>
      <trkpt lat="49.34078" lon="6.3656">
        <ele>197</ele>
      </trkpt>
      <trkpt lat="49.34098" lon="6.36555">
        <ele>197</ele>
      </trkpt>
      <trkpt lat="49.34106" lon="6.36553">
        <ele>248</ele>
      </trkpt>
      <trkpt lat="49.34115" lon="6.36554">
        <ele>248</ele>
      </trkpt>
      <trkpt lat="49.34122" lon="6.36548">
        <ele>249</ele>
      </trkpt>
      <trkpt lat="49.34131" lon="6.36542">
        <ele>250</ele>
      </trkpt>
      <trkpt lat="49.34133" lon="6.36537">
        <ele>250</ele>
      </trkpt>
      <trkpt lat="49.3413" lon="6.36532">
        <ele>199</ele>
      </trkpt>
      <trkpt lat="49.34113" lon="6.36532">
        <ele>199</ele>
      </trkpt>
    </trkseg>
  </trk>
</gpx>