<?xml version="1.0" encoding="UTF-8" standalone="no" ?>
<gpx xmlns="http://www.topografix.com/GPX/1/1" xmlns:xsi="http://www.w3.org/2001/XMLSchema-instance" xsi:schemaLocation="http://www.topografix.com/GPX/1/1 http://www.topografix.com/GPX/1/1/gpx.xsd" version="1.1" creator="VisuGPX - https://www.visugpx.com">
  <metadata>
    <name>Le col des contrebandiers - Annecy</name>
    <desc><![CDATA[Une belle rando avec un panoramique sur le lac d\'Annecy.
Un bon dénivelé au départ.
Cette trace a été tracer et non enregistrée.
J\'ai fait cette rando plusieurs fois.]]></desc>
  </metadata>
  <trk>
    <name><![CDATA[
      74 Col des contrebandiers - Annecy
    ]]></name>
    <desc><![CDATA[Total: 14.9km]]></desc>
    <trkseg>
      <trkpt lat="45.90391" lon="6.15989">
        <ele>451</ele>
        <time>2014-07-16T07:21:32Z</time>
      </trkpt>
      <trkpt lat="45.90389" lon="6.16024">
        <ele>457</ele>
        <time>2014-07-16T07:21:57Z</time>
      </trkpt>
      <trkpt lat="45.9042" lon="6.16112">
        <ele>468</ele>
        <time>2014-07-16T07:23:06Z</time>
      </trkpt>
      <trkpt lat="45.90454" lon="6.16183">
        <ele>481</ele>
        <time>2014-07-16T07:24:07Z</time>
      </trkpt>
      <trkpt lat="45.90458" lon="6.1626">
        <ele>501</ele>
        <time>2014-07-16T07:25:03Z</time>
      </trkpt>
      <trkpt lat="45.90451" lon="6.16335">
        <ele>530</ele>
        <time>2014-07-16T07:26:01Z</time>
      </trkpt>
      <trkpt lat="45.90465" lon="6.16385">
        <ele>538</ele>
        <time>2014-07-16T07:26:42Z</time>
      </trkpt>
      <trkpt lat="45.9048" lon="6.16404">
        <ele>542</ele>
        <time>2014-07-16T07:27:03Z</time>
      </trkpt>
      <trkpt lat="45.90479" lon="6.16422">
        <ele>566</ele>
        <time>2014-07-16T07:27:17Z</time>
      </trkpt>
      <trkpt lat="45.90427" lon="6.16429">
        <ele>571</ele>
        <time>2014-07-16T07:28:11Z</time>
      </trkpt>
      <trkpt lat="45.90478" lon="6.16451">
        <ele>576</ele>
        <time>2014-07-16T07:29:05Z</time>
      </trkpt>
      <trkpt lat="45.90459" lon="6.16464">
        <ele>583</ele>
        <time>2014-07-16T07:29:27Z</time>
      </trkpt>
      <trkpt lat="45.90501" lon="6.16478">
        <ele>577</ele>
        <time>2014-07-16T07:30:10Z</time>
      </trkpt>
      <trkpt lat="45.90532" lon="6.16488">
        <ele>573</ele>
        <time>2014-07-16T07:30:43Z</time>
      </trkpt>
      <trkpt lat="45.90541" lon="6.16514">
        <ele>607</ele>
        <time>2014-07-16T07:31:04Z</time>
      </trkpt>
      <trkpt lat="45.90536" lon="6.16528">
        <ele>611</ele>
        <time>2014-07-16T07:31:15Z</time>
      </trkpt>
      <trkpt lat="45.90499" lon="6.16543">
        <ele>630</ele>
        <time>2014-07-16T07:31:57Z</time>
      </trkpt>
      <trkpt lat="45.90453" lon="6.16561">
        <ele>638</ele>
        <time>2014-07-16T07:32:48Z</time>
      </trkpt>
      <trkpt lat="45.90515" lon="6.16619">
        <ele>667</ele>
        <time>2014-07-16T07:34:04Z</time>
      </trkpt>
      <trkpt lat="45.90567" lon="6.16656">
        <ele>680</ele>
        <time>2014-07-16T07:35:02Z</time>
      </trkpt>
      <trkpt lat="45.90592" lon="6.16649">
        <ele>676</ele>
        <time>2014-07-16T07:35:28Z</time>
      </trkpt>
      <trkpt lat="45.90577" lon="6.16676">
        <ele>700</ele>
        <time>2014-07-16T07:35:53Z</time>
      </trkpt>
      <trkpt lat="45.90584" lon="6.1668">
        <ele>703</ele>
        <time>2014-07-16T07:36:01Z</time>
      </trkpt>
      <trkpt lat="45.90594" lon="6.16677">
        <ele>703</ele>
        <time>2014-07-16T07:36:12Z</time>
      </trkpt>
      <trkpt lat="45.90588" lon="6.16695">
        <ele>709</ele>
        <time>2014-07-16T07:36:27Z</time>
      </trkpt>
      <trkpt lat="45.90587" lon="6.16704">
        <ele>713</ele>
        <time>2014-07-16T07:36:34Z</time>
      </trkpt>
      <trkpt lat="45.90601" lon="6.16703">
        <ele>713</ele>
        <time>2014-07-16T07:36:48Z</time>
      </trkpt>
      <trkpt lat="45.90612" lon="6.16689">
        <ele>710</ele>
        <time>2014-07-16T07:37:03Z</time>
      </trkpt>
      <trkpt lat="45.90622" lon="6.16686">
        <ele>710</ele>
        <time>2014-07-16T07:37:13Z</time>
      </trkpt>
      <trkpt lat="45.90641" lon="6.16693">
        <ele>711</ele>
        <time>2014-07-16T07:37:33Z</time>
      </trkpt>
      <trkpt lat="45.90656" lon="6.16704">
        <ele>715</ele>
        <time>2014-07-16T07:37:50Z</time>
      </trkpt>
      <trkpt lat="45.90631" lon="6.16727">
        <ele>720</ele>
        <time>2014-07-16T07:38:20Z</time>
      </trkpt>
      <trkpt lat="45.90612" lon="6.16739">
        <ele>722</ele>
        <time>2014-07-16T07:38:41Z</time>
      </trkpt>
      <trkpt lat="45.90604" lon="6.16754">
        <ele>743</ele>
        <time>2014-07-16T07:38:55Z</time>
      </trkpt>
      <trkpt lat="45.90643" lon="6.16756">
        <ele>748</ele>
        <time>2014-07-16T07:39:36Z</time>
      </trkpt>
      <trkpt lat="45.90657" lon="6.16771">
        <ele>750</ele>
        <time>2014-07-16T07:39:55Z</time>
      </trkpt>
      <trkpt lat="45.90658" lon="6.16783">
        <ele>754</ele>
        <time>2014-07-16T07:40:05Z</time>
      </trkpt>
      <trkpt lat="45.90639" lon="6.16806">
        <ele>759</ele>
        <time>2014-07-16T07:40:31Z</time>
      </trkpt>
      <trkpt lat="45.90677" lon="6.16809">
        <ele>768</ele>
        <time>2014-07-16T07:41:12Z</time>
      </trkpt>
      <trkpt lat="45.90633" lon="6.16851">
        <ele>790</ele>
        <time>2014-07-16T07:42:06Z</time>
      </trkpt>
      <trkpt lat="45.90638" lon="6.16854">
        <ele>790</ele>
        <time>2014-07-16T07:42:12Z</time>
      </trkpt>
      <trkpt lat="45.9065" lon="6.16854">
        <ele>790</ele>
        <time>2014-07-16T07:42:23Z</time>
      </trkpt>
      <trkpt lat="45.90683" lon="6.16836">
        <ele>793</ele>
        <time>2014-07-16T07:42:59Z</time>
      </trkpt>
      <trkpt lat="45.90705" lon="6.16828">
        <ele>772</ele>
        <time>2014-07-16T07:43:22Z</time>
      </trkpt>
      <trkpt lat="45.9071" lon="6.16829">
        <ele>773</ele>
        <time>2014-07-16T07:43:27Z</time>
      </trkpt>
      <trkpt lat="45.90711" lon="6.16845">
        <ele>803</ele>
        <time>2014-07-16T07:43:39Z</time>
      </trkpt>
      <trkpt lat="45.90661" lon="6.16923">
        <ele>826</ele>
        <time>2014-07-16T07:44:57Z</time>
      </trkpt>
      <trkpt lat="45.90653" lon="6.16921">
        <ele>828</ele>
        <time>2014-07-16T07:45:05Z</time>
      </trkpt>
      <trkpt lat="45.90639" lon="6.1692">
        <ele>831</ele>
        <time>2014-07-16T07:45:18Z</time>
      </trkpt>
      <trkpt lat="45.90607" lon="6.16919">
        <ele>829</ele>
        <time>2014-07-16T07:45:51Z</time>
      </trkpt>
      <trkpt lat="45.906" lon="6.16927">
        <ele>828</ele>
        <time>2014-07-16T07:46:00Z</time>
      </trkpt>
      <trkpt lat="45.90667" lon="6.16982">
        <ele>853</ele>
        <time>2014-07-16T07:47:22Z</time>
      </trkpt>
      <trkpt lat="45.90696" lon="6.17027">
        <ele>880</ele>
        <time>2014-07-16T07:48:08Z</time>
      </trkpt>
      <trkpt lat="45.90668" lon="6.17032">
        <ele>879</ele>
        <time>2014-07-16T07:48:38Z</time>
      </trkpt>
      <trkpt lat="45.90694" lon="6.1705">
        <ele>885</ele>
        <time>2014-07-16T07:49:08Z</time>
      </trkpt>
      <trkpt lat="45.9068" lon="6.17061">
        <ele>888</ele>
        <time>2014-07-16T07:49:24Z</time>
      </trkpt>
      <trkpt lat="45.90704" lon="6.17073">
        <ele>889</ele>
        <time>2014-07-16T07:49:50Z</time>
      </trkpt>
      <trkpt lat="45.90694" lon="6.1709">
        <ele>912</ele>
        <time>2014-07-16T07:50:06Z</time>
      </trkpt>
      <trkpt lat="45.90723" lon="6.1709">
        <ele>911</ele>
        <time>2014-07-16T07:50:35Z</time>
      </trkpt>
      <trkpt lat="45.90792" lon="6.1719">
        <ele>932</ele>
        <time>2014-07-16T07:52:16Z</time>
      </trkpt>
      <trkpt lat="45.90793" lon="6.17192">
        <ele>932</ele>
        <time>2014-07-16T07:52:18Z</time>
      </trkpt>
      <trkpt lat="45.90798" lon="6.17228">
        <ele>934</ele>
        <time>2014-07-16T07:52:44Z</time>
      </trkpt>
      <trkpt lat="45.90788" lon="6.17239">
        <ele>936</ele>
        <time>2014-07-16T07:52:57Z</time>
      </trkpt>
      <trkpt lat="45.90746" lon="6.17201">
        <ele>944</ele>
        <time>2014-07-16T07:53:47Z</time>
      </trkpt>
      <trkpt lat="45.90771" lon="6.17263">
        <ele>946</ele>
        <time>2014-07-16T07:54:37Z</time>
      </trkpt>
      <trkpt lat="45.90787" lon="6.17329">
        <ele>948</ele>
        <time>2014-07-16T07:55:26Z</time>
      </trkpt>
      <trkpt lat="45.90785" lon="6.17341">
        <ele>956</ele>
        <time>2014-07-16T07:55:35Z</time>
      </trkpt>
      <trkpt lat="45.90767" lon="6.17317">
        <ele>953</ele>
        <time>2014-07-16T07:56:00Z</time>
      </trkpt>
      <trkpt lat="45.90774" lon="6.17372">
        <ele>960</ele>
        <time>2014-07-16T07:56:39Z</time>
      </trkpt>
      <trkpt lat="45.90739" lon="6.17315">
        <ele>971</ele>
        <time>2014-07-16T07:57:33Z</time>
      </trkpt>
      <trkpt lat="45.90747" lon="6.17406">
        <ele>985</ele>
        <time>2014-07-16T07:58:39Z</time>
      </trkpt>
      <trkpt lat="45.90711" lon="6.17323">
        <ele>978</ele>
        <time>2014-07-16T07:59:47Z</time>
      </trkpt>
      <trkpt lat="45.90673" lon="6.17258">
        <ele>983</ele>
        <time>2014-07-16T08:00:46Z</time>
      </trkpt>
      <trkpt lat="45.90645" lon="6.17223">
        <ele>980</ele>
        <time>2014-07-16T08:01:24Z</time>
      </trkpt>
      <trkpt lat="45.90601" lon="6.17195">
        <ele>976</ele>
        <time>2014-07-16T08:02:13Z</time>
      </trkpt>
      <trkpt lat="45.90618" lon="6.17235">
        <ele>985</ele>
        <time>2014-07-16T08:02:46Z</time>
      </trkpt>
      <trkpt lat="45.90571" lon="6.17212">
        <ele>995</ele>
        <time>2014-07-16T08:03:35Z</time>
      </trkpt>
      <trkpt lat="45.90543" lon="6.17183">
        <ele>990</ele>
        <time>2014-07-16T08:04:10Z</time>
      </trkpt>
      <trkpt lat="45.90511" lon="6.1718">
        <ele>990</ele>
        <time>2014-07-16T08:04:42Z</time>
      </trkpt>
      <trkpt lat="45.90483" lon="6.17144">
        <ele>976</ele>
        <time>2014-07-16T08:05:19Z</time>
      </trkpt>
      <trkpt lat="45.90457" lon="6.17138">
        <ele>978</ele>
        <time>2014-07-16T08:05:46Z</time>
      </trkpt>
      <trkpt lat="45.90483" lon="6.17168">
        <ele>1003</ele>
        <time>2014-07-16T08:06:20Z</time>
      </trkpt>
      <trkpt lat="45.90452" lon="6.17157">
        <ele>985</ele>
        <time>2014-07-16T08:06:52Z</time>
      </trkpt>
      <trkpt lat="45.90484" lon="6.17204">
        <ele>1018</ele>
        <time>2014-07-16T08:07:38Z</time>
      </trkpt>
      <trkpt lat="45.90452" lon="6.17184">
        <ele>1020</ele>
        <time>2014-07-16T08:08:13Z</time>
      </trkpt>
      <trkpt lat="45.90479" lon="6.17223">
        <ele>1026</ele>
        <time>2014-07-16T08:08:53Z</time>
      </trkpt>
      <trkpt lat="45.90443" lon="6.17209">
        <ele>1029</ele>
        <time>2014-07-16T08:09:31Z</time>
      </trkpt>
      <trkpt lat="45.90466" lon="6.17252">
        <ele>1063</ele>
        <time>2014-07-16T08:10:10Z</time>
      </trkpt>
      <trkpt lat="45.90436" lon="6.17231">
        <ele>1040</ele>
        <time>2014-07-16T08:10:44Z</time>
      </trkpt>
      <trkpt lat="45.90397" lon="6.1723">
        <ele>1057</ele>
        <time>2014-07-16T08:11:25Z</time>
      </trkpt>
      <trkpt lat="45.90373" lon="6.17244">
        <ele>1060</ele>
        <time>2014-07-16T08:11:54Z</time>
      </trkpt>
      <trkpt lat="45.9036" lon="6.17287">
        <ele>1097</ele>
        <time>2014-07-16T08:12:31Z</time>
      </trkpt>
      <trkpt lat="45.90349" lon="6.17429">
        <ele>1157</ele>
        <time>2014-07-16T08:14:23Z</time>
      </trkpt>
      <trkpt lat="45.90335" lon="6.17445">
        <ele>1159</ele>
        <time>2014-07-16T08:14:43Z</time>
      </trkpt>
      <trkpt lat="45.9033" lon="6.17518">
        <ele>1162</ele>
        <time>2014-07-16T08:15:35Z</time>
      </trkpt>
      <trkpt lat="45.90326" lon="6.17542">
        <ele>1163</ele>
        <time>2014-07-16T08:15:52Z</time>
      </trkpt>
      <trkpt lat="45.90308" lon="6.17564">
        <ele>1164</ele>
        <time>2014-07-16T08:16:16Z</time>
      </trkpt>
      <trkpt lat="45.90302" lon="6.17579">
        <ele>1164</ele>
        <time>2014-07-16T08:16:28Z</time>
      </trkpt>
      <trkpt lat="45.90296" lon="6.17606">
        <ele>1184</ele>
        <time>2014-07-16T08:16:48Z</time>
      </trkpt>
      <trkpt lat="45.90284" lon="6.17633">
        <ele>1186</ele>
        <time>2014-07-16T08:17:11Z</time>
      </trkpt>
      <trkpt lat="45.90262" lon="6.17653">
        <ele>1186</ele>
        <time>2014-07-16T08:17:38Z</time>
      </trkpt>
      <trkpt lat="45.90257" lon="6.177">
        <ele>1212</ele>
        <time>2014-07-16T08:18:15Z</time>
      </trkpt>
      <trkpt lat="45.90252" lon="6.17716">
        <ele>1218</ele>
        <time>2014-07-16T08:18:28Z</time>
      </trkpt>
      <trkpt lat="45.90225" lon="6.17752">
        <ele>1221</ele>
        <time>2014-07-16T08:19:08Z</time>
      </trkpt>
      <trkpt lat="45.90208" lon="6.17788">
        <ele>1219</ele>
        <time>2014-07-16T08:19:39Z</time>
      </trkpt>
      <trkpt lat="45.90201" lon="6.17814">
        <ele>1228</ele>
        <time>2014-07-16T08:19:59Z</time>
      </trkpt>
      <trkpt lat="45.90199" lon="6.17849">
        <ele>1253</ele>
        <time>2014-07-16T08:20:24Z</time>
      </trkpt>
      <trkpt lat="45.90198" lon="6.17901">
        <ele>1255</ele>
        <time>2014-07-16T08:21:01Z</time>
      </trkpt>
      <trkpt lat="45.90191" lon="6.17919">
        <ele>1255</ele>
        <time>2014-07-16T08:21:15Z</time>
      </trkpt>
      <trkpt lat="45.90187" lon="6.17931">
        <ele>1255</ele>
        <time>2014-07-16T08:21:24Z</time>
      </trkpt>
      <trkpt lat="45.90188" lon="6.1795">
        <ele>1253</ele>
        <time>2014-07-16T08:21:38Z</time>
      </trkpt>
      <trkpt lat="45.90176" lon="6.17983">
        <ele>1251</ele>
        <time>2014-07-16T08:22:04Z</time>
      </trkpt>
      <trkpt lat="45.90161" lon="6.18007">
        <ele>1233</ele>
        <time>2014-07-16T08:22:28Z</time>
      </trkpt>
      <trkpt lat="45.90146" lon="6.18041">
        <ele>1210</ele>
        <time>2014-07-16T08:22:59Z</time>
      </trkpt>
      <trkpt lat="45.90124" lon="6.18071">
        <ele>1201</ele>
        <time>2014-07-16T08:23:31Z</time>
      </trkpt>
      <trkpt lat="45.90117" lon="6.18096">
        <ele>1222</ele>
        <time>2014-07-16T08:23:49Z</time>
      </trkpt>
      <trkpt lat="45.90111" lon="6.1816">
        <ele>1241</ele>
        <time>2014-07-16T08:24:41Z</time>
      </trkpt>
      <trkpt lat="45.9009" lon="6.18217">
        <ele>1267</ele>
        <time>2014-07-16T08:25:31Z</time>
      </trkpt>
      <trkpt lat="45.90062" lon="6.18258">
        <ele>1262</ele>
        <time>2014-07-16T08:26:12Z</time>
      </trkpt>
      <trkpt lat="45.9" lon="6.18329">
        <ele>1259</ele>
        <time>2014-07-16T08:27:32Z</time>
      </trkpt>
      <trkpt lat="45.89992" lon="6.18358">
        <ele>1244</ele>
        <time>2014-07-16T08:27:54Z</time>
      </trkpt>
      <trkpt lat="45.89971" lon="6.18375">
        <ele>1239</ele>
        <time>2014-07-16T08:28:17Z</time>
      </trkpt>
      <trkpt lat="45.8996" lon="6.18399">
        <ele>1241</ele>
        <time>2014-07-16T08:28:38Z</time>
      </trkpt>
      <trkpt lat="45.89937" lon="6.18418">
        <ele>1257</ele>
        <time>2014-07-16T08:29:04Z</time>
      </trkpt>
      <trkpt lat="45.89935" lon="6.18425">
        <ele>1257</ele>
        <time>2014-07-16T08:29:09Z</time>
      </trkpt>
      <trkpt lat="45.89908" lon="6.18443">
        <ele>1248</ele>
        <time>2014-07-16T08:29:40Z</time>
      </trkpt>
      <trkpt lat="45.89902" lon="6.18454">
        <ele>1249</ele>
        <time>2014-07-16T08:29:50Z</time>
      </trkpt>
      <trkpt lat="45.89877" lon="6.18469">
        <ele>1248</ele>
        <time>2014-07-16T08:30:19Z</time>
      </trkpt>
      <trkpt lat="45.89841" lon="6.18504">
        <ele>1272</ele>
        <time>2014-07-16T08:31:02Z</time>
      </trkpt>
      <trkpt lat="45.89797" lon="6.18533">
        <ele>1252</ele>
        <time>2014-07-16T08:31:54Z</time>
      </trkpt>
      <trkpt lat="45.89744" lon="6.18548">
        <ele>1217</ele>
        <time>2014-07-16T08:32:52Z</time>
      </trkpt>
      <trkpt lat="45.89706" lon="6.18573">
        <ele>1215</ele>
        <time>2014-07-16T08:33:33Z</time>
      </trkpt>
      <trkpt lat="45.89687" lon="6.18593">
        <ele>1249</ele>
        <time>2014-07-16T08:33:58Z</time>
      </trkpt>
      <trkpt lat="45.89672" lon="6.18624">
        <ele>1261</ele>
        <time>2014-07-16T08:34:29Z</time>
      </trkpt>
      <trkpt lat="45.89671" lon="6.18636">
        <ele>1267</ele>
        <time>2014-07-16T08:34:40Z</time>
      </trkpt>
      <trkpt lat="45.89678" lon="6.18646">
        <ele>1271</ele>
        <time>2014-07-16T08:34:51Z</time>
      </trkpt>
      <trkpt lat="45.89677" lon="6.18662">
        <ele>1276</ele>
        <time>2014-07-16T08:35:04Z</time>
      </trkpt>
      <trkpt lat="45.89669" lon="6.18671">
        <ele>1281</ele>
        <time>2014-07-16T08:35:14Z</time>
      </trkpt>
      <trkpt lat="45.89664" lon="6.18684">
        <ele>1272</ele>
        <time>2014-07-16T08:35:24Z</time>
      </trkpt>
      <trkpt lat="45.89655" lon="6.18687">
        <ele>1270</ele>
        <time>2014-07-16T08:35:34Z</time>
      </trkpt>
      <trkpt lat="45.89648" lon="6.18695">
        <ele>1267</ele>
        <time>2014-07-16T08:35:44Z</time>
      </trkpt>
      <trkpt lat="45.89635" lon="6.18695">
        <ele>1264</ele>
        <time>2014-07-16T08:35:58Z</time>
      </trkpt>
      <trkpt lat="45.89583" lon="6.18747">
        <ele>1258</ele>
        <time>2014-07-16T08:37:03Z</time>
      </trkpt>
      <trkpt lat="45.89561" lon="6.18748">
        <ele>1237</ele>
        <time>2014-07-16T08:37:25Z</time>
      </trkpt>
      <trkpt lat="45.89536" lon="6.18763">
        <ele>1248</ele>
        <time>2014-07-16T08:37:52Z</time>
      </trkpt>
      <trkpt lat="45.89514" lon="6.18759">
        <ele>1245</ele>
        <time>2014-07-16T08:38:14Z</time>
      </trkpt>
      <trkpt lat="45.89495" lon="6.1877">
        <ele>1238</ele>
        <time>2014-07-16T08:38:35Z</time>
      </trkpt>
      <trkpt lat="45.89493" lon="6.18779">
        <ele>1238</ele>
        <time>2014-07-16T08:38:41Z</time>
      </trkpt>
      <trkpt lat="45.89495" lon="6.18793">
        <ele>1238</ele>
        <time>2014-07-16T08:38:52Z</time>
      </trkpt>
      <trkpt lat="45.89473" lon="6.18795">
        <ele>1237</ele>
        <time>2014-07-16T08:39:15Z</time>
      </trkpt>
      <trkpt lat="45.89447" lon="6.18808">
        <ele>1237</ele>
        <time>2014-07-16T08:39:42Z</time>
      </trkpt>
      <trkpt lat="45.89417" lon="6.18819">
        <ele>1240</ele>
        <time>2014-07-16T08:40:13Z</time>
      </trkpt>
      <trkpt lat="45.89399" lon="6.18832">
        <ele>1227</ele>
        <time>2014-07-16T08:40:33Z</time>
      </trkpt>
      <trkpt lat="45.89377" lon="6.18842">
        <ele>1235</ele>
        <time>2014-07-16T08:40:56Z</time>
      </trkpt>
      <trkpt lat="45.89361" lon="6.18856">
        <ele>1234</ele>
        <time>2014-07-16T08:41:15Z</time>
      </trkpt>
      <trkpt lat="45.89334" lon="6.18863">
        <ele>1233</ele>
        <time>2014-07-16T08:41:43Z</time>
      </trkpt>
      <trkpt lat="45.89307" lon="6.18875">
        <ele>1233</ele>
        <time>2014-07-16T08:42:11Z</time>
      </trkpt>
      <trkpt lat="45.8928" lon="6.18894">
        <ele>1235</ele>
        <time>2014-07-16T08:42:41Z</time>
      </trkpt>
      <trkpt lat="45.89264" lon="6.18897">
        <ele>1237</ele>
        <time>2014-07-16T08:42:57Z</time>
      </trkpt>
      <trkpt lat="45.8924" lon="6.18895">
        <ele>1226</ele>
        <time>2014-07-16T08:43:21Z</time>
      </trkpt>
      <trkpt lat="45.89227" lon="6.18912">
        <ele>1228</ele>
        <time>2014-07-16T08:43:39Z</time>
      </trkpt>
      <trkpt lat="45.89195" lon="6.1893">
        <ele>1238</ele>
        <time>2014-07-16T08:44:13Z</time>
      </trkpt>
      <trkpt lat="45.89188" lon="6.18925">
        <ele>1239</ele>
        <time>2014-07-16T08:44:21Z</time>
      </trkpt>
      <trkpt lat="45.8918" lon="6.18932">
        <ele>1239</ele>
        <time>2014-07-16T08:44:30Z</time>
      </trkpt>
      <trkpt lat="45.89172" lon="6.18932">
        <ele>1240</ele>
        <time>2014-07-16T08:44:39Z</time>
      </trkpt>
      <trkpt lat="45.89169" lon="6.18919">
        <ele>1244</ele>
        <time>2014-07-16T08:44:49Z</time>
      </trkpt>
      <trkpt lat="45.89143" lon="6.18932">
        <ele>1230</ele>
        <time>2014-07-16T08:45:17Z</time>
      </trkpt>
      <trkpt lat="45.8913" lon="6.18941">
        <ele>1226</ele>
        <time>2014-07-16T08:45:32Z</time>
      </trkpt>
      <trkpt lat="45.89114" lon="6.18948">
        <ele>1222</ele>
        <time>2014-07-16T08:45:50Z</time>
      </trkpt>
      <trkpt lat="45.89096" lon="6.18961">
        <ele>1219</ele>
        <time>2014-07-16T08:46:12Z</time>
      </trkpt>
      <trkpt lat="45.8909" lon="6.18984">
        <ele>1216</ele>
        <time>2014-07-16T08:46:30Z</time>
      </trkpt>
      <trkpt lat="45.89078" lon="6.19">
        <ele>1202</ele>
        <time>2014-07-16T08:46:49Z</time>
      </trkpt>
      <trkpt lat="45.89082" lon="6.19014">
        <ele>1192</ele>
        <time>2014-07-16T08:47:00Z</time>
      </trkpt>
      <trkpt lat="45.89072" lon="6.19018">
        <ele>1186</ele>
        <time>2014-07-16T08:47:12Z</time>
      </trkpt>
      <trkpt lat="45.89072" lon="6.19027">
        <ele>1181</ele>
        <time>2014-07-16T08:47:19Z</time>
      </trkpt>
      <trkpt lat="45.89065" lon="6.19029">
        <ele>1179</ele>
        <time>2014-07-16T08:47:26Z</time>
      </trkpt>
      <trkpt lat="45.8906" lon="6.19019">
        <ele>1179</ele>
        <time>2014-07-16T08:47:35Z</time>
      </trkpt>
      <trkpt lat="45.89053" lon="6.19032">
        <ele>1173</ele>
        <time>2014-07-16T08:47:47Z</time>
      </trkpt>
      <trkpt lat="45.89065" lon="6.19062">
        <ele>1173</ele>
        <time>2014-07-16T08:48:12Z</time>
      </trkpt>
      <trkpt lat="45.8909" lon="6.19073">
        <ele>1187</ele>
        <time>2014-07-16T08:48:38Z</time>
      </trkpt>
      <trkpt lat="45.89104" lon="6.19084">
        <ele>1171</ele>
        <time>2014-07-16T08:48:54Z</time>
      </trkpt>
      <trkpt lat="45.89106" lon="6.19098">
        <ele>1169</ele>
        <time>2014-07-16T08:49:04Z</time>
      </trkpt>
      <trkpt lat="45.89064" lon="6.19103">
        <ele>1157</ele>
        <time>2014-07-16T08:49:48Z</time>
      </trkpt>
      <trkpt lat="45.89077" lon="6.19124">
        <ele>1152</ele>
        <time>2014-07-16T08:50:09Z</time>
      </trkpt>
      <trkpt lat="45.89057" lon="6.19138">
        <ele>1146</ele>
        <time>2014-07-16T08:50:33Z</time>
      </trkpt>
      <trkpt lat="45.89018" lon="6.1915">
        <ele>1135</ele>
        <time>2014-07-16T08:51:14Z</time>
      </trkpt>
      <trkpt lat="45.89046" lon="6.19181">
        <ele>1120</ele>
        <time>2014-07-16T08:51:51Z</time>
      </trkpt>
      <trkpt lat="45.89034" lon="6.192">
        <ele>1115</ele>
        <time>2014-07-16T08:52:09Z</time>
      </trkpt>
      <trkpt lat="45.89017" lon="6.1921">
        <ele>1111</ele>
        <time>2014-07-16T08:52:28Z</time>
      </trkpt>
      <trkpt lat="45.88978" lon="6.19152">
        <ele>1110</ele>
        <time>2014-07-16T08:53:24Z</time>
      </trkpt>
      <trkpt lat="45.88955" lon="6.19123">
        <ele>1108</ele>
        <time>2014-07-16T08:53:55Z</time>
      </trkpt>
      <trkpt lat="45.88924" lon="6.19102">
        <ele>1103</ele>
        <time>2014-07-16T08:54:30Z</time>
      </trkpt>
      <trkpt lat="45.88901" lon="6.19075">
        <ele>1087</ele>
        <time>2014-07-16T08:55:01Z</time>
      </trkpt>
      <trkpt lat="45.88858" lon="6.19039">
        <ele>1072</ele>
        <time>2014-07-16T08:55:54Z</time>
      </trkpt>
      <trkpt lat="45.88855" lon="6.19024">
        <ele>1071</ele>
        <time>2014-07-16T08:56:05Z</time>
      </trkpt>
      <trkpt lat="45.88858" lon="6.18994">
        <ele>1068</ele>
        <time>2014-07-16T08:56:27Z</time>
      </trkpt>
      <trkpt lat="45.88851" lon="6.18987">
        <ele>1067</ele>
        <time>2014-07-16T08:56:35Z</time>
      </trkpt>
      <trkpt lat="45.88823" lon="6.18981">
        <ele>1054</ele>
        <time>2014-07-16T08:57:03Z</time>
      </trkpt>
      <trkpt lat="45.88823" lon="6.18961">
        <ele>1052</ele>
        <time>2014-07-16T08:57:17Z</time>
      </trkpt>
      <trkpt lat="45.88826" lon="6.18934">
        <ele>1054</ele>
        <time>2014-07-16T08:57:36Z</time>
      </trkpt>
      <trkpt lat="45.88809" lon="6.18946">
        <ele>1052</ele>
        <time>2014-07-16T08:57:55Z</time>
      </trkpt>
      <trkpt lat="45.88772" lon="6.19045">
        <ele>1028</ele>
        <time>2014-07-16T08:59:17Z</time>
      </trkpt>
      <trkpt lat="45.88776" lon="6.1907">
        <ele>1024</ele>
        <time>2014-07-16T08:59:36Z</time>
      </trkpt>
      <trkpt lat="45.88775" lon="6.19092">
        <ele>1014</ele>
        <time>2014-07-16T08:59:52Z</time>
      </trkpt>
      <trkpt lat="45.88766" lon="6.19135">
        <ele>1013</ele>
        <time>2014-07-16T09:00:25Z</time>
      </trkpt>
      <trkpt lat="45.88762" lon="6.19141">
        <ele>1012</ele>
        <time>2014-07-16T09:00:32Z</time>
      </trkpt>
      <trkpt lat="45.88744" lon="6.19129">
        <ele>988</ele>
        <time>2014-07-16T09:00:52Z</time>
      </trkpt>
      <trkpt lat="45.8873" lon="6.19127">
        <ele>986</ele>
        <time>2014-07-16T09:01:07Z</time>
      </trkpt>
      <trkpt lat="45.88725" lon="6.191">
        <ele>986</ele>
        <time>2014-07-16T09:01:27Z</time>
      </trkpt>
      <trkpt lat="45.88709" lon="6.19143">
        <ele>982</ele>
        <time>2014-07-16T09:02:01Z</time>
      </trkpt>
      <trkpt lat="45.88675" lon="6.19189">
        <ele>987</ele>
        <time>2014-07-16T09:02:48Z</time>
      </trkpt>
      <trkpt lat="45.88624" lon="6.1919">
        <ele>966</ele>
        <time>2014-07-16T09:03:40Z</time>
      </trkpt>
      <trkpt lat="45.88587" lon="6.19213">
        <ele>968</ele>
        <time>2014-07-16T09:04:21Z</time>
      </trkpt>
      <trkpt lat="45.88602" lon="6.19174">
        <ele>953</ele>
        <time>2014-07-16T09:04:53Z</time>
      </trkpt>
      <trkpt lat="45.88629" lon="6.19134">
        <ele>944</ele>
        <time>2014-07-16T09:05:33Z</time>
      </trkpt>
      <trkpt lat="45.8861" lon="6.19138">
        <ele>939</ele>
        <time>2014-07-16T09:05:53Z</time>
      </trkpt>
      <trkpt lat="45.8853" lon="6.19182">
        <ele>937</ele>
        <time>2014-07-16T09:07:19.980Z</time>
      </trkpt>
      <trkpt lat="45.8853" lon="6.19182">
        <ele>937</ele>
        <time>2014-07-16T09:07:20Z</time>
      </trkpt>
      <trkpt lat="45.88526" lon="6.19183">
        <ele>937</ele>
        <time>2014-07-16T09:07:23Z</time>
      </trkpt>
      <trkpt lat="45.8854" lon="6.1915">
        <ele>912</ele>
        <time>2014-07-16T09:07:51Z</time>
      </trkpt>
      <trkpt lat="45.88516" lon="6.1916">
        <ele>910</ele>
        <time>2014-07-16T09:08:16Z</time>
      </trkpt>
      <trkpt lat="45.88494" lon="6.19163">
        <ele>907</ele>
        <time>2014-07-16T09:08:39Z</time>
      </trkpt>
      <trkpt lat="45.88486" lon="6.19158">
        <ele>904</ele>
        <time>2014-07-16T09:08:47Z</time>
      </trkpt>
      <trkpt lat="45.88502" lon="6.19142">
        <ele>907</ele>
        <time>2014-07-16T09:09:07Z</time>
      </trkpt>
      <trkpt lat="45.88514" lon="6.19125">
        <ele>904</ele>
        <time>2014-07-16T09:09:24Z</time>
      </trkpt>
      <trkpt lat="45.88469" lon="6.19131">
        <ele>896</ele>
        <time>2014-07-16T09:10:10Z</time>
      </trkpt>
      <trkpt lat="45.88436" lon="6.19116">
        <ele>893</ele>
        <time>2014-07-16T09:10:45Z</time>
      </trkpt>
      <trkpt lat="45.88455" lon="6.19107">
        <ele>892</ele>
        <time>2014-07-16T09:11:05Z</time>
      </trkpt>
      <trkpt lat="45.88468" lon="6.19092">
        <ele>889</ele>
        <time>2014-07-16T09:11:21Z</time>
      </trkpt>
      <trkpt lat="45.88475" lon="6.19066">
        <ele>872</ele>
        <time>2014-07-16T09:11:41Z</time>
      </trkpt>
      <trkpt lat="45.8847" lon="6.19058">
        <ele>871</ele>
        <time>2014-07-16T09:11:48Z</time>
      </trkpt>
      <trkpt lat="45.8845" lon="6.19079">
        <ele>872</ele>
        <time>2014-07-16T09:12:13Z</time>
      </trkpt>
      <trkpt lat="45.88435" lon="6.19086">
        <ele>885</ele>
        <time>2014-07-16T09:12:29Z</time>
      </trkpt>
      <trkpt lat="45.88415" lon="6.19076">
        <ele>876</ele>
        <time>2014-07-16T09:12:50Z</time>
      </trkpt>
      <trkpt lat="45.88409" lon="6.19062">
        <ele>874</ele>
        <time>2014-07-16T09:13:01Z</time>
      </trkpt>
      <trkpt lat="45.8845" lon="6.19025">
        <ele>866</ele>
        <time>2014-07-16T09:13:51Z</time>
      </trkpt>
      <trkpt lat="45.88466" lon="6.18995">
        <ele>851</ele>
        <time>2014-07-16T09:14:19Z</time>
      </trkpt>
      <trkpt lat="45.88466" lon="6.18973">
        <ele>848</ele>
        <time>2014-07-16T09:14:35Z</time>
      </trkpt>
      <trkpt lat="45.8845" lon="6.18958">
        <ele>845</ele>
        <time>2014-07-16T09:14:56Z</time>
      </trkpt>
      <trkpt lat="45.88455" lon="6.18924">
        <ele>840</ele>
        <time>2014-07-16T09:15:21Z</time>
      </trkpt>
      <trkpt lat="45.88471" lon="6.18882">
        <ele>820</ele>
        <time>2014-07-16T09:15:57Z</time>
      </trkpt>
      <trkpt lat="45.885" lon="6.18787">
        <ele>815</ele>
        <time>2014-07-16T09:17:11Z</time>
      </trkpt>
      <trkpt lat="45.88541" lon="6.18685">
        <ele>790</ele>
        <time>2014-07-16T09:18:34Z</time>
      </trkpt>
      <trkpt lat="45.88555" lon="6.18664">
        <ele>772</ele>
        <time>2014-07-16T09:18:55Z</time>
      </trkpt>
      <trkpt lat="45.88586" lon="6.18642">
        <ele>792</ele>
        <time>2014-07-16T09:19:29Z</time>
      </trkpt>
      <trkpt lat="45.88638" lon="6.18621">
        <ele>793</ele>
        <time>2014-07-16T09:20:24Z</time>
      </trkpt>
      <trkpt lat="45.88697" lon="6.18603">
        <ele>807</ele>
        <time>2014-07-16T09:21:24Z</time>
      </trkpt>
      <trkpt lat="45.88758" lon="6.18598">
        <ele>815</ele>
        <time>2014-07-16T09:22:27Z</time>
      </trkpt>
      <trkpt lat="45.8882" lon="6.18602">
        <ele>826</ele>
        <time>2014-07-16T09:23:30Z</time>
      </trkpt>
      <trkpt lat="45.88832" lon="6.18595">
        <ele>824</ele>
        <time>2014-07-16T09:23:44Z</time>
      </trkpt>
      <trkpt lat="45.88841" lon="6.18566">
        <ele>815</ele>
        <time>2014-07-16T09:24:07Z</time>
      </trkpt>
      <trkpt lat="45.88846" lon="6.18549">
        <ele>810</ele>
        <time>2014-07-16T09:24:22Z</time>
      </trkpt>
      <trkpt lat="45.88858" lon="6.18535">
        <ele>807</ele>
        <time>2014-07-16T09:24:37Z</time>
      </trkpt>
      <trkpt lat="45.88905" lon="6.1854">
        <ele>811</ele>
        <time>2014-07-16T09:25:25Z</time>
      </trkpt>
      <trkpt lat="45.88936" lon="6.18547">
        <ele>824</ele>
        <time>2014-07-16T09:25:58Z</time>
      </trkpt>
      <trkpt lat="45.88943" lon="6.18542">
        <ele>823</ele>
        <time>2014-07-16T09:26:05Z</time>
      </trkpt>
      <trkpt lat="45.88971" lon="6.18486">
        <ele>797</ele>
        <time>2014-07-16T09:26:54Z</time>
      </trkpt>
      <trkpt lat="45.8901" lon="6.18422">
        <ele>797</ele>
        <time>2014-07-16T09:27:56Z</time>
      </trkpt>
      <trkpt lat="45.89063" lon="6.18367">
        <ele>787</ele>
        <time>2014-07-16T09:29:02Z</time>
      </trkpt>
      <trkpt lat="45.89093" lon="6.18333">
        <ele>779</ele>
        <time>2014-07-16T09:29:41Z</time>
      </trkpt>
      <trkpt lat="45.89152" lon="6.18315">
        <ele>788</ele>
        <time>2014-07-16T09:30:41Z</time>
      </trkpt>
      <trkpt lat="45.89165" lon="6.18306">
        <ele>787</ele>
        <time>2014-07-16T09:30:56Z</time>
      </trkpt>
      <trkpt lat="45.89168" lon="6.18281">
        <ele>798</ele>
        <time>2014-07-16T09:31:14Z</time>
      </trkpt>
      <trkpt lat="45.8916" lon="6.1824">
        <ele>767</ele>
        <time>2014-07-16T09:31:46Z</time>
      </trkpt>
      <trkpt lat="45.89168" lon="6.18173">
        <ele>764</ele>
        <time>2014-07-16T09:32:34Z</time>
      </trkpt>
      <trkpt lat="45.89184" lon="6.18108">
        <ele>760</ele>
        <time>2014-07-16T09:33:23Z</time>
      </trkpt>
      <trkpt lat="45.8922" lon="6.18034">
        <ele>748</ele>
        <time>2014-07-16T09:34:26Z</time>
      </trkpt>
      <trkpt lat="45.89261" lon="6.17969">
        <ele>750</ele>
        <time>2014-07-16T09:35:27Z</time>
      </trkpt>
      <trkpt lat="45.89343" lon="6.17868">
        <ele>738</ele>
        <time>2014-07-16T09:37:16Z</time>
      </trkpt>
      <trkpt lat="45.89377" lon="6.17826">
        <ele>717</ele>
        <time>2014-07-16T09:38:01Z</time>
      </trkpt>
      <trkpt lat="45.89393" lon="6.17813">
        <ele>718</ele>
        <time>2014-07-16T09:38:20Z</time>
      </trkpt>
      <trkpt lat="45.89417" lon="6.17811">
        <ele>722</ele>
        <time>2014-07-16T09:38:44Z</time>
      </trkpt>
      <trkpt lat="45.89453" lon="6.17828">
        <ele>728</ele>
        <time>2014-07-16T09:39:23Z</time>
      </trkpt>
      <trkpt lat="45.89488" lon="6.17852">
        <ele>752</ele>
        <time>2014-07-16T09:40:03Z</time>
      </trkpt>
      <trkpt lat="45.89508" lon="6.17857">
        <ele>759</ele>
        <time>2014-07-16T09:40:24Z</time>
      </trkpt>
      <trkpt lat="45.89535" lon="6.17869">
        <ele>766</ele>
        <time>2014-07-16T09:40:53Z</time>
      </trkpt>
      <trkpt lat="45.89555" lon="6.1786">
        <ele>767</ele>
        <time>2014-07-16T09:41:15Z</time>
      </trkpt>
      <trkpt lat="45.89604" lon="6.17791">
        <ele>775</ele>
        <time>2014-07-16T09:42:23Z</time>
      </trkpt>
      <trkpt lat="45.89623" lon="6.17755">
        <ele>778</ele>
        <time>2014-07-16T09:42:55Z</time>
      </trkpt>
      <trkpt lat="45.8963" lon="6.17718">
        <ele>768</ele>
        <time>2014-07-16T09:43:22Z</time>
      </trkpt>
      <trkpt lat="45.89644" lon="6.17706">
        <ele>770</ele>
        <time>2014-07-16T09:43:38Z</time>
      </trkpt>
      <trkpt lat="45.89738" lon="6.17728">
        <ele>808</ele>
        <time>2014-07-16T09:45:20Z</time>
      </trkpt>
      <trkpt lat="45.89751" lon="6.17743">
        <ele>825</ele>
        <time>2014-07-16T09:45:38Z</time>
      </trkpt>
      <trkpt lat="45.89758" lon="6.17763">
        <ele>837</ele>
        <time>2014-07-16T09:45:55Z</time>
      </trkpt>
      <trkpt lat="45.89774" lon="6.17772">
        <ele>844</ele>
        <time>2014-07-16T09:46:12Z</time>
      </trkpt>
      <trkpt lat="45.89794" lon="6.17754">
        <ele>846</ele>
        <time>2014-07-16T09:46:37Z</time>
      </trkpt>
      <trkpt lat="45.89814" lon="6.17743">
        <ele>834</ele>
        <time>2014-07-16T09:46:58Z</time>
      </trkpt>
      <trkpt lat="45.89824" lon="6.17721">
        <ele>832</ele>
        <time>2014-07-16T09:47:17Z</time>
      </trkpt>
      <trkpt lat="45.89822" lon="6.17647">
        <ele>825</ele>
        <time>2014-07-16T09:48:09Z</time>
      </trkpt>
      <trkpt lat="45.89824" lon="6.17564">
        <ele>842</ele>
        <time>2014-07-16T09:49:09Z</time>
      </trkpt>
      <trkpt lat="45.89833" lon="6.17474">
        <ele>885</ele>
        <time>2014-07-16T09:50:14Z</time>
      </trkpt>
      <trkpt lat="45.8985" lon="6.17405">
        <ele>883</ele>
        <time>2014-07-16T09:51:06Z</time>
      </trkpt>
      <trkpt lat="45.89857" lon="6.17387">
        <ele>885</ele>
        <time>2014-07-16T09:51:21Z</time>
      </trkpt>
      <trkpt lat="45.8987" lon="6.17385">
        <ele>887</ele>
        <time>2014-07-16T09:51:35Z</time>
      </trkpt>
      <trkpt lat="45.89916" lon="6.17424">
        <ele>909</ele>
        <time>2014-07-16T09:52:33Z</time>
      </trkpt>
      <trkpt lat="45.89981" lon="6.17421">
        <ele>939</ele>
        <time>2014-07-16T09:53:41Z</time>
      </trkpt>
      <trkpt lat="45.90023" lon="6.17388">
        <ele>944</ele>
        <time>2014-07-16T09:54:30Z</time>
      </trkpt>
      <trkpt lat="45.90062" lon="6.17351">
        <ele>945</ele>
        <time>2014-07-16T09:55:16Z</time>
      </trkpt>
      <trkpt lat="45.9006" lon="6.1737">
        <ele>948</ele>
        <time>2014-07-16T09:55:30Z</time>
      </trkpt>
      <trkpt lat="45.90035" lon="6.17446">
        <ele>970</ele>
        <time>2014-07-16T09:56:31Z</time>
      </trkpt>
      <trkpt lat="45.90031" lon="6.17463">
        <ele>971</ele>
        <time>2014-07-16T09:56:44Z</time>
      </trkpt>
      <trkpt lat="45.90034" lon="6.17475">
        <ele>973</ele>
        <time>2014-07-16T09:56:53Z</time>
      </trkpt>
      <trkpt lat="45.90047" lon="6.17477">
        <ele>977</ele>
        <time>2014-07-16T09:57:07Z</time>
      </trkpt>
      <trkpt lat="45.90095" lon="6.17428">
        <ele>994</ele>
        <time>2014-07-16T09:58:07Z</time>
      </trkpt>
      <trkpt lat="45.90107" lon="6.17425">
        <ele>1000</ele>
        <time>2014-07-16T09:58:19Z</time>
      </trkpt>
      <trkpt lat="45.90109" lon="6.1744">
        <ele>1004</ele>
        <time>2014-07-16T09:58:30Z</time>
      </trkpt>
      <trkpt lat="45.90094" lon="6.1747">
        <ele>1007</ele>
        <time>2014-07-16T09:58:56Z</time>
      </trkpt>
      <trkpt lat="45.90074" lon="6.175">
        <ele>1000</ele>
        <time>2014-07-16T09:59:24Z</time>
      </trkpt>
      <trkpt lat="45.90062" lon="6.17528">
        <ele>996</ele>
        <time>2014-07-16T09:59:48Z</time>
      </trkpt>
      <trkpt lat="45.90055" lon="6.17561">
        <ele>999</ele>
        <time>2014-07-16T10:00:12Z</time>
      </trkpt>
      <trkpt lat="45.90049" lon="6.17602">
        <ele>1007</ele>
        <time>2014-07-16T10:00:41Z</time>
      </trkpt>
      <trkpt lat="45.90046" lon="6.17625">
        <ele>1007</ele>
        <time>2014-07-16T10:00:58Z</time>
      </trkpt>
      <trkpt lat="45.90054" lon="6.1765">
        <ele>1013</ele>
        <time>2014-07-16T10:01:17Z</time>
      </trkpt>
      <trkpt lat="45.9007" lon="6.17585">
        <ele>1018</ele>
        <time>2014-07-16T10:02:06Z</time>
      </trkpt>
      <trkpt lat="45.90083" lon="6.17567">
        <ele>1011</ele>
        <time>2014-07-16T10:02:24Z</time>
      </trkpt>
      <trkpt lat="45.90113" lon="6.1755">
        <ele>1036</ele>
        <time>2014-07-16T10:02:57Z</time>
      </trkpt>
      <trkpt lat="45.90145" lon="6.1752">
        <ele>1040</ele>
        <time>2014-07-16T10:03:37Z</time>
      </trkpt>
      <trkpt lat="45.90147" lon="6.17528">
        <ele>1041</ele>
        <time>2014-07-16T10:03:43Z</time>
      </trkpt>
      <trkpt lat="45.90135" lon="6.17557">
        <ele>1043</ele>
        <time>2014-07-16T10:04:07Z</time>
      </trkpt>
      <trkpt lat="45.90149" lon="6.17591">
        <ele>1067</ele>
        <time>2014-07-16T10:04:36Z</time>
      </trkpt>
      <trkpt lat="45.90143" lon="6.17601">
        <ele>1064</ele>
        <time>2014-07-16T10:04:46Z</time>
      </trkpt>
      <trkpt lat="45.90139" lon="6.1764">
        <ele>1067</ele>
        <time>2014-07-16T10:05:15Z</time>
      </trkpt>
      <trkpt lat="45.90147" lon="6.17639">
        <ele>1070</ele>
        <time>2014-07-16T10:05:24Z</time>
      </trkpt>
      <trkpt lat="45.90187" lon="6.17598">
        <ele>1105</ele>
        <time>2014-07-16T10:06:16Z</time>
      </trkpt>
      <trkpt lat="45.90191" lon="6.17597">
        <ele>1108</ele>
        <time>2014-07-16T10:06:21Z</time>
      </trkpt>
      <trkpt lat="45.90194" lon="6.17609">
        <ele>1113</ele>
        <time>2014-07-16T10:06:30Z</time>
      </trkpt>
      <trkpt lat="45.90191" lon="6.17642">
        <ele>1119</ele>
        <time>2014-07-16T10:06:55Z</time>
      </trkpt>
      <trkpt lat="45.90254" lon="6.17568">
        <ele>1140</ele>
        <time>2014-07-16T10:08:18Z</time>
      </trkpt>
      <trkpt lat="45.90262" lon="6.1755">
        <ele>1143</ele>
        <time>2014-07-16T10:08:33Z</time>
      </trkpt>
      <trkpt lat="45.90294" lon="6.17457">
        <ele>1127</ele>
        <time>2014-07-16T10:09:48Z</time>
      </trkpt>
      <trkpt lat="45.90299" lon="6.17453">
        <ele>1129</ele>
        <time>2014-07-16T10:09:54Z</time>
      </trkpt>
      <trkpt lat="45.90307" lon="6.17467">
        <ele>1134</ele>
        <time>2014-07-16T10:10:07Z</time>
      </trkpt>
      <trkpt lat="45.90323" lon="6.17496">
        <ele>1153</ele>
        <time>2014-07-16T10:10:33Z</time>
      </trkpt>
      <trkpt lat="45.9033" lon="6.17495">
        <ele>1159</ele>
        <time>2014-07-16T10:10:41Z</time>
      </trkpt>
      <trkpt lat="45.90334" lon="6.17449">
        <ele>1160</ele>
        <time>2014-07-16T10:11:13Z</time>
      </trkpt>
      <trkpt lat="45.90348" lon="6.1743">
        <ele>1157</ele>
        <time>2014-07-16T10:11:33Z</time>
      </trkpt>
      <trkpt lat="45.9036" lon="6.17287">
        <ele>1097</ele>
        <time>2014-07-16T10:13:26Z</time>
      </trkpt>
      <trkpt lat="45.90372" lon="6.17243">
        <ele>1060</ele>
        <time>2014-07-16T10:14:04Z</time>
      </trkpt>
      <trkpt lat="45.90399" lon="6.17233">
        <ele>1058</ele>
        <time>2014-07-16T10:14:33Z</time>
      </trkpt>
      <trkpt lat="45.90434" lon="6.17232">
        <ele>1041</ele>
        <time>2014-07-16T10:15:11Z</time>
      </trkpt>
      <trkpt lat="45.90465" lon="6.17252">
        <ele>1063</ele>
        <time>2014-07-16T10:15:45Z</time>
      </trkpt>
      <trkpt lat="45.90441" lon="6.17209">
        <ele>1029</ele>
        <time>2014-07-16T10:16:24Z</time>
      </trkpt>
      <trkpt lat="45.9044" lon="6.17213">
        <ele>1031</ele>
        <time>2014-07-16T10:16:27Z</time>
      </trkpt>
      <trkpt lat="45.90478" lon="6.17221">
        <ele>1025</ele>
        <time>2014-07-16T10:17:06Z</time>
      </trkpt>
      <trkpt lat="45.9045" lon="6.17183">
        <ele>1020</ele>
        <time>2014-07-16T10:17:46Z</time>
      </trkpt>
      <trkpt lat="45.90484" lon="6.17203">
        <ele>1018</ele>
        <time>2014-07-16T10:18:24Z</time>
      </trkpt>
      <trkpt lat="45.90451" lon="6.1716">
        <ele>985</ele>
        <time>2014-07-16T10:19:09Z</time>
      </trkpt>
      <trkpt lat="45.90483" lon="6.17168">
        <ele>1002</ele>
        <time>2014-07-16T10:19:42Z</time>
      </trkpt>
      <trkpt lat="45.90453" lon="6.17138">
        <ele>979</ele>
        <time>2014-07-16T10:20:19Z</time>
      </trkpt>
      <trkpt lat="45.90483" lon="6.17143">
        <ele>976</ele>
        <time>2014-07-16T10:20:49Z</time>
      </trkpt>
      <trkpt lat="45.9051" lon="6.1718">
        <ele>989</ele>
        <time>2014-07-16T10:21:26Z</time>
      </trkpt>
      <trkpt lat="45.90544" lon="6.17184">
        <ele>990</ele>
        <time>2014-07-16T10:22:00Z</time>
      </trkpt>
      <trkpt lat="45.90569" lon="6.17212">
        <ele>995</ele>
        <time>2014-07-16T10:22:33Z</time>
      </trkpt>
      <trkpt lat="45.9062" lon="6.17238">
        <ele>985</ele>
        <time>2014-07-16T10:23:27Z</time>
      </trkpt>
      <trkpt lat="45.90598" lon="6.17194">
        <ele>976</ele>
        <time>2014-07-16T10:24:07Z</time>
      </trkpt>
      <trkpt lat="45.90654" lon="6.17232">
        <ele>981</ele>
        <time>2014-07-16T10:25:08Z</time>
      </trkpt>
      <trkpt lat="45.90699" lon="6.17297">
        <ele>979</ele>
        <time>2014-07-16T10:26:13Z</time>
      </trkpt>
      <trkpt lat="45.90744" lon="6.17399">
        <ele>987</ele>
        <time>2014-07-16T10:27:37Z</time>
      </trkpt>
      <trkpt lat="45.90746" lon="6.17404">
        <ele>985</ele>
        <time>2014-07-16T10:27:42Z</time>
      </trkpt>
      <trkpt lat="45.90739" lon="6.17315">
        <ele>971</ele>
        <time>2014-07-16T10:28:46Z</time>
      </trkpt>
      <trkpt lat="45.90774" lon="6.17373">
        <ele>960</ele>
        <time>2014-07-16T10:29:40Z</time>
      </trkpt>
      <trkpt lat="45.90764" lon="6.17317">
        <ele>954</ele>
        <time>2014-07-16T10:30:20Z</time>
      </trkpt>
      <trkpt lat="45.90786" lon="6.17329">
        <ele>949</ele>
        <time>2014-07-16T10:30:44Z</time>
      </trkpt>
      <trkpt lat="45.90769" lon="6.17262">
        <ele>946</ele>
        <time>2014-07-16T10:31:34Z</time>
      </trkpt>
      <trkpt lat="45.90745" lon="6.17202">
        <ele>945</ele>
        <time>2014-07-16T10:32:23Z</time>
      </trkpt>
      <trkpt lat="45.90788" lon="6.17236">
        <ele>936</ele>
        <time>2014-07-16T10:33:12Z</time>
      </trkpt>
      <trkpt lat="45.90796" lon="6.17229">
        <ele>935</ele>
        <time>2014-07-16T10:33:22Z</time>
      </trkpt>
      <trkpt lat="45.90793" lon="6.17191">
        <ele>932</ele>
        <time>2014-07-16T10:33:49Z</time>
      </trkpt>
      <trkpt lat="45.90755" lon="6.17138">
        <ele>919</ele>
        <time>2014-07-16T10:34:43Z</time>
      </trkpt>
      <trkpt lat="45.90721" lon="6.17091">
        <ele>911</ele>
        <time>2014-07-16T10:35:32Z</time>
      </trkpt>
      <trkpt lat="45.90692" lon="6.17085">
        <ele>911</ele>
        <time>2014-07-16T10:36:02Z</time>
      </trkpt>
      <trkpt lat="45.90705" lon="6.17072">
        <ele>889</ele>
        <time>2014-07-16T10:36:18Z</time>
      </trkpt>
      <trkpt lat="45.9068" lon="6.17061">
        <ele>889</ele>
        <time>2014-07-16T10:36:44Z</time>
      </trkpt>
      <trkpt lat="45.90692" lon="6.17049">
        <ele>885</ele>
        <time>2014-07-16T10:36:59Z</time>
      </trkpt>
      <trkpt lat="45.90671" lon="6.17032">
        <ele>879</ele>
        <time>2014-07-16T10:37:25Z</time>
      </trkpt>
      <trkpt lat="45.90695" lon="6.17023">
        <ele>879</ele>
        <time>2014-07-16T10:37:51Z</time>
      </trkpt>
      <trkpt lat="45.90668" lon="6.1698">
        <ele>853</ele>
        <time>2014-07-16T10:38:35Z</time>
      </trkpt>
      <trkpt lat="45.90609" lon="6.1694">
        <ele>834</ele>
        <time>2014-07-16T10:39:44Z</time>
      </trkpt>
      <trkpt lat="45.906" lon="6.16928">
        <ele>828</ele>
        <time>2014-07-16T10:39:56Z</time>
      </trkpt>
      <trkpt lat="45.90607" lon="6.16921">
        <ele>829</ele>
        <time>2014-07-16T10:40:05Z</time>
      </trkpt>
      <trkpt lat="45.90639" lon="6.1692">
        <ele>831</ele>
        <time>2014-07-16T10:40:37Z</time>
      </trkpt>
      <trkpt lat="45.9066" lon="6.1692">
        <ele>826</ele>
        <time>2014-07-16T10:40:58Z</time>
      </trkpt>
      <trkpt lat="45.90712" lon="6.16847">
        <ele>803</ele>
        <time>2014-07-16T10:42:17Z</time>
      </trkpt>
      <trkpt lat="45.90707" lon="6.16824">
        <ele>772</ele>
        <time>2014-07-16T10:42:34Z</time>
      </trkpt>
      <trkpt lat="45.90684" lon="6.16836">
        <ele>793</ele>
        <time>2014-07-16T10:42:59Z</time>
      </trkpt>
      <trkpt lat="45.9065" lon="6.16853">
        <ele>790</ele>
        <time>2014-07-16T10:43:36Z</time>
      </trkpt>
      <trkpt lat="45.90631" lon="6.16851">
        <ele>790</ele>
        <time>2014-07-16T10:43:54Z</time>
      </trkpt>
      <trkpt lat="45.90644" lon="6.16839">
        <ele>787</ele>
        <time>2014-07-16T10:44:09Z</time>
      </trkpt>
      <trkpt lat="45.90677" lon="6.16809">
        <ele>768</ele>
        <time>2014-07-16T10:44:49Z</time>
      </trkpt>
      <trkpt lat="45.9064" lon="6.16806">
        <ele>759</ele>
        <time>2014-07-16T10:45:28Z</time>
      </trkpt>
      <trkpt lat="45.90655" lon="6.16788">
        <ele>755</ele>
        <time>2014-07-16T10:45:48Z</time>
      </trkpt>
      <trkpt lat="45.90658" lon="6.16768">
        <ele>749</ele>
        <time>2014-07-16T10:46:04Z</time>
      </trkpt>
      <trkpt lat="45.90641" lon="6.16756">
        <ele>748</ele>
        <time>2014-07-16T10:46:24Z</time>
      </trkpt>
      <trkpt lat="45.90602" lon="6.16758">
        <ele>743</ele>
        <time>2014-07-16T10:47:04Z</time>
      </trkpt>
      <trkpt lat="45.90622" lon="6.16731">
        <ele>720</ele>
        <time>2014-07-16T10:47:32Z</time>
      </trkpt>
      <trkpt lat="45.90655" lon="6.16705">
        <ele>715</ele>
        <time>2014-07-16T10:48:11Z</time>
      </trkpt>
      <trkpt lat="45.9062" lon="6.16686">
        <ele>710</ele>
        <time>2014-07-16T10:48:48Z</time>
      </trkpt>
      <trkpt lat="45.90613" lon="6.16692">
        <ele>711</ele>
        <time>2014-07-16T10:48:58Z</time>
      </trkpt>
      <trkpt lat="45.90602" lon="6.16704">
        <ele>713</ele>
        <time>2014-07-16T10:49:11Z</time>
      </trkpt>
      <trkpt lat="45.9059" lon="6.16701">
        <ele>712</ele>
        <time>2014-07-16T10:49:23Z</time>
      </trkpt>
      <trkpt lat="45.90594" lon="6.16676">
        <ele>703</ele>
        <time>2014-07-16T10:49:41Z</time>
      </trkpt>
      <trkpt lat="45.90578" lon="6.16678">
        <ele>701</ele>
        <time>2014-07-16T10:49:57Z</time>
      </trkpt>
      <trkpt lat="45.90592" lon="6.16647">
        <ele>674</ele>
        <time>2014-07-16T10:50:23Z</time>
      </trkpt>
      <trkpt lat="45.90568" lon="6.16658">
        <ele>681</ele>
        <time>2014-07-16T10:50:49Z</time>
      </trkpt>
      <trkpt lat="45.90514" lon="6.16619">
        <ele>667</ele>
        <time>2014-07-16T10:51:52Z</time>
      </trkpt>
      <trkpt lat="45.90453" lon="6.16559">
        <ele>638</ele>
        <time>2014-07-16T10:53:09Z</time>
      </trkpt>
      <trkpt lat="45.90503" lon="6.16541">
        <ele>618</ele>
        <time>2014-07-16T10:54:08Z</time>
      </trkpt>
      <trkpt lat="45.90531" lon="6.16531">
        <ele>612</ele>
        <time>2014-07-16T10:54:41Z</time>
      </trkpt>
      <trkpt lat="45.9054" lon="6.16511">
        <ele>606</ele>
        <time>2014-07-16T10:54:59Z</time>
      </trkpt>
      <trkpt lat="45.90534" lon="6.16486">
        <ele>573</ele>
        <time>2014-07-16T10:55:18Z</time>
      </trkpt>
      <trkpt lat="45.905" lon="6.16481">
        <ele>578</ele>
        <time>2014-07-16T10:55:52Z</time>
      </trkpt>
      <trkpt lat="45.9046" lon="6.16463">
        <ele>582</ele>
        <time>2014-07-16T10:56:35Z</time>
      </trkpt>
      <trkpt lat="45.90478" lon="6.16451">
        <ele>576</ele>
        <time>2014-07-16T10:56:56Z</time>
      </trkpt>
      <trkpt lat="45.90427" lon="6.16426">
        <ele>570</ele>
        <time>2014-07-16T10:57:52Z</time>
      </trkpt>
      <trkpt lat="45.90478" lon="6.16421">
        <ele>567</ele>
        <time>2014-07-16T10:58:45Z</time>
      </trkpt>
      <trkpt lat="45.9048" lon="6.16406">
        <ele>542</ele>
        <time>2014-07-16T10:58:56Z</time>
      </trkpt>
      <trkpt lat="45.90463" lon="6.1638">
        <ele>537</ele>
        <time>2014-07-16T10:59:22Z</time>
      </trkpt>
      <trkpt lat="45.90451" lon="6.16336">
        <ele>530</ele>
        <time>2014-07-16T10:59:58Z</time>
      </trkpt>
      <trkpt lat="45.90458" lon="6.16255">
        <ele>500</ele>
        <time>2014-07-16T11:01:01Z</time>
      </trkpt>
      <trkpt lat="45.90454" lon="6.16179">
        <ele>481</ele>
        <time>2014-07-16T11:01:55Z</time>
      </trkpt>
      <trkpt lat="45.90412" lon="6.16089">
        <ele>464</ele>
        <time>2014-07-16T11:03:12Z</time>
      </trkpt>
      <trkpt lat="45.90393" lon="6.16035">
        <ele>457</ele>
        <time>2014-07-16T11:03:55Z</time>
      </trkpt>
      <trkpt lat="45.9039" lon="6.15986">
        <ele>451</ele>
        <time>2014-07-16T11:04:29Z</time>
      </trkpt>
    </trkseg>
  </trk>
</gpx>