<?xml version="1.0" encoding="UTF-8" standalone="no" ?>
<gpx xmlns="http://www.topografix.com/GPX/1/1" xmlns:xsi="http://www.w3.org/2001/XMLSchema-instance" xsi:schemaLocation="http://www.topografix.com/GPX/1/1 http://www.topografix.com/GPX/1/1/gpx.xsd" version="1.1" creator="VisuGPX - https://www.visugpx.com">
  <metadata>
    <name>Walk-20180617-0934-80655.gpx</name>
    <desc><![CDATA[Walkmeter Marche 17 juin 2018 à 09:34:58]]></desc>
  </metadata>
  <trk>
    <name><![CDATA[Nouveau parcours]]></name>
    <trkseg>
      <trkpt lat="49.34608" lon="6.57591">
        <ele>244.1</ele>
        <time>2018-06-17T07:37:36Z</time>
      </trkpt>
      <trkpt lat="49.34621" lon="6.57589">
        <ele>244.3</ele>
        <time>2018-06-17T07:38:02Z</time>
      </trkpt>
      <trkpt lat="49.34636" lon="6.57586">
        <ele>244.5</ele>
        <time>2018-06-17T07:38:17Z</time>
      </trkpt>
      <trkpt lat="49.3465" lon="6.57583">
        <ele>244.7</ele>
        <time>2018-06-17T07:38:30Z</time>
      </trkpt>
      <trkpt lat="49.34677" lon="6.57583">
        <ele>246.3</ele>
        <time>2018-06-17T07:38:46Z</time>
      </trkpt>
      <trkpt lat="49.34677" lon="6.57583">
        <ele>246.3</ele>
        <time>2018-06-17T07:39:22Z</time>
      </trkpt>
      <trkpt lat="49.34691" lon="6.57583">
        <ele>247.9</ele>
        <time>2018-06-17T07:39:32Z</time>
      </trkpt>
      <trkpt lat="49.34701" lon="6.57583">
        <ele>248.8</ele>
        <time>2018-06-17T07:39:45Z</time>
      </trkpt>
      <trkpt lat="49.34704" lon="6.57583">
        <ele>249.1</ele>
        <time>2018-06-17T07:39:49Z</time>
      </trkpt>
      <trkpt lat="49.34712" lon="6.57584">
        <ele>250</ele>
        <time>2018-06-17T07:39:59Z</time>
      </trkpt>
      <trkpt lat="49.3472" lon="6.57585">
        <ele>250.9</ele>
        <time>2018-06-17T07:40:10Z</time>
      </trkpt>
      <trkpt lat="49.34733" lon="6.57584">
        <ele>251.9</ele>
        <time>2018-06-17T07:40:21Z</time>
      </trkpt>
      <trkpt lat="49.34735" lon="6.57584">
        <ele>252</ele>
        <time>2018-06-17T07:40:23Z</time>
      </trkpt>
      <trkpt lat="49.3475" lon="6.57584">
        <ele>252.7</ele>
        <time>2018-06-17T07:40:34Z</time>
      </trkpt>
      <trkpt lat="49.34763" lon="6.57586">
        <ele>253.5</ele>
        <time>2018-06-17T07:40:47Z</time>
      </trkpt>
      <trkpt lat="49.34777" lon="6.57584">
        <ele>254.3</ele>
        <time>2018-06-17T07:41:01Z</time>
      </trkpt>
      <trkpt lat="49.34788" lon="6.57579">
        <ele>255</ele>
        <time>2018-06-17T07:41:12Z</time>
      </trkpt>
      <trkpt lat="49.34791" lon="6.57578">
        <ele>255.2</ele>
        <time>2018-06-17T07:41:15Z</time>
      </trkpt>
      <trkpt lat="49.34798" lon="6.57574">
        <ele>255</ele>
        <time>2018-06-17T07:41:23Z</time>
      </trkpt>
      <trkpt lat="49.3481" lon="6.57571">
        <ele>254.7</ele>
        <time>2018-06-17T07:41:43Z</time>
      </trkpt>
      <trkpt lat="49.34824" lon="6.57572">
        <ele>254.4</ele>
        <time>2018-06-17T07:42:02Z</time>
      </trkpt>
      <trkpt lat="49.34838" lon="6.57568">
        <ele>254.2</ele>
        <time>2018-06-17T07:42:12Z</time>
      </trkpt>
      <trkpt lat="49.34849" lon="6.57562">
        <ele>254.1</ele>
        <time>2018-06-17T07:42:21Z</time>
      </trkpt>
      <trkpt lat="49.3486" lon="6.57561">
        <ele>253.9</ele>
        <time>2018-06-17T07:42:30Z</time>
      </trkpt>
      <trkpt lat="49.34875" lon="6.57562">
        <ele>253.7</ele>
        <time>2018-06-17T07:42:41Z</time>
      </trkpt>
      <trkpt lat="49.34888" lon="6.57559">
        <ele>253.5</ele>
        <time>2018-06-17T07:42:52Z</time>
      </trkpt>
      <trkpt lat="49.34902" lon="6.57556">
        <ele>253.4</ele>
        <time>2018-06-17T07:43:03Z</time>
      </trkpt>
      <trkpt lat="49.34916" lon="6.57554">
        <ele>253.2</ele>
        <time>2018-06-17T07:43:14Z</time>
      </trkpt>
      <trkpt lat="49.34931" lon="6.57552">
        <ele>253</ele>
        <time>2018-06-17T07:43:25Z</time>
      </trkpt>
      <trkpt lat="49.34947" lon="6.5755">
        <ele>252.8</ele>
        <time>2018-06-17T07:43:36Z</time>
      </trkpt>
      <trkpt lat="49.34963" lon="6.57552">
        <ele>252.6</ele>
        <time>2018-06-17T07:43:51Z</time>
      </trkpt>
      <trkpt lat="49.34976" lon="6.57557">
        <ele>252.3</ele>
        <time>2018-06-17T07:44:08Z</time>
      </trkpt>
      <trkpt lat="49.34983" lon="6.57555">
        <ele>252.1</ele>
        <time>2018-06-17T07:44:16Z</time>
      </trkpt>
      <trkpt lat="49.3499" lon="6.57554">
        <ele>251.5</ele>
        <time>2018-06-17T07:44:24Z</time>
      </trkpt>
      <trkpt lat="49.35005" lon="6.57554">
        <ele>250.2</ele>
        <time>2018-06-17T07:44:42Z</time>
      </trkpt>
      <trkpt lat="49.35019" lon="6.57555">
        <ele>249.1</ele>
        <time>2018-06-17T07:44:57Z</time>
      </trkpt>
      <trkpt lat="49.35024" lon="6.57555">
        <ele>248.8</ele>
        <time>2018-06-17T07:45:01Z</time>
      </trkpt>
      <trkpt lat="49.35033" lon="6.57554">
        <ele>248.3</ele>
        <time>2018-06-17T07:45:09Z</time>
      </trkpt>
      <trkpt lat="49.35047" lon="6.57549">
        <ele>247.7</ele>
        <time>2018-06-17T07:45:19Z</time>
      </trkpt>
      <trkpt lat="49.3506" lon="6.5754">
        <ele>247</ele>
        <time>2018-06-17T07:45:31Z</time>
      </trkpt>
      <trkpt lat="49.35072" lon="6.57532">
        <ele>246</ele>
        <time>2018-06-17T07:45:47Z</time>
      </trkpt>
      <trkpt lat="49.35076" lon="6.5753">
        <ele>245.8</ele>
        <time>2018-06-17T07:45:51Z</time>
      </trkpt>
      <trkpt lat="49.35086" lon="6.57525">
        <ele>245.7</ele>
        <time>2018-06-17T07:46:03Z</time>
      </trkpt>
      <trkpt lat="49.35099" lon="6.57521">
        <ele>245.5</ele>
        <time>2018-06-17T07:46:16Z</time>
      </trkpt>
      <trkpt lat="49.35113" lon="6.57517">
        <ele>245.4</ele>
        <time>2018-06-17T07:46:28Z</time>
      </trkpt>
      <trkpt lat="49.35125" lon="6.57512">
        <ele>245.3</ele>
        <time>2018-06-17T07:46:37Z</time>
      </trkpt>
      <trkpt lat="49.35132" lon="6.57507">
        <ele>245.2</ele>
        <time>2018-06-17T07:46:43Z</time>
      </trkpt>
      <trkpt lat="49.35141" lon="6.57504">
        <ele>245.1</ele>
        <time>2018-06-17T07:46:54Z</time>
      </trkpt>
      <trkpt lat="49.35155" lon="6.57504">
        <ele>244.9</ele>
        <time>2018-06-17T07:47:07Z</time>
      </trkpt>
      <trkpt lat="49.3517" lon="6.57503">
        <ele>244.8</ele>
        <time>2018-06-17T07:47:19Z</time>
      </trkpt>
      <trkpt lat="49.35184" lon="6.57501">
        <ele>244.6</ele>
        <time>2018-06-17T07:47:32Z</time>
      </trkpt>
      <trkpt lat="49.35198" lon="6.57502">
        <ele>244.5</ele>
        <time>2018-06-17T07:47:45Z</time>
      </trkpt>
      <trkpt lat="49.35213" lon="6.57508">
        <ele>244.3</ele>
        <time>2018-06-17T07:47:58Z</time>
      </trkpt>
      <trkpt lat="49.35228" lon="6.57513">
        <ele>244.2</ele>
        <time>2018-06-17T07:48:11Z</time>
      </trkpt>
      <trkpt lat="49.35242" lon="6.57514">
        <ele>244.1</ele>
        <time>2018-06-17T07:48:23Z</time>
      </trkpt>
      <trkpt lat="49.35257" lon="6.57511">
        <ele>243.9</ele>
        <time>2018-06-17T07:48:36Z</time>
      </trkpt>
      <trkpt lat="49.35272" lon="6.57508">
        <ele>243.8</ele>
        <time>2018-06-17T07:48:48Z</time>
      </trkpt>
      <trkpt lat="49.35285" lon="6.57507">
        <ele>243.6</ele>
        <time>2018-06-17T07:48:59Z</time>
      </trkpt>
      <trkpt lat="49.35298" lon="6.57504">
        <ele>243.5</ele>
        <time>2018-06-17T07:49:10Z</time>
      </trkpt>
      <trkpt lat="49.35305" lon="6.57491">
        <ele>243.4</ele>
        <time>2018-06-17T07:49:22Z</time>
      </trkpt>
      <trkpt lat="49.35304" lon="6.57471">
        <ele>243.2</ele>
        <time>2018-06-17T07:49:34Z</time>
      </trkpt>
      <trkpt lat="49.35301" lon="6.57449">
        <ele>243.1</ele>
        <time>2018-06-17T07:49:46Z</time>
      </trkpt>
      <trkpt lat="49.35299" lon="6.57429">
        <ele>243</ele>
        <time>2018-06-17T07:49:57Z</time>
      </trkpt>
      <trkpt lat="49.35297" lon="6.57408">
        <ele>242.8</ele>
        <time>2018-06-17T07:50:10Z</time>
      </trkpt>
      <trkpt lat="49.35295" lon="6.57398">
        <ele>242.8</ele>
        <time>2018-06-17T07:50:16Z</time>
      </trkpt>
      <trkpt lat="49.35293" lon="6.57387">
        <ele>242.7</ele>
        <time>2018-06-17T07:50:23Z</time>
      </trkpt>
      <trkpt lat="49.35287" lon="6.57366">
        <ele>242.7</ele>
        <time>2018-06-17T07:50:34Z</time>
      </trkpt>
      <trkpt lat="49.35283" lon="6.57346">
        <ele>242.6</ele>
        <time>2018-06-17T07:50:45Z</time>
      </trkpt>
      <trkpt lat="49.35279" lon="6.57325">
        <ele>242.5</ele>
        <time>2018-06-17T07:50:57Z</time>
      </trkpt>
      <trkpt lat="49.35272" lon="6.57305">
        <ele>242.5</ele>
        <time>2018-06-17T07:51:08Z</time>
      </trkpt>
      <trkpt lat="49.35267" lon="6.57285">
        <ele>242.4</ele>
        <time>2018-06-17T07:51:19Z</time>
      </trkpt>
      <trkpt lat="49.35265" lon="6.57265">
        <ele>242.4</ele>
        <time>2018-06-17T07:51:30Z</time>
      </trkpt>
      <trkpt lat="49.35264" lon="6.57245">
        <ele>242.3</ele>
        <time>2018-06-17T07:51:44Z</time>
      </trkpt>
      <trkpt lat="49.35256" lon="6.57231">
        <ele>242.2</ele>
        <time>2018-06-17T07:51:59Z</time>
      </trkpt>
      <trkpt lat="49.35243" lon="6.5722">
        <ele>242.2</ele>
        <time>2018-06-17T07:52:14Z</time>
      </trkpt>
      <trkpt lat="49.3523" lon="6.57211">
        <ele>242.1</ele>
        <time>2018-06-17T07:52:28Z</time>
      </trkpt>
      <trkpt lat="49.35218" lon="6.57199">
        <ele>242</ele>
        <time>2018-06-17T07:52:42Z</time>
      </trkpt>
      <trkpt lat="49.35209" lon="6.57183">
        <ele>241.9</ele>
        <time>2018-06-17T07:52:54Z</time>
      </trkpt>
      <trkpt lat="49.35199" lon="6.57167">
        <ele>241.9</ele>
        <time>2018-06-17T07:53:06Z</time>
      </trkpt>
      <trkpt lat="49.35192" lon="6.57148">
        <ele>241.8</ele>
        <time>2018-06-17T07:53:18Z</time>
      </trkpt>
      <trkpt lat="49.3519" lon="6.57127">
        <ele>241.8</ele>
        <time>2018-06-17T07:53:31Z</time>
      </trkpt>
      <trkpt lat="49.35188" lon="6.57105">
        <ele>241.7</ele>
        <time>2018-06-17T07:53:45Z</time>
      </trkpt>
      <trkpt lat="49.35187" lon="6.57085">
        <ele>241.6</ele>
        <time>2018-06-17T07:53:54Z</time>
      </trkpt>
      <trkpt lat="49.35185" lon="6.57062">
        <ele>241.6</ele>
        <time>2018-06-17T07:54:04Z</time>
      </trkpt>
      <trkpt lat="49.35184" lon="6.57041">
        <ele>241.5</ele>
        <time>2018-06-17T07:54:17Z</time>
      </trkpt>
      <trkpt lat="49.35184" lon="6.57019">
        <ele>241.4</ele>
        <time>2018-06-17T07:54:33Z</time>
      </trkpt>
      <trkpt lat="49.35184" lon="6.56998">
        <ele>241.4</ele>
        <time>2018-06-17T07:54:46Z</time>
      </trkpt>
      <trkpt lat="49.3518" lon="6.56977">
        <ele>241.3</ele>
        <time>2018-06-17T07:54:58Z</time>
      </trkpt>
      <trkpt lat="49.35175" lon="6.56957">
        <ele>241.3</ele>
        <time>2018-06-17T07:55:11Z</time>
      </trkpt>
      <trkpt lat="49.35172" lon="6.56936">
        <ele>241.2</ele>
        <time>2018-06-17T07:55:23Z</time>
      </trkpt>
      <trkpt lat="49.35172" lon="6.56913">
        <ele>241.1</ele>
        <time>2018-06-17T07:55:37Z</time>
      </trkpt>
      <trkpt lat="49.35171" lon="6.5689">
        <ele>241</ele>
        <time>2018-06-17T07:55:52Z</time>
      </trkpt>
      <trkpt lat="49.35169" lon="6.5687">
        <ele>241</ele>
        <time>2018-06-17T07:56:04Z</time>
      </trkpt>
      <trkpt lat="49.35167" lon="6.56849">
        <ele>240.9</ele>
        <time>2018-06-17T07:56:14Z</time>
      </trkpt>
      <trkpt lat="49.35164" lon="6.56827">
        <ele>240.9</ele>
        <time>2018-06-17T07:56:25Z</time>
      </trkpt>
      <trkpt lat="49.35161" lon="6.56805">
        <ele>240.8</ele>
        <time>2018-06-17T07:56:39Z</time>
      </trkpt>
      <trkpt lat="49.3516" lon="6.56781">
        <ele>240.7</ele>
        <time>2018-06-17T07:56:54Z</time>
      </trkpt>
      <trkpt lat="49.3516" lon="6.56759">
        <ele>240.7</ele>
        <time>2018-06-17T07:57:08Z</time>
      </trkpt>
      <trkpt lat="49.35159" lon="6.56738">
        <ele>240.6</ele>
        <time>2018-06-17T07:57:22Z</time>
      </trkpt>
      <trkpt lat="49.35158" lon="6.56716">
        <ele>240.5</ele>
        <time>2018-06-17T07:57:35Z</time>
      </trkpt>
      <trkpt lat="49.35155" lon="6.56693">
        <ele>240.4</ele>
        <time>2018-06-17T07:57:56Z</time>
      </trkpt>
      <trkpt lat="49.35153" lon="6.56672">
        <ele>240.3</ele>
        <time>2018-06-17T07:58:17Z</time>
      </trkpt>
      <trkpt lat="49.35156" lon="6.56652">
        <ele>240.2</ele>
        <time>2018-06-17T07:58:31Z</time>
      </trkpt>
      <trkpt lat="49.35162" lon="6.5664">
        <ele>240.2</ele>
        <time>2018-06-17T07:58:42Z</time>
      </trkpt>
      <trkpt lat="49.35167" lon="6.56626">
        <ele>240.1</ele>
        <time>2018-06-17T07:58:58Z</time>
      </trkpt>
      <trkpt lat="49.35177" lon="6.56612">
        <ele>240</ele>
        <time>2018-06-17T07:59:18Z</time>
      </trkpt>
      <trkpt lat="49.35188" lon="6.566">
        <ele>239.9</ele>
        <time>2018-06-17T07:59:29Z</time>
      </trkpt>
      <trkpt lat="49.35199" lon="6.56586">
        <ele>239.9</ele>
        <time>2018-06-17T07:59:39Z</time>
      </trkpt>
      <trkpt lat="49.35209" lon="6.56573">
        <ele>239.8</ele>
        <time>2018-06-17T07:59:53Z</time>
      </trkpt>
      <trkpt lat="49.35219" lon="6.56558">
        <ele>239.7</ele>
        <time>2018-06-17T08:00:07Z</time>
      </trkpt>
      <trkpt lat="49.35224" lon="6.56551">
        <ele>239.7</ele>
        <time>2018-06-17T08:00:14Z</time>
      </trkpt>
      <trkpt lat="49.3523" lon="6.56545">
        <ele>238.9</ele>
        <time>2018-06-17T08:00:21Z</time>
      </trkpt>
      <trkpt lat="49.35241" lon="6.56534">
        <ele>237.5</ele>
        <time>2018-06-17T08:00:35Z</time>
      </trkpt>
      <trkpt lat="49.35252" lon="6.56521">
        <ele>236.4</ele>
        <time>2018-06-17T08:00:46Z</time>
      </trkpt>
      <trkpt lat="49.35255" lon="6.56518">
        <ele>236.1</ele>
        <time>2018-06-17T08:00:49Z</time>
      </trkpt>
      <trkpt lat="49.35264" lon="6.5651">
        <ele>236.4</ele>
        <time>2018-06-17T08:00:58Z</time>
      </trkpt>
      <trkpt lat="49.35277" lon="6.56509">
        <ele>237</ele>
        <time>2018-06-17T08:01:14Z</time>
      </trkpt>
      <trkpt lat="49.35289" lon="6.5652">
        <ele>237.6</ele>
        <time>2018-06-17T08:01:31Z</time>
      </trkpt>
      <trkpt lat="49.35303" lon="6.56528">
        <ele>238.1</ele>
        <time>2018-06-17T08:01:45Z</time>
      </trkpt>
      <trkpt lat="49.35316" lon="6.56527">
        <ele>238.5</ele>
        <time>2018-06-17T08:01:56Z</time>
      </trkpt>
      <trkpt lat="49.35329" lon="6.56523">
        <ele>238.9</ele>
        <time>2018-06-17T08:02:08Z</time>
      </trkpt>
      <trkpt lat="49.35344" lon="6.5652">
        <ele>239.4</ele>
        <time>2018-06-17T08:02:22Z</time>
      </trkpt>
      <trkpt lat="49.35358" lon="6.56514">
        <ele>240</ele>
        <time>2018-06-17T08:02:36Z</time>
      </trkpt>
      <trkpt lat="49.35366" lon="6.56509">
        <ele>240.2</ele>
        <time>2018-06-17T08:02:43Z</time>
      </trkpt>
      <trkpt lat="49.35372" lon="6.56506">
        <ele>240.5</ele>
        <time>2018-06-17T08:02:48Z</time>
      </trkpt>
      <trkpt lat="49.35385" lon="6.56495">
        <ele>241.4</ele>
        <time>2018-06-17T08:03:02Z</time>
      </trkpt>
      <trkpt lat="49.35398" lon="6.56482">
        <ele>242.1</ele>
        <time>2018-06-17T08:03:15Z</time>
      </trkpt>
      <trkpt lat="49.35411" lon="6.56471">
        <ele>242.8</ele>
        <time>2018-06-17T08:03:26Z</time>
      </trkpt>
      <trkpt lat="49.35423" lon="6.5646">
        <ele>243.5</ele>
        <time>2018-06-17T08:03:37Z</time>
      </trkpt>
      <trkpt lat="49.35435" lon="6.56452">
        <ele>244.1</ele>
        <time>2018-06-17T08:03:49Z</time>
      </trkpt>
      <trkpt lat="49.35448" lon="6.56445">
        <ele>244.8</ele>
        <time>2018-06-17T08:04:03Z</time>
      </trkpt>
      <trkpt lat="49.3546" lon="6.56438">
        <ele>245.4</ele>
        <time>2018-06-17T08:04:15Z</time>
      </trkpt>
      <trkpt lat="49.35472" lon="6.56433">
        <ele>246</ele>
        <time>2018-06-17T08:04:27Z</time>
      </trkpt>
      <trkpt lat="49.35484" lon="6.56429">
        <ele>246.7</ele>
        <time>2018-06-17T08:04:42Z</time>
      </trkpt>
      <trkpt lat="49.35485" lon="6.56429">
        <ele>246.8</ele>
        <time>2018-06-17T08:04:43Z</time>
      </trkpt>
      <trkpt lat="49.35498" lon="6.56428">
        <ele>246.8</ele>
        <time>2018-06-17T08:04:55Z</time>
      </trkpt>
      <trkpt lat="49.35511" lon="6.56424">
        <ele>246.9</ele>
        <time>2018-06-17T08:05:07Z</time>
      </trkpt>
      <trkpt lat="49.35525" lon="6.56417">
        <ele>246.9</ele>
        <time>2018-06-17T08:05:22Z</time>
      </trkpt>
      <trkpt lat="49.35538" lon="6.56412">
        <ele>246.9</ele>
        <time>2018-06-17T08:05:34Z</time>
      </trkpt>
      <trkpt lat="49.35567" lon="6.56426">
        <ele>247.7</ele>
        <time>2018-06-17T08:06:04Z</time>
      </trkpt>
      <trkpt lat="49.35567" lon="6.56426">
        <ele>247.7</ele>
        <time>2018-06-17T08:13:10Z</time>
      </trkpt>
      <trkpt lat="49.35583" lon="6.56441">
        <ele>248.4</ele>
        <time>2018-06-17T08:13:19Z</time>
      </trkpt>
      <trkpt lat="49.35591" lon="6.56455">
        <ele>248.4</ele>
        <time>2018-06-17T08:13:31Z</time>
      </trkpt>
      <trkpt lat="49.35597" lon="6.56472">
        <ele>248.4</ele>
        <time>2018-06-17T08:13:45Z</time>
      </trkpt>
      <trkpt lat="49.356" lon="6.56493">
        <ele>248.5</ele>
        <time>2018-06-17T08:14:00Z</time>
      </trkpt>
      <trkpt lat="49.35606" lon="6.56512">
        <ele>248.5</ele>
        <time>2018-06-17T08:14:15Z</time>
      </trkpt>
      <trkpt lat="49.35628" lon="6.56552">
        <ele>248.8</ele>
        <time>2018-06-17T08:14:43Z</time>
      </trkpt>
      <trkpt lat="49.35628" lon="6.56552">
        <ele>248.8</ele>
        <time>2018-06-17T08:16:35Z</time>
      </trkpt>
      <trkpt lat="49.3564" lon="6.56576">
        <ele>249</ele>
        <time>2018-06-17T08:16:40Z</time>
      </trkpt>
      <trkpt lat="49.35646" lon="6.56596">
        <ele>249</ele>
        <time>2018-06-17T08:16:54Z</time>
      </trkpt>
      <trkpt lat="49.3565" lon="6.56615">
        <ele>249</ele>
        <time>2018-06-17T08:17:06Z</time>
      </trkpt>
      <trkpt lat="49.35657" lon="6.56635">
        <ele>249.1</ele>
        <time>2018-06-17T08:17:19Z</time>
      </trkpt>
      <trkpt lat="49.35664" lon="6.56652">
        <ele>249.1</ele>
        <time>2018-06-17T08:17:31Z</time>
      </trkpt>
      <trkpt lat="49.35673" lon="6.56669">
        <ele>249.2</ele>
        <time>2018-06-17T08:17:43Z</time>
      </trkpt>
      <trkpt lat="49.3568" lon="6.56685">
        <ele>249.2</ele>
        <time>2018-06-17T08:17:55Z</time>
      </trkpt>
      <trkpt lat="49.35681" lon="6.56699">
        <ele>249.2</ele>
        <time>2018-06-17T08:18:05Z</time>
      </trkpt>
      <trkpt lat="49.35683" lon="6.56713">
        <ele>249.2</ele>
        <time>2018-06-17T08:18:13Z</time>
      </trkpt>
      <trkpt lat="49.35689" lon="6.56733">
        <ele>249.3</ele>
        <time>2018-06-17T08:18:24Z</time>
      </trkpt>
      <trkpt lat="49.35693" lon="6.56753">
        <ele>249.3</ele>
        <time>2018-06-17T08:18:38Z</time>
      </trkpt>
      <trkpt lat="49.35698" lon="6.56773">
        <ele>249.4</ele>
        <time>2018-06-17T08:18:54Z</time>
      </trkpt>
      <trkpt lat="49.35707" lon="6.56788">
        <ele>249.4</ele>
        <time>2018-06-17T08:19:06Z</time>
      </trkpt>
      <trkpt lat="49.35718" lon="6.56801">
        <ele>249.4</ele>
        <time>2018-06-17T08:19:16Z</time>
      </trkpt>
      <trkpt lat="49.35727" lon="6.56817">
        <ele>249.5</ele>
        <time>2018-06-17T08:19:29Z</time>
      </trkpt>
      <trkpt lat="49.35734" lon="6.56836">
        <ele>249.5</ele>
        <time>2018-06-17T08:19:42Z</time>
      </trkpt>
      <trkpt lat="49.35741" lon="6.56856">
        <ele>249.6</ele>
        <time>2018-06-17T08:19:56Z</time>
      </trkpt>
      <trkpt lat="49.35748" lon="6.56875">
        <ele>249.6</ele>
        <time>2018-06-17T08:20:09Z</time>
      </trkpt>
      <trkpt lat="49.35749" lon="6.56894">
        <ele>249.6</ele>
        <time>2018-06-17T08:20:23Z</time>
      </trkpt>
      <trkpt lat="49.35742" lon="6.56911">
        <ele>249.7</ele>
        <time>2018-06-17T08:20:37Z</time>
      </trkpt>
      <trkpt lat="49.35731" lon="6.56921">
        <ele>249.7</ele>
        <time>2018-06-17T08:20:53Z</time>
      </trkpt>
      <trkpt lat="49.35717" lon="6.56927">
        <ele>249.8</ele>
        <time>2018-06-17T08:21:08Z</time>
      </trkpt>
      <trkpt lat="49.35708" lon="6.56933">
        <ele>249.8</ele>
        <time>2018-06-17T08:21:16Z</time>
      </trkpt>
      <trkpt lat="49.35705" lon="6.56936">
        <ele>249.9</ele>
        <time>2018-06-17T08:21:19Z</time>
      </trkpt>
      <trkpt lat="49.35694" lon="6.56949">
        <ele>250.4</ele>
        <time>2018-06-17T08:21:34Z</time>
      </trkpt>
      <trkpt lat="49.35683" lon="6.56962">
        <ele>250.8</ele>
        <time>2018-06-17T08:21:48Z</time>
      </trkpt>
      <trkpt lat="49.3567" lon="6.56971">
        <ele>251.1</ele>
        <time>2018-06-17T08:21:58Z</time>
      </trkpt>
      <trkpt lat="49.35658" lon="6.56978">
        <ele>251.6</ele>
        <time>2018-06-17T08:22:11Z</time>
      </trkpt>
      <trkpt lat="49.35654" lon="6.56992">
        <ele>252</ele>
        <time>2018-06-17T08:22:26Z</time>
      </trkpt>
      <trkpt lat="49.35654" lon="6.57013">
        <ele>252.5</ele>
        <time>2018-06-17T08:22:40Z</time>
      </trkpt>
      <trkpt lat="49.35653" lon="6.57034">
        <ele>252.9</ele>
        <time>2018-06-17T08:22:53Z</time>
      </trkpt>
      <trkpt lat="49.35653" lon="6.57043">
        <ele>253</ele>
        <time>2018-06-17T08:22:58Z</time>
      </trkpt>
      <trkpt lat="49.35653" lon="6.57055">
        <ele>253.2</ele>
        <time>2018-06-17T08:23:05Z</time>
      </trkpt>
      <trkpt lat="49.35652" lon="6.57077">
        <ele>253.4</ele>
        <time>2018-06-17T08:23:19Z</time>
      </trkpt>
      <trkpt lat="49.3565" lon="6.57091">
        <ele>253.6</ele>
        <time>2018-06-17T08:23:28Z</time>
      </trkpt>
      <trkpt lat="49.3565" lon="6.57106">
        <ele>253.8</ele>
        <time>2018-06-17T08:23:37Z</time>
      </trkpt>
      <trkpt lat="49.3565" lon="6.57128">
        <ele>254</ele>
        <time>2018-06-17T08:23:50Z</time>
      </trkpt>
      <trkpt lat="49.35648" lon="6.5715">
        <ele>254.3</ele>
        <time>2018-06-17T08:24:03Z</time>
      </trkpt>
      <trkpt lat="49.35647" lon="6.5717">
        <ele>254.5</ele>
        <time>2018-06-17T08:24:15Z</time>
      </trkpt>
      <trkpt lat="49.35646" lon="6.57192">
        <ele>254.7</ele>
        <time>2018-06-17T08:24:28Z</time>
      </trkpt>
      <trkpt lat="49.35645" lon="6.57214">
        <ele>255</ele>
        <time>2018-06-17T08:24:41Z</time>
      </trkpt>
      <trkpt lat="49.35643" lon="6.57234">
        <ele>255.2</ele>
        <time>2018-06-17T08:24:53Z</time>
      </trkpt>
      <trkpt lat="49.35642" lon="6.57236">
        <ele>255.2</ele>
        <time>2018-06-17T08:24:54Z</time>
      </trkpt>
      <trkpt lat="49.35641" lon="6.57257">
        <ele>255.4</ele>
        <time>2018-06-17T08:25:06Z</time>
      </trkpt>
      <trkpt lat="49.35639" lon="6.57278">
        <ele>255.7</ele>
        <time>2018-06-17T08:25:19Z</time>
      </trkpt>
      <trkpt lat="49.35638" lon="6.57298">
        <ele>255.9</ele>
        <time>2018-06-17T08:25:31Z</time>
      </trkpt>
      <trkpt lat="49.35638" lon="6.57321">
        <ele>256.1</ele>
        <time>2018-06-17T08:25:44Z</time>
      </trkpt>
      <trkpt lat="49.35636" lon="6.57342">
        <ele>255.8</ele>
        <time>2018-06-17T08:25:57Z</time>
      </trkpt>
      <trkpt lat="49.35633" lon="6.57364">
        <ele>255.5</ele>
        <time>2018-06-17T08:26:10Z</time>
      </trkpt>
      <trkpt lat="49.35627" lon="6.57385">
        <ele>255.1</ele>
        <time>2018-06-17T08:26:25Z</time>
      </trkpt>
      <trkpt lat="49.35616" lon="6.57393">
        <ele>254.7</ele>
        <time>2018-06-17T08:26:41Z</time>
      </trkpt>
      <trkpt lat="49.35602" lon="6.57392">
        <ele>254.4</ele>
        <time>2018-06-17T08:26:54Z</time>
      </trkpt>
      <trkpt lat="49.35587" lon="6.57391">
        <ele>254.1</ele>
        <time>2018-06-17T08:27:07Z</time>
      </trkpt>
      <trkpt lat="49.35573" lon="6.57391">
        <ele>253.8</ele>
        <time>2018-06-17T08:27:21Z</time>
      </trkpt>
      <trkpt lat="49.35559" lon="6.57391">
        <ele>253.4</ele>
        <time>2018-06-17T08:27:36Z</time>
      </trkpt>
      <trkpt lat="49.35544" lon="6.57393">
        <ele>253</ele>
        <time>2018-06-17T08:27:50Z</time>
      </trkpt>
      <trkpt lat="49.35539" lon="6.57394">
        <ele>252.9</ele>
        <time>2018-06-17T08:27:55Z</time>
      </trkpt>
      <trkpt lat="49.3553" lon="6.57396">
        <ele>252.9</ele>
        <time>2018-06-17T08:28:03Z</time>
      </trkpt>
      <trkpt lat="49.35517" lon="6.574">
        <ele>252.8</ele>
        <time>2018-06-17T08:28:15Z</time>
      </trkpt>
      <trkpt lat="49.35503" lon="6.57408">
        <ele>252.7</ele>
        <time>2018-06-17T08:28:27Z</time>
      </trkpt>
      <trkpt lat="49.3549" lon="6.57416">
        <ele>252.5</ele>
        <time>2018-06-17T08:28:44Z</time>
      </trkpt>
      <trkpt lat="49.35476" lon="6.57424">
        <ele>252.4</ele>
        <time>2018-06-17T08:29:02Z</time>
      </trkpt>
      <trkpt lat="49.35469" lon="6.57439">
        <ele>252.3</ele>
        <time>2018-06-17T08:29:14Z</time>
      </trkpt>
      <trkpt lat="49.35469" lon="6.57461">
        <ele>252.2</ele>
        <time>2018-06-17T08:29:26Z</time>
      </trkpt>
      <trkpt lat="49.35474" lon="6.57482">
        <ele>252.1</ele>
        <time>2018-06-17T08:29:39Z</time>
      </trkpt>
      <trkpt lat="49.35478" lon="6.57501">
        <ele>252</ele>
        <time>2018-06-17T08:29:52Z</time>
      </trkpt>
      <trkpt lat="49.35483" lon="6.57521">
        <ele>251.9</ele>
        <time>2018-06-17T08:30:04Z</time>
      </trkpt>
      <trkpt lat="49.35488" lon="6.57543">
        <ele>251.8</ele>
        <time>2018-06-17T08:30:16Z</time>
      </trkpt>
      <trkpt lat="49.35492" lon="6.57563">
        <ele>251.7</ele>
        <time>2018-06-17T08:30:29Z</time>
      </trkpt>
      <trkpt lat="49.35496" lon="6.57585">
        <ele>251.6</ele>
        <time>2018-06-17T08:30:43Z</time>
      </trkpt>
      <trkpt lat="49.35499" lon="6.57606">
        <ele>251.4</ele>
        <time>2018-06-17T08:30:56Z</time>
      </trkpt>
      <trkpt lat="49.35494" lon="6.57623">
        <ele>251.3</ele>
        <time>2018-06-17T08:31:09Z</time>
      </trkpt>
      <trkpt lat="49.35481" lon="6.57632">
        <ele>251.2</ele>
        <time>2018-06-17T08:31:22Z</time>
      </trkpt>
      <trkpt lat="49.35468" lon="6.57636">
        <ele>251.1</ele>
        <time>2018-06-17T08:31:34Z</time>
      </trkpt>
      <trkpt lat="49.35437" lon="6.57652">
        <ele>250.6</ele>
        <time>2018-06-17T08:31:58Z</time>
      </trkpt>
      <trkpt lat="49.35437" lon="6.57652">
        <ele>250.6</ele>
        <time>2018-06-17T08:33:12Z</time>
      </trkpt>
      <trkpt lat="49.35418" lon="6.57664">
        <ele>250.2</ele>
        <time>2018-06-17T08:33:23Z</time>
      </trkpt>
      <trkpt lat="49.35404" lon="6.57669">
        <ele>250.1</ele>
        <time>2018-06-17T08:33:38Z</time>
      </trkpt>
      <trkpt lat="49.35391" lon="6.57677">
        <ele>250</ele>
        <time>2018-06-17T08:33:53Z</time>
      </trkpt>
      <trkpt lat="49.35379" lon="6.57683">
        <ele>249.9</ele>
        <time>2018-06-17T08:34:07Z</time>
      </trkpt>
      <trkpt lat="49.35365" lon="6.57688">
        <ele>249.8</ele>
        <time>2018-06-17T08:34:19Z</time>
      </trkpt>
      <trkpt lat="49.35351" lon="6.57696">
        <ele>249.7</ele>
        <time>2018-06-17T08:34:32Z</time>
      </trkpt>
      <trkpt lat="49.35348" lon="6.57697">
        <ele>249.7</ele>
        <time>2018-06-17T08:34:34Z</time>
      </trkpt>
      <trkpt lat="49.35338" lon="6.57704">
        <ele>249.9</ele>
        <time>2018-06-17T08:34:43Z</time>
      </trkpt>
      <trkpt lat="49.35324" lon="6.57708">
        <ele>250.2</ele>
        <time>2018-06-17T08:34:55Z</time>
      </trkpt>
      <trkpt lat="49.35311" lon="6.57714">
        <ele>250.4</ele>
        <time>2018-06-17T08:35:07Z</time>
      </trkpt>
      <trkpt lat="49.35298" lon="6.57723">
        <ele>250.9</ele>
        <time>2018-06-17T08:35:28Z</time>
      </trkpt>
      <trkpt lat="49.35284" lon="6.5773">
        <ele>251.5</ele>
        <time>2018-06-17T08:35:50Z</time>
      </trkpt>
      <trkpt lat="49.35274" lon="6.57736">
        <ele>251.7</ele>
        <time>2018-06-17T08:35:59Z</time>
      </trkpt>
      <trkpt lat="49.35264" lon="6.57741">
        <ele>251.9</ele>
        <time>2018-06-17T08:36:09Z</time>
      </trkpt>
      <trkpt lat="49.3525" lon="6.57745">
        <ele>252.2</ele>
        <time>2018-06-17T08:36:22Z</time>
      </trkpt>
      <trkpt lat="49.35236" lon="6.57753">
        <ele>252.5</ele>
        <time>2018-06-17T08:36:36Z</time>
      </trkpt>
      <trkpt lat="49.35223" lon="6.57758">
        <ele>252.8</ele>
        <time>2018-06-17T08:36:49Z</time>
      </trkpt>
      <trkpt lat="49.35209" lon="6.57761">
        <ele>253.1</ele>
        <time>2018-06-17T08:37:01Z</time>
      </trkpt>
      <trkpt lat="49.35196" lon="6.57767">
        <ele>253.4</ele>
        <time>2018-06-17T08:37:14Z</time>
      </trkpt>
      <trkpt lat="49.35184" lon="6.57779">
        <ele>253.7</ele>
        <time>2018-06-17T08:37:26Z</time>
      </trkpt>
      <trkpt lat="49.3518" lon="6.57782">
        <ele>253.8</ele>
        <time>2018-06-17T08:37:29Z</time>
      </trkpt>
      <trkpt lat="49.35172" lon="6.57791">
        <ele>253.6</ele>
        <time>2018-06-17T08:37:36Z</time>
      </trkpt>
      <trkpt lat="49.35162" lon="6.57803">
        <ele>253.5</ele>
        <time>2018-06-17T08:37:46Z</time>
      </trkpt>
      <trkpt lat="49.35153" lon="6.57819">
        <ele>253.3</ele>
        <time>2018-06-17T08:37:57Z</time>
      </trkpt>
      <trkpt lat="49.35146" lon="6.57839">
        <ele>253.1</ele>
        <time>2018-06-17T08:38:08Z</time>
      </trkpt>
      <trkpt lat="49.35143" lon="6.57861">
        <ele>252.8</ele>
        <time>2018-06-17T08:38:23Z</time>
      </trkpt>
      <trkpt lat="49.35142" lon="6.57885">
        <ele>252.6</ele>
        <time>2018-06-17T08:38:40Z</time>
      </trkpt>
      <trkpt lat="49.35145" lon="6.57933">
        <ele>251.9</ele>
        <time>2018-06-17T08:39:02Z</time>
      </trkpt>
      <trkpt lat="49.35145" lon="6.57933">
        <ele>251.9</ele>
        <time>2018-06-17T08:39:51Z</time>
      </trkpt>
      <trkpt lat="49.35149" lon="6.5796">
        <ele>251.4</ele>
        <time>2018-06-17T08:39:52Z</time>
      </trkpt>
      <trkpt lat="49.3516" lon="6.57973">
        <ele>251.2</ele>
        <time>2018-06-17T08:40:04Z</time>
      </trkpt>
      <trkpt lat="49.35172" lon="6.57984">
        <ele>251</ele>
        <time>2018-06-17T08:40:15Z</time>
      </trkpt>
      <trkpt lat="49.35184" lon="6.57995">
        <ele>250.8</ele>
        <time>2018-06-17T08:40:26Z</time>
      </trkpt>
      <trkpt lat="49.35187" lon="6.58">
        <ele>250.7</ele>
        <time>2018-06-17T08:40:30Z</time>
      </trkpt>
      <trkpt lat="49.35194" lon="6.58011">
        <ele>250.1</ele>
        <time>2018-06-17T08:40:38Z</time>
      </trkpt>
      <trkpt lat="49.35204" lon="6.58028">
        <ele>249.4</ele>
        <time>2018-06-17T08:40:49Z</time>
      </trkpt>
      <trkpt lat="49.35215" lon="6.5804">
        <ele>248.6</ele>
        <time>2018-06-17T08:41:00Z</time>
      </trkpt>
      <trkpt lat="49.35228" lon="6.58051">
        <ele>247.7</ele>
        <time>2018-06-17T08:41:13Z</time>
      </trkpt>
      <trkpt lat="49.35232" lon="6.58053">
        <ele>247.3</ele>
        <time>2018-06-17T08:41:18Z</time>
      </trkpt>
      <trkpt lat="49.35241" lon="6.58059">
        <ele>245.9</ele>
        <time>2018-06-17T08:41:28Z</time>
      </trkpt>
      <trkpt lat="49.35253" lon="6.58064">
        <ele>244</ele>
        <time>2018-06-17T08:41:42Z</time>
      </trkpt>
      <trkpt lat="49.35256" lon="6.58065">
        <ele>243.5</ele>
        <time>2018-06-17T08:41:45Z</time>
      </trkpt>
      <trkpt lat="49.35269" lon="6.58066">
        <ele>241.3</ele>
        <time>2018-06-17T08:42:00Z</time>
      </trkpt>
      <trkpt lat="49.35275" lon="6.58064">
        <ele>240.4</ele>
        <time>2018-06-17T08:42:06Z</time>
      </trkpt>
      <trkpt lat="49.35283" lon="6.58062">
        <ele>239.3</ele>
        <time>2018-06-17T08:42:14Z</time>
      </trkpt>
      <trkpt lat="49.35297" lon="6.58061">
        <ele>237.3</ele>
        <time>2018-06-17T08:42:29Z</time>
      </trkpt>
      <trkpt lat="49.35298" lon="6.58061">
        <ele>237.2</ele>
        <time>2018-06-17T08:42:30Z</time>
      </trkpt>
      <trkpt lat="49.35311" lon="6.58061">
        <ele>236</ele>
        <time>2018-06-17T08:42:47Z</time>
      </trkpt>
      <trkpt lat="49.35331" lon="6.58063">
        <ele>234.3</ele>
        <time>2018-06-17T08:43:04Z</time>
      </trkpt>
      <trkpt lat="49.35331" lon="6.58063">
        <ele>234.3</ele>
        <time>2018-06-17T08:43:53Z</time>
      </trkpt>
      <trkpt lat="49.35351" lon="6.58066">
        <ele>232.7</ele>
        <time>2018-06-17T08:44:00Z</time>
      </trkpt>
      <trkpt lat="49.35353" lon="6.58066">
        <ele>232.6</ele>
        <time>2018-06-17T08:44:03Z</time>
      </trkpt>
      <trkpt lat="49.35366" lon="6.58069">
        <ele>232.5</ele>
        <time>2018-06-17T08:44:15Z</time>
      </trkpt>
      <trkpt lat="49.35379" lon="6.58074">
        <ele>232.3</ele>
        <time>2018-06-17T08:44:28Z</time>
      </trkpt>
      <trkpt lat="49.35393" lon="6.58078">
        <ele>232.1</ele>
        <time>2018-06-17T08:44:41Z</time>
      </trkpt>
      <trkpt lat="49.35406" lon="6.58083">
        <ele>231.9</ele>
        <time>2018-06-17T08:44:52Z</time>
      </trkpt>
      <trkpt lat="49.35419" lon="6.58091">
        <ele>231.7</ele>
        <time>2018-06-17T08:45:04Z</time>
      </trkpt>
      <trkpt lat="49.35431" lon="6.58099">
        <ele>231.6</ele>
        <time>2018-06-17T08:45:15Z</time>
      </trkpt>
      <trkpt lat="49.35432" lon="6.58099">
        <ele>231.6</ele>
        <time>2018-06-17T08:45:16Z</time>
      </trkpt>
      <trkpt lat="49.35446" lon="6.58104">
        <ele>231.4</ele>
        <time>2018-06-17T08:45:29Z</time>
      </trkpt>
      <trkpt lat="49.3546" lon="6.58109">
        <ele>231.2</ele>
        <time>2018-06-17T08:45:43Z</time>
      </trkpt>
      <trkpt lat="49.35473" lon="6.58115">
        <ele>231</ele>
        <time>2018-06-17T08:45:55Z</time>
      </trkpt>
      <trkpt lat="49.35486" lon="6.58121">
        <ele>230.8</ele>
        <time>2018-06-17T08:46:07Z</time>
      </trkpt>
      <trkpt lat="49.355" lon="6.58128">
        <ele>230.6</ele>
        <time>2018-06-17T08:46:21Z</time>
      </trkpt>
      <trkpt lat="49.35513" lon="6.58136">
        <ele>230.5</ele>
        <time>2018-06-17T08:46:33Z</time>
      </trkpt>
      <trkpt lat="49.35526" lon="6.58143">
        <ele>230.3</ele>
        <time>2018-06-17T08:46:45Z</time>
      </trkpt>
      <trkpt lat="49.3554" lon="6.58149">
        <ele>230.1</ele>
        <time>2018-06-17T08:46:57Z</time>
      </trkpt>
      <trkpt lat="49.35554" lon="6.58154">
        <ele>229.9</ele>
        <time>2018-06-17T08:47:09Z</time>
      </trkpt>
      <trkpt lat="49.35568" lon="6.58157">
        <ele>229.7</ele>
        <time>2018-06-17T08:47:22Z</time>
      </trkpt>
      <trkpt lat="49.35584" lon="6.58158">
        <ele>229.5</ele>
        <time>2018-06-17T08:47:36Z</time>
      </trkpt>
      <trkpt lat="49.35588" lon="6.58158">
        <ele>229.5</ele>
        <time>2018-06-17T08:47:40Z</time>
      </trkpt>
      <trkpt lat="49.35598" lon="6.58159">
        <ele>228.9</ele>
        <time>2018-06-17T08:47:49Z</time>
      </trkpt>
      <trkpt lat="49.35611" lon="6.58162">
        <ele>228.1</ele>
        <time>2018-06-17T08:48:02Z</time>
      </trkpt>
      <trkpt lat="49.35625" lon="6.58163">
        <ele>227.3</ele>
        <time>2018-06-17T08:48:16Z</time>
      </trkpt>
      <trkpt lat="49.35635" lon="6.58168">
        <ele>226.3</ele>
        <time>2018-06-17T08:48:32Z</time>
      </trkpt>
      <trkpt lat="49.35634" lon="6.5817">
        <ele>226.2</ele>
        <time>2018-06-17T08:48:34Z</time>
      </trkpt>
      <trkpt lat="49.3563" lon="6.5818">
        <ele>224.9</ele>
        <time>2018-06-17T08:48:54Z</time>
      </trkpt>
      <trkpt lat="49.35618" lon="6.58192">
        <ele>223.6</ele>
        <time>2018-06-17T08:49:14Z</time>
      </trkpt>
      <trkpt lat="49.3561" lon="6.582">
        <ele>223.1</ele>
        <time>2018-06-17T08:49:22Z</time>
      </trkpt>
      <trkpt lat="49.35607" lon="6.58203">
        <ele>222.7</ele>
        <time>2018-06-17T08:49:26Z</time>
      </trkpt>
      <trkpt lat="49.35595" lon="6.58213">
        <ele>221.3</ele>
        <time>2018-06-17T08:49:41Z</time>
      </trkpt>
      <trkpt lat="49.35582" lon="6.58221">
        <ele>219.8</ele>
        <time>2018-06-17T08:49:57Z</time>
      </trkpt>
      <trkpt lat="49.35581" lon="6.58222">
        <ele>219.7</ele>
        <time>2018-06-17T08:49:58Z</time>
      </trkpt>
      <trkpt lat="49.3557" lon="6.58233">
        <ele>218.1</ele>
        <time>2018-06-17T08:50:12Z</time>
      </trkpt>
      <trkpt lat="49.35558" lon="6.58246">
        <ele>216.5</ele>
        <time>2018-06-17T08:50:26Z</time>
      </trkpt>
      <trkpt lat="49.35556" lon="6.58248">
        <ele>216.2</ele>
        <time>2018-06-17T08:50:28Z</time>
      </trkpt>
      <trkpt lat="49.35545" lon="6.58259">
        <ele>215.2</ele>
        <time>2018-06-17T08:50:39Z</time>
      </trkpt>
      <trkpt lat="49.35533" lon="6.58268">
        <ele>214</ele>
        <time>2018-06-17T08:50:51Z</time>
      </trkpt>
      <trkpt lat="49.35522" lon="6.58277">
        <ele>212.7</ele>
        <time>2018-06-17T08:51:04Z</time>
      </trkpt>
      <trkpt lat="49.35521" lon="6.58278">
        <ele>212.6</ele>
        <time>2018-06-17T08:51:05Z</time>
      </trkpt>
      <trkpt lat="49.35509" lon="6.58289">
        <ele>211.7</ele>
        <time>2018-06-17T08:51:19Z</time>
      </trkpt>
      <trkpt lat="49.35498" lon="6.58302">
        <ele>210.9</ele>
        <time>2018-06-17T08:51:31Z</time>
      </trkpt>
      <trkpt lat="49.35487" lon="6.58318">
        <ele>209.9</ele>
        <time>2018-06-17T08:51:45Z</time>
      </trkpt>
      <trkpt lat="49.35481" lon="6.58326">
        <ele>209.5</ele>
        <time>2018-06-17T08:51:52Z</time>
      </trkpt>
      <trkpt lat="49.35477" lon="6.58333">
        <ele>209.1</ele>
        <time>2018-06-17T08:51:58Z</time>
      </trkpt>
      <trkpt lat="49.35466" lon="6.58349">
        <ele>208.3</ele>
        <time>2018-06-17T08:52:10Z</time>
      </trkpt>
      <trkpt lat="49.35455" lon="6.58364">
        <ele>207.4</ele>
        <time>2018-06-17T08:52:25Z</time>
      </trkpt>
      <trkpt lat="49.35444" lon="6.58374">
        <ele>206.5</ele>
        <time>2018-06-17T08:52:40Z</time>
      </trkpt>
      <trkpt lat="49.35442" lon="6.58375">
        <ele>206.3</ele>
        <time>2018-06-17T08:52:43Z</time>
      </trkpt>
      <trkpt lat="49.35403" lon="6.58392">
        <ele>208.2</ele>
        <time>2018-06-17T08:53:07Z</time>
      </trkpt>
      <trkpt lat="49.35403" lon="6.58392">
        <ele>208.2</ele>
        <time>2018-06-17T09:00:30Z</time>
      </trkpt>
      <trkpt lat="49.35377" lon="6.58401">
        <ele>210.8</ele>
        <time>2018-06-17T09:00:41Z</time>
      </trkpt>
      <trkpt lat="49.35363" lon="6.58403">
        <ele>210.9</ele>
        <time>2018-06-17T09:00:55Z</time>
      </trkpt>
      <trkpt lat="49.35363" lon="6.58403">
        <ele>211</ele>
        <time>2018-06-17T09:00:56Z</time>
      </trkpt>
      <trkpt lat="49.35349" lon="6.58405">
        <ele>212.6</ele>
        <time>2018-06-17T09:01:11Z</time>
      </trkpt>
      <trkpt lat="49.35336" lon="6.58408">
        <ele>214.3</ele>
        <time>2018-06-17T09:01:26Z</time>
      </trkpt>
      <trkpt lat="49.35335" lon="6.58408">
        <ele>214.4</ele>
        <time>2018-06-17T09:01:27Z</time>
      </trkpt>
      <trkpt lat="49.35321" lon="6.58413">
        <ele>216.2</ele>
        <time>2018-06-17T09:01:41Z</time>
      </trkpt>
      <trkpt lat="49.35311" lon="6.58419">
        <ele>217.7</ele>
        <time>2018-06-17T09:01:53Z</time>
      </trkpt>
      <trkpt lat="49.35308" lon="6.5842">
        <ele>218.1</ele>
        <time>2018-06-17T09:01:56Z</time>
      </trkpt>
      <trkpt lat="49.353" lon="6.58423">
        <ele>218.6</ele>
        <time>2018-06-17T09:02:04Z</time>
      </trkpt>
      <trkpt lat="49.35285" lon="6.58421">
        <ele>219.4</ele>
        <time>2018-06-17T09:02:16Z</time>
      </trkpt>
      <trkpt lat="49.35271" lon="6.58416">
        <ele>220.3</ele>
        <time>2018-06-17T09:02:29Z</time>
      </trkpt>
      <trkpt lat="49.35258" lon="6.58406">
        <ele>221</ele>
        <time>2018-06-17T09:02:40Z</time>
      </trkpt>
      <trkpt lat="49.35252" lon="6.58398">
        <ele>221.3</ele>
        <time>2018-06-17T09:02:44Z</time>
      </trkpt>
      <trkpt lat="49.35245" lon="6.58388">
        <ele>222.3</ele>
        <time>2018-06-17T09:02:49Z</time>
      </trkpt>
      <trkpt lat="49.35233" lon="6.58369">
        <ele>224.7</ele>
        <time>2018-06-17T09:03:02Z</time>
      </trkpt>
      <trkpt lat="49.35232" lon="6.58367">
        <ele>224.7</ele>
        <time>2018-06-17T09:03:03Z</time>
      </trkpt>
      <trkpt lat="49.35222" lon="6.58353">
        <ele>225.2</ele>
        <time>2018-06-17T09:03:16Z</time>
      </trkpt>
      <trkpt lat="49.35212" lon="6.58338">
        <ele>225.7</ele>
        <time>2018-06-17T09:03:30Z</time>
      </trkpt>
      <trkpt lat="49.35203" lon="6.5832">
        <ele>226.2</ele>
        <time>2018-06-17T09:03:44Z</time>
      </trkpt>
      <trkpt lat="49.35197" lon="6.58307">
        <ele>226.5</ele>
        <time>2018-06-17T09:03:52Z</time>
      </trkpt>
      <trkpt lat="49.35193" lon="6.58292">
        <ele>226.8</ele>
        <time>2018-06-17T09:04:01Z</time>
      </trkpt>
      <trkpt lat="49.35192" lon="6.58279">
        <ele>227.1</ele>
        <time>2018-06-17T09:04:09Z</time>
      </trkpt>
      <trkpt lat="49.3519" lon="6.58266">
        <ele>227.4</ele>
        <time>2018-06-17T09:04:18Z</time>
      </trkpt>
      <trkpt lat="49.35187" lon="6.58251">
        <ele>228</ele>
        <time>2018-06-17T09:04:32Z</time>
      </trkpt>
      <trkpt lat="49.35186" lon="6.58245">
        <ele>228.7</ele>
        <time>2018-06-17T09:04:38Z</time>
      </trkpt>
      <trkpt lat="49.35186" lon="6.58224">
        <ele>230.7</ele>
        <time>2018-06-17T09:04:53Z</time>
      </trkpt>
      <trkpt lat="49.35188" lon="6.58211">
        <ele>231.2</ele>
        <time>2018-06-17T09:04:57Z</time>
      </trkpt>
      <trkpt lat="49.35189" lon="6.58201">
        <ele>231.6</ele>
        <time>2018-06-17T09:05:00Z</time>
      </trkpt>
      <trkpt lat="49.35189" lon="6.58196">
        <ele>231.9</ele>
        <time>2018-06-17T09:05:02Z</time>
      </trkpt>
      <trkpt lat="49.35179" lon="6.58161">
        <ele>233.4</ele>
        <time>2018-06-17T09:05:13Z</time>
      </trkpt>
      <trkpt lat="49.35179" lon="6.58161">
        <ele>233.4</ele>
        <time>2018-06-17T09:06:03Z</time>
      </trkpt>
      <trkpt lat="49.35168" lon="6.58143">
        <ele>233.7</ele>
        <time>2018-06-17T09:06:11Z</time>
      </trkpt>
      <trkpt lat="49.35154" lon="6.58132">
        <ele>233.3</ele>
        <time>2018-06-17T09:06:26Z</time>
      </trkpt>
      <trkpt lat="49.35145" lon="6.58116">
        <ele>232.9</ele>
        <time>2018-06-17T09:06:45Z</time>
      </trkpt>
      <trkpt lat="49.35137" lon="6.58099">
        <ele>232.5</ele>
        <time>2018-06-17T09:07:04Z</time>
      </trkpt>
      <trkpt lat="49.35128" lon="6.58082">
        <ele>232.2</ele>
        <time>2018-06-17T09:07:17Z</time>
      </trkpt>
      <trkpt lat="49.35119" lon="6.58067">
        <ele>231.9</ele>
        <time>2018-06-17T09:07:29Z</time>
      </trkpt>
      <trkpt lat="49.3511" lon="6.5805">
        <ele>231.7</ele>
        <time>2018-06-17T09:07:41Z</time>
      </trkpt>
      <trkpt lat="49.35103" lon="6.58029">
        <ele>231.4</ele>
        <time>2018-06-17T09:07:54Z</time>
      </trkpt>
      <trkpt lat="49.351" lon="6.58022">
        <ele>231.2</ele>
        <time>2018-06-17T09:08:00Z</time>
      </trkpt>
      <trkpt lat="49.35095" lon="6.5801">
        <ele>231.3</ele>
        <time>2018-06-17T09:08:09Z</time>
      </trkpt>
      <trkpt lat="49.35086" lon="6.57992">
        <ele>231.5</ele>
        <time>2018-06-17T09:08:24Z</time>
      </trkpt>
      <trkpt lat="49.35078" lon="6.57974">
        <ele>231.6</ele>
        <time>2018-06-17T09:08:36Z</time>
      </trkpt>
      <trkpt lat="49.35068" lon="6.5796">
        <ele>231.6</ele>
        <time>2018-06-17T09:08:45Z</time>
      </trkpt>
      <trkpt lat="49.35056" lon="6.57948">
        <ele>231.8</ele>
        <time>2018-06-17T09:08:58Z</time>
      </trkpt>
      <trkpt lat="49.35045" lon="6.57933">
        <ele>231.9</ele>
        <time>2018-06-17T09:09:13Z</time>
      </trkpt>
      <trkpt lat="49.35035" lon="6.57917">
        <ele>232</ele>
        <time>2018-06-17T09:09:26Z</time>
      </trkpt>
      <trkpt lat="49.35024" lon="6.57901">
        <ele>232.1</ele>
        <time>2018-06-17T09:09:38Z</time>
      </trkpt>
      <trkpt lat="49.35012" lon="6.57886">
        <ele>232.2</ele>
        <time>2018-06-17T09:09:50Z</time>
      </trkpt>
      <trkpt lat="49.3499" lon="6.57857">
        <ele>232.5</ele>
        <time>2018-06-17T09:10:07Z</time>
      </trkpt>
      <trkpt lat="49.3499" lon="6.57857">
        <ele>232.5</ele>
        <time>2018-06-17T09:10:47Z</time>
      </trkpt>
      <trkpt lat="49.3498" lon="6.57842">
        <ele>232.7</ele>
        <time>2018-06-17T09:10:49Z</time>
      </trkpt>
      <trkpt lat="49.34969" lon="6.5783">
        <ele>232.8</ele>
        <time>2018-06-17T09:10:59Z</time>
      </trkpt>
      <trkpt lat="49.34957" lon="6.57815">
        <ele>233</ele>
        <time>2018-06-17T09:11:12Z</time>
      </trkpt>
      <trkpt lat="49.34945" lon="6.57801">
        <ele>233.1</ele>
        <time>2018-06-17T09:11:25Z</time>
      </trkpt>
      <trkpt lat="49.34932" lon="6.57787">
        <ele>233.2</ele>
        <time>2018-06-17T09:11:40Z</time>
      </trkpt>
      <trkpt lat="49.3492" lon="6.57776">
        <ele>233.3</ele>
        <time>2018-06-17T09:11:52Z</time>
      </trkpt>
      <trkpt lat="49.34907" lon="6.57765">
        <ele>233.4</ele>
        <time>2018-06-17T09:12:05Z</time>
      </trkpt>
      <trkpt lat="49.34893" lon="6.57755">
        <ele>233.6</ele>
        <time>2018-06-17T09:12:21Z</time>
      </trkpt>
      <trkpt lat="49.34881" lon="6.57746">
        <ele>233.7</ele>
        <time>2018-06-17T09:12:33Z</time>
      </trkpt>
      <trkpt lat="49.34869" lon="6.57736">
        <ele>233.8</ele>
        <time>2018-06-17T09:12:43Z</time>
      </trkpt>
      <trkpt lat="49.34856" lon="6.57722">
        <ele>233.9</ele>
        <time>2018-06-17T09:12:57Z</time>
      </trkpt>
      <trkpt lat="49.34844" lon="6.57713">
        <ele>234</ele>
        <time>2018-06-17T09:13:13Z</time>
      </trkpt>
      <trkpt lat="49.34829" lon="6.57708">
        <ele>234.2</ele>
        <time>2018-06-17T09:13:29Z</time>
      </trkpt>
      <trkpt lat="49.34815" lon="6.57704">
        <ele>234.3</ele>
        <time>2018-06-17T09:13:43Z</time>
      </trkpt>
      <trkpt lat="49.34811" lon="6.57701">
        <ele>234.4</ele>
        <time>2018-06-17T09:13:47Z</time>
      </trkpt>
      <trkpt lat="49.34802" lon="6.57696">
        <ele>235.1</ele>
        <time>2018-06-17T09:13:56Z</time>
      </trkpt>
      <trkpt lat="49.34789" lon="6.57686">
        <ele>236</ele>
        <time>2018-06-17T09:14:07Z</time>
      </trkpt>
      <trkpt lat="49.34775" lon="6.57679">
        <ele>236.8</ele>
        <time>2018-06-17T09:14:17Z</time>
      </trkpt>
      <trkpt lat="49.34763" lon="6.57671">
        <ele>237.7</ele>
        <time>2018-06-17T09:14:28Z</time>
      </trkpt>
      <trkpt lat="49.34756" lon="6.57667">
        <ele>238.1</ele>
        <time>2018-06-17T09:14:34Z</time>
      </trkpt>
      <trkpt lat="49.34736" lon="6.57654">
        <ele>239.6</ele>
        <time>2018-06-17T09:14:38Z</time>
      </trkpt>
      <trkpt lat="49.34736" lon="6.57654">
        <ele>239.6</ele>
        <time>2018-06-17T09:15:40Z</time>
      </trkpt>
      <trkpt lat="49.34718" lon="6.57642">
        <ele>240.9</ele>
        <time>2018-06-17T09:15:54Z</time>
      </trkpt>
      <trkpt lat="49.34709" lon="6.57637">
        <ele>241.3</ele>
        <time>2018-06-17T09:16:04Z</time>
      </trkpt>
      <trkpt lat="49.34705" lon="6.57635">
        <ele>241.6</ele>
        <time>2018-06-17T09:16:08Z</time>
      </trkpt>
      <trkpt lat="49.34692" lon="6.57625">
        <ele>242.3</ele>
        <time>2018-06-17T09:16:20Z</time>
      </trkpt>
      <trkpt lat="49.34658" lon="6.576">
        <ele>242.9</ele>
        <time>2018-06-17T09:16:52Z</time>
      </trkpt>
      <trkpt lat="49.34658" lon="6.576">
        <ele>242.9</ele>
        <time>2018-06-17T09:18:46Z</time>
      </trkpt>
      <trkpt lat="49.34635" lon="6.57587">
        <ele>242.5</ele>
        <time>2018-06-17T09:18:58Z</time>
      </trkpt>
      <trkpt lat="49.34623" lon="6.57587">
        <ele>242.2</ele>
        <time>2018-06-17T09:19:11Z</time>
      </trkpt>
      <trkpt lat="49.34617" lon="6.57585">
        <ele>242.1</ele>
        <time>2018-06-17T09:19:18Z</time>
      </trkpt>
      <trkpt lat="49.34603" lon="6.57586">
        <ele>241.9</ele>
        <time>2018-06-17T09:19:32Z</time>
      </trkpt>
      <trkpt lat="49.34602" lon="6.57586">
        <ele>241.8</ele>
        <time>2018-06-17T09:19:34Z</time>
      </trkpt>
    </trkseg>
  </trk>
</gpx>