<?xml version="1.0" encoding="UTF-8" standalone="no" ?>
<gpx xmlns="http://www.topografix.com/GPX/1/1" xmlns:xsi="http://www.w3.org/2001/XMLSchema-instance" xsi:schemaLocation="http://www.topografix.com/GPX/1/1 http://www.topografix.com/GPX/1/1/gpx.xsd" version="1.1" creator="VisuGPX - https://www.visugpx.com">
  <metadata>
    <name>Petit Minou/ Menguan / Trégana</name>
    <desc><![CDATA[GR34, Chemin de Compostelle, départ du parking du  Minou, suivre le GR en direction de Menguant, rejoindre la Rte, et revenir vers le Minou par Quillihouarn, Kérangoff. Continuer sur le GR jusqu\'à la plage de Trégana. Le retour passe par Trégana, Neïz Vran,Pen Ar Ménez,Kerhallet, Kerhamiel, Le Cosquer, le GR, et retour au parking]]></desc>
  </metadata>
  <wpt lat="48.34005" lon="-4.61559">
    <ele>24</ele>
    <name><![CDATA[Pt Minou Pk]]></name>
  </wpt>
  <wpt lat="48.34756" lon="-4.58912">
    <ele>55</ele>
    <name><![CDATA[Menguan]]></name>
  </wpt>
  <wpt lat="48.34081" lon="-4.62896">
    <ele>50</ele>
    <name><![CDATA[Toulbroc'h]]></name>
  </wpt>
  <wpt lat="48.34713" lon="-4.65333">
    <ele>35</ele>
    <name><![CDATA[Min Rné]]></name>
  </wpt>
  <wpt lat="48.35095" lon="-4.64684">
    <ele>69</ele>
    <name><![CDATA[Neïz Vran]]></name>
  </wpt>
  <wpt lat="48.35361" lon="-4.62343">
    <ele>76</ele>
    <name><![CDATA[WP 6]]></name>
  </wpt>
  <trk>
    <name><![CDATA[Le Minou /Menguan/Trégana]]></name>
    <trkseg>
      <trkpt lat="48.34007" lon="-4.61564">
        <ele>23</ele>
      </trkpt>
      <trkpt lat="48.3387" lon="-4.61496">
        <ele>17</ele>
      </trkpt>
      <trkpt lat="48.33897" lon="-4.61394">
        <ele>28</ele>
      </trkpt>
      <trkpt lat="48.33867" lon="-4.6136">
        <ele>25</ele>
      </trkpt>
      <trkpt lat="48.33874" lon="-4.61237">
        <ele>21</ele>
      </trkpt>
      <trkpt lat="48.33937" lon="-4.61144">
        <ele>32</ele>
      </trkpt>
      <trkpt lat="48.33879" lon="-4.60885">
        <ele>29</ele>
      </trkpt>
      <trkpt lat="48.33962" lon="-4.60548">
        <ele>30</ele>
      </trkpt>
      <trkpt lat="48.34009" lon="-4.60551">
        <ele>43</ele>
      </trkpt>
      <trkpt lat="48.34057" lon="-4.60431">
        <ele>34</ele>
      </trkpt>
      <trkpt lat="48.34095" lon="-4.60366">
        <ele>39</ele>
      </trkpt>
      <trkpt lat="48.34167" lon="-4.60191">
        <ele>41</ele>
      </trkpt>
      <trkpt lat="48.34161" lon="-4.60092">
        <ele>29</ele>
      </trkpt>
      <trkpt lat="48.34199" lon="-4.59995">
        <ele>33</ele>
      </trkpt>
      <trkpt lat="48.34354" lon="-4.59773">
        <ele>26</ele>
      </trkpt>
      <trkpt lat="48.34422" lon="-4.59805">
        <ele>39</ele>
      </trkpt>
      <trkpt lat="48.34411" lon="-4.59695">
        <ele>23</ele>
      </trkpt>
      <trkpt lat="48.34447" lon="-4.59632">
        <ele>37</ele>
      </trkpt>
      <trkpt lat="48.34499" lon="-4.59412">
        <ele>45</ele>
      </trkpt>
      <trkpt lat="48.34494" lon="-4.59338">
        <ele>38</ele>
      </trkpt>
      <trkpt lat="48.34566" lon="-4.59109">
        <ele>37</ele>
      </trkpt>
      <trkpt lat="48.34634" lon="-4.59017">
        <ele>44</ele>
      </trkpt>
      <trkpt lat="48.34675" lon="-4.58929">
        <ele>44</ele>
      </trkpt>
      <trkpt lat="48.34713" lon="-4.58905">
        <ele>46</ele>
      </trkpt>
      <trkpt lat="48.34749" lon="-4.58908">
        <ele>53</ele>
      </trkpt>
      <trkpt lat="48.34812" lon="-4.58965">
        <ele>57</ele>
      </trkpt>
      <trkpt lat="48.34666" lon="-4.59302">
        <ele>70</ele>
      </trkpt>
      <trkpt lat="48.34603" lon="-4.59545">
        <ele>68</ele>
      </trkpt>
      <trkpt lat="48.34578" lon="-4.5962">
        <ele>61</ele>
      </trkpt>
      <trkpt lat="48.34584" lon="-4.59686">
        <ele>64</ele>
      </trkpt>
      <trkpt lat="48.34654" lon="-4.59733">
        <ele>66</ele>
      </trkpt>
      <trkpt lat="48.34664" lon="-4.59746">
        <ele>67</ele>
      </trkpt>
      <trkpt lat="48.34596" lon="-4.60114">
        <ele>57</ele>
      </trkpt>
      <trkpt lat="48.34551" lon="-4.60142">
        <ele>55</ele>
      </trkpt>
      <trkpt lat="48.34499" lon="-4.60119">
        <ele>57</ele>
      </trkpt>
      <trkpt lat="48.34424" lon="-4.60132">
        <ele>59</ele>
      </trkpt>
      <trkpt lat="48.34338" lon="-4.60103">
        <ele>61</ele>
      </trkpt>
      <trkpt lat="48.34278" lon="-4.60197">
        <ele>55</ele>
      </trkpt>
      <trkpt lat="48.34237" lon="-4.60307">
        <ele>52</ele>
      </trkpt>
      <trkpt lat="48.34188" lon="-4.60388">
        <ele>53</ele>
      </trkpt>
      <trkpt lat="48.34152" lon="-4.60529">
        <ele>53</ele>
      </trkpt>
      <trkpt lat="48.34196" lon="-4.60578">
        <ele>55</ele>
      </trkpt>
      <trkpt lat="48.34205" lon="-4.6069">
        <ele>58</ele>
      </trkpt>
      <trkpt lat="48.34131" lon="-4.6092">
        <ele>55</ele>
      </trkpt>
      <trkpt lat="48.34124" lon="-4.61027">
        <ele>54</ele>
      </trkpt>
      <trkpt lat="48.34149" lon="-4.61152">
        <ele>56</ele>
      </trkpt>
      <trkpt lat="48.3416" lon="-4.6123">
        <ele>54</ele>
      </trkpt>
      <trkpt lat="48.34028" lon="-4.61272">
        <ele>49</ele>
      </trkpt>
      <trkpt lat="48.33994" lon="-4.61238">
        <ele>43</ele>
      </trkpt>
      <trkpt lat="48.33962" lon="-4.61251">
        <ele>41</ele>
      </trkpt>
      <trkpt lat="48.33917" lon="-4.61309">
        <ele>39</ele>
      </trkpt>
      <trkpt lat="48.33896" lon="-4.61387">
        <ele>28</ele>
      </trkpt>
      <trkpt lat="48.33878" lon="-4.61486">
        <ele>18</ele>
      </trkpt>
      <trkpt lat="48.34028" lon="-4.61549">
        <ele>25</ele>
      </trkpt>
      <trkpt lat="48.34077" lon="-4.61531">
        <ele>26</ele>
      </trkpt>
      <trkpt lat="48.34086" lon="-4.61554">
        <ele>37</ele>
      </trkpt>
      <trkpt lat="48.34027" lon="-4.61593">
        <ele>32</ele>
      </trkpt>
      <trkpt lat="48.33984" lon="-4.61672">
        <ele>30</ele>
      </trkpt>
      <trkpt lat="48.33957" lon="-4.617">
        <ele>24</ele>
      </trkpt>
      <trkpt lat="48.33933" lon="-4.61836">
        <ele>19</ele>
      </trkpt>
      <trkpt lat="48.33949" lon="-4.61883">
        <ele>24</ele>
      </trkpt>
      <trkpt lat="48.33942" lon="-4.61979">
        <ele>23</ele>
      </trkpt>
      <trkpt lat="48.33924" lon="-4.62149">
        <ele>31</ele>
      </trkpt>
      <trkpt lat="48.33944" lon="-4.62225">
        <ele>35</ele>
      </trkpt>
      <trkpt lat="48.33946" lon="-4.62355">
        <ele>34</ele>
      </trkpt>
      <trkpt lat="48.33926" lon="-4.62397">
        <ele>34</ele>
      </trkpt>
      <trkpt lat="48.34028" lon="-4.62397">
        <ele>39</ele>
      </trkpt>
      <trkpt lat="48.34088" lon="-4.62434">
        <ele>42</ele>
      </trkpt>
      <trkpt lat="48.34082" lon="-4.62475">
        <ele>40</ele>
      </trkpt>
      <trkpt lat="48.34122" lon="-4.62632">
        <ele>48</ele>
      </trkpt>
      <trkpt lat="48.34217" lon="-4.62679">
        <ele>53</ele>
      </trkpt>
      <trkpt lat="48.34226" lon="-4.6277">
        <ele>54</ele>
      </trkpt>
      <trkpt lat="48.34127" lon="-4.62794">
        <ele>55</ele>
      </trkpt>
      <trkpt lat="48.34117" lon="-4.62851">
        <ele>55</ele>
      </trkpt>
      <trkpt lat="48.34077" lon="-4.62888">
        <ele>50</ele>
      </trkpt>
      <trkpt lat="48.34143" lon="-4.63031">
        <ele>46</ele>
      </trkpt>
      <trkpt lat="48.34143" lon="-4.63052">
        <ele>45</ele>
      </trkpt>
      <trkpt lat="48.34113" lon="-4.6306">
        <ele>43</ele>
      </trkpt>
      <trkpt lat="48.34127" lon="-4.63084">
        <ele>33</ele>
      </trkpt>
      <trkpt lat="48.34215" lon="-4.63084">
        <ele>38</ele>
      </trkpt>
      <trkpt lat="48.34264" lon="-4.63169">
        <ele>21</ele>
      </trkpt>
      <trkpt lat="48.3435" lon="-4.63203">
        <ele>21</ele>
      </trkpt>
      <trkpt lat="48.34406" lon="-4.63245">
        <ele>19</ele>
      </trkpt>
      <trkpt lat="48.34366" lon="-4.63326">
        <ele>17</ele>
      </trkpt>
      <trkpt lat="48.34289" lon="-4.63396">
        <ele>14</ele>
      </trkpt>
      <trkpt lat="48.34305" lon="-4.63493">
        <ele>18</ele>
      </trkpt>
      <trkpt lat="48.34334" lon="-4.63555">
        <ele>21</ele>
      </trkpt>
      <trkpt lat="48.34411" lon="-4.63594">
        <ele>22</ele>
      </trkpt>
      <trkpt lat="48.34415" lon="-4.63652">
        <ele>14</ele>
      </trkpt>
      <trkpt lat="48.34452" lon="-4.63647">
        <ele>22</ele>
      </trkpt>
      <trkpt lat="48.34503" lon="-4.63832">
        <ele>16</ele>
      </trkpt>
      <trkpt lat="48.34569" lon="-4.63884">
        <ele>18</ele>
      </trkpt>
      <trkpt lat="48.34584" lon="-4.63986">
        <ele>10</ele>
      </trkpt>
      <trkpt lat="48.34744" lon="-4.63981">
        <ele>18</ele>
      </trkpt>
      <trkpt lat="48.34718" lon="-4.64041">
        <ele>20</ele>
      </trkpt>
      <trkpt lat="48.34621" lon="-4.64111">
        <ele>18</ele>
      </trkpt>
      <trkpt lat="48.3456" lon="-4.64203">
        <ele>15</ele>
      </trkpt>
      <trkpt lat="48.3455" lon="-4.64265">
        <ele>19</ele>
      </trkpt>
      <trkpt lat="48.34623" lon="-4.64325">
        <ele>38</ele>
      </trkpt>
      <trkpt lat="48.34627" lon="-4.64383">
        <ele>42</ele>
      </trkpt>
      <trkpt lat="48.34555" lon="-4.64424">
        <ele>26</ele>
      </trkpt>
      <trkpt lat="48.34566" lon="-4.64547">
        <ele>26</ele>
      </trkpt>
      <trkpt lat="48.34584" lon="-4.64704">
        <ele>35</ele>
      </trkpt>
      <trkpt lat="48.34564" lon="-4.64774">
        <ele>26</ele>
      </trkpt>
      <trkpt lat="48.34569" lon="-4.64829">
        <ele>26</ele>
      </trkpt>
      <trkpt lat="48.34618" lon="-4.64946">
        <ele>32</ele>
      </trkpt>
      <trkpt lat="48.34578" lon="-4.65048">
        <ele>16</ele>
      </trkpt>
      <trkpt lat="48.34731" lon="-4.65357">
        <ele>27</ele>
      </trkpt>
      <trkpt lat="48.34821" lon="-4.65375">
        <ele>32</ele>
      </trkpt>
      <trkpt lat="48.34907" lon="-4.65545">
        <ele>25</ele>
      </trkpt>
      <trkpt lat="48.34888" lon="-4.65629">
        <ele>20</ele>
      </trkpt>
      <trkpt lat="48.34925" lon="-4.65668">
        <ele>20</ele>
      </trkpt>
      <trkpt lat="48.34952" lon="-4.65767">
        <ele>18</ele>
      </trkpt>
      <trkpt lat="48.35051" lon="-4.65921">
        <ele>24</ele>
      </trkpt>
      <trkpt lat="48.35094" lon="-4.66145">
        <ele>18</ele>
      </trkpt>
      <trkpt lat="48.35166" lon="-4.66258">
        <ele>21</ele>
      </trkpt>
      <trkpt lat="48.35288" lon="-4.66281">
        <ele>31</ele>
      </trkpt>
      <trkpt lat="48.35399" lon="-4.66273">
        <ele>40</ele>
      </trkpt>
      <trkpt lat="48.3544" lon="-4.66169">
        <ele>43</ele>
      </trkpt>
      <trkpt lat="48.35345" lon="-4.66059">
        <ele>45</ele>
      </trkpt>
      <trkpt lat="48.35201" lon="-4.65467">
        <ele>51</ele>
      </trkpt>
      <trkpt lat="48.35124" lon="-4.6513">
        <ele>54</ele>
      </trkpt>
      <trkpt lat="48.35174" lon="-4.65049">
        <ele>59</ele>
      </trkpt>
      <trkpt lat="48.3514" lon="-4.64908">
        <ele>61</ele>
      </trkpt>
      <trkpt lat="48.35146" lon="-4.64869">
        <ele>62</ele>
      </trkpt>
      <trkpt lat="48.35094" lon="-4.64688">
        <ele>69</ele>
      </trkpt>
      <trkpt lat="48.35209" lon="-4.64542">
        <ele>75</ele>
      </trkpt>
      <trkpt lat="48.35435" lon="-4.64613">
        <ele>75</ele>
      </trkpt>
      <trkpt lat="48.35674" lon="-4.64456">
        <ele>80</ele>
      </trkpt>
      <trkpt lat="48.35624" lon="-4.64276">
        <ele>79</ele>
      </trkpt>
      <trkpt lat="48.35665" lon="-4.64114">
        <ele>79</ele>
      </trkpt>
      <trkpt lat="48.35654" lon="-4.64093">
        <ele>79</ele>
      </trkpt>
      <trkpt lat="48.35678" lon="-4.63965">
        <ele>76</ele>
      </trkpt>
      <trkpt lat="48.35633" lon="-4.63931">
        <ele>76</ele>
      </trkpt>
      <trkpt lat="48.35654" lon="-4.63866">
        <ele>75</ele>
      </trkpt>
      <trkpt lat="48.35748" lon="-4.63809">
        <ele>75</ele>
      </trkpt>
      <trkpt lat="48.35712" lon="-4.63569">
        <ele>75</ele>
      </trkpt>
      <trkpt lat="48.35778" lon="-4.63334">
        <ele>76</ele>
      </trkpt>
      <trkpt lat="48.35678" lon="-4.63305">
        <ele>74</ele>
      </trkpt>
      <trkpt lat="48.35476" lon="-4.63292">
        <ele>62</ele>
      </trkpt>
      <trkpt lat="48.35336" lon="-4.63148">
        <ele>58</ele>
      </trkpt>
      <trkpt lat="48.35219" lon="-4.62877">
        <ele>69</ele>
      </trkpt>
      <trkpt lat="48.35209" lon="-4.62658">
        <ele>72</ele>
      </trkpt>
      <trkpt lat="48.3505" lon="-4.62051">
        <ele>74</ele>
      </trkpt>
      <trkpt lat="48.348" lon="-4.62278">
        <ele>70</ele>
      </trkpt>
      <trkpt lat="48.34574" lon="-4.62283">
        <ele>70</ele>
      </trkpt>
      <trkpt lat="48.34484" lon="-4.62317">
        <ele>69</ele>
      </trkpt>
      <trkpt lat="48.34267" lon="-4.62278">
        <ele>57</ele>
      </trkpt>
      <trkpt lat="48.34231" lon="-4.62317">
        <ele>53</ele>
      </trkpt>
      <trkpt lat="48.34145" lon="-4.62325">
        <ele>48</ele>
      </trkpt>
      <trkpt lat="48.34111" lon="-4.62425">
        <ele>44</ele>
      </trkpt>
      <trkpt lat="48.34075" lon="-4.6244">
        <ele>39</ele>
      </trkpt>
      <trkpt lat="48.34032" lon="-4.62412">
        <ele>38</ele>
      </trkpt>
      <trkpt lat="48.33924" lon="-4.62412">
        <ele>33</ele>
      </trkpt>
      <trkpt lat="48.33944" lon="-4.62352">
        <ele>34</ele>
      </trkpt>
      <trkpt lat="48.33948" lon="-4.62232">
        <ele>35</ele>
      </trkpt>
      <trkpt lat="48.33919" lon="-4.62151">
        <ele>31</ele>
      </trkpt>
      <trkpt lat="48.33948" lon="-4.61895">
        <ele>23</ele>
      </trkpt>
      <trkpt lat="48.33933" lon="-4.61819">
        <ele>20</ele>
      </trkpt>
      <trkpt lat="48.33953" lon="-4.61702">
        <ele>23</ele>
      </trkpt>
      <trkpt lat="48.34012" lon="-4.61616">
        <ele>33</ele>
      </trkpt>
      <trkpt lat="48.34081" lon="-4.61542">
        <ele>28</ele>
      </trkpt>
      <trkpt lat="48.34021" lon="-4.61556">
        <ele>24</ele>
      </trkpt>
    </trkseg>
  </trk>
</gpx>